{"anganwadi":[{"latitude":22.73994725,"longitude":75.89794321,"precision":4.288,"amenity":"aanganwadi","name":"Anganwadi","name_hindi":"आंगनवाडी","address":"Krishna Bagh 3","mobile":"8435181958","opening_hours":"Mo-Sa 09:00-16:00","personnel_count":2,"value":"030","label":"SANT RAVIDAS"},{"latitude":22.73921264,"longitude":75.89749857,"precision":4.288,"amenity":"aanganwadi","name":"Krishna Bagh Anganwadi (Mini)","name_hindi":"कृष्ण बाघ आंगनवाडी","address":"358 Krishna Bagh,Indore","mobile":"8827427167","opening_hours":"Mo-Sa 09:00-16:00","personnel_count":1,"value":"030","label":"SANT RAVIDAS"},{"latitude":22.74167531,"longitude":75.89819433,"precision":4.288,"amenity":"aanganwadi","name":"Anganwadi Kendra ","name_hindi":"आंगनवाडी केंद्र","address":"Barfani Dham","phone":"07312700290","opening_hours":"Mo-Sa 09:00-16:00","personnel_count":3,"value":"030","label":"SANT RAVIDAS"},{"latitude":22.73736024,"longitude":75.89623923,"precision":4.288,"amenity":"aanganwadi","name":"Anganwadi","name_hindi":"आंगनवाडी","address":"856,Krishna Bagh Colony,Indore","mobile":"7888788421","opening_hours":"Mo-Sa 09:00-16:00","personnel_count":2,"value":"030","label":"SANT RAVIDAS"},{"latitude":22.74090699,"longitude":75.89575205,"precision":4.288,"amenity":"aanganwadi","name":"Anganwadi","name_hindi":"आंगनवाडी","address":"228/2  Malviya Nagar","mobile":"9407137295","opening_hours":"Mo-Sa 09:00-16:00","personnel_count":2,"value":"030","label":"SANT RAVIDAS"},{"latitude":22.7321202121675,"longitude":75.88071964681149,"precision":9,"amenity":"aanganwadi","name":"Aanganwadi Kendra 88 ","name_hindi":" आंगनवाड़ी क्रमांक 88","address":"Lala Ka Bageecha Ward No. 45, Indore","mobile":"9201352078","opening_hours":"mo-sa 09:00-16:00","personnel_count":1,"value":"045","label":"DR. BHIMRAO AMBEDAR"},{"latitude":22.73165447171777,"longitude":75.87929497472942,"precision":6,"amenity":"aanganwadi","name":"Ekikrat Baal Vikas Seva Pariyojana","name_hindi":"एकीकृत बाल विकास सेवा परियोजना","address":"Ward No. 46 Gotu Ki Chaal, Indore","mobile":"9131491186","opening_hours":"mo-sa  09:00-16:00","personnel_count":2,"value":"046","label":"SOMNATH"},{"latitude":22.73235,"longitude":75.88020166666666,"precision":1,"amenity":"aanganwadi","name":"Aanganwadi Centre No. 87","name_hindi":"a","address":"\nAanganwadi Centre No. 87 Lala Ka Bageecha","opening_hours":"mo-sa 09:00-14:00","personnel_count":2,"value":"045","label":"DR. BHIMRAO AMBEDAR"},{"latitude":22.73772139,"longitude":75.8998068,"precision":4.288,"amenity":"aanganwadi","name":"Anganwadi","name_hindi":"आंगनवाडी","address":"89-Swarn Bagh Colony","mobile":"9753128080","opening_hours":"Mo-Sa 09:00-16:00","personnel_count":2,"value":"030","label":"SANT RAVIDAS"},{"latitude":22.71935333333333,"longitude":75.83166833333333,"precision":1,"amenity":"aanganwadi","name":"Anganwadi Center 56","name_hindi":"आंगनवाङी क्रमांक 56","address":"6 Hukumchand Colony","opening_hours":"Mo-Sa09:00-16:00","personnel_count":2,"value":"006","label":"MALHARGANJ"},{"latitude":22.76616456918418,"longitude":75.87771171703935,"precision":6,"amenity":"aanganwadi","name":"Kabeet Khedi Kendra No. 35 Aangwadi","name_hindi":" कबीट खेड़ी केंद्र क्रमांक 35 आंगनवाड़ी","address":"Sukhlia Ground Kabeet Khedi","opening_hours":"9:00-14:00","personnel_count":2,"value":"033","label":"SUKHLIYA"},{"latitude":22.7662213,"longitude":75.87774938,"precision":4.288,"amenity":"aanganwadi","name":"Anganwadi Kendra No.35","name_hindi":"आन्गनवाडी ","address":"Sukhliya Gram Kabit Khedi","opening_hours":"9:00-14:00","personnel_count":2,"value":"033","label":"SUKHLIYA"}]}