{"atms":[{"latitude":22.752575,"longitude":75.89087833,"amenity":"atm","name":"Allahabad Bank","name_hindi":"अलाहाबाद बैंक","address":"1st Floor Allahabad Bank, Opposite Sayaji Hotel, Vijay Nagar, Indore","opening_hours":"24/7","number_of_machines":1,"atm_guard":"yes","cash_in_support":"no","withdrawal_limit":15000,"ward_no":"029","ward_name":"DR. SHYAM PRASAD MUKHARJI"},{"latitude":22.694645,"longitude":75.866705,"amenity":"atm","name":"Allahabad Bank","name_hindi":"अलाहाबाद बैंक","address":"Bhavarkuan Main Road, Professor's Colony, Transport Nagar","opening_hours":"24/7","number_of_machines":1,"atm_guard":"no","cash_in_support":"no","withdrawal_limit":25000,"ward_no":"074","ward_name":"VISHNAPURI"},{"latitude":22.7248323,"longitude":75.82482927,"amenity":"atm","name":"Allahabad Bank","name_hindi":"अलाहाबाद बैंक","address":"6, Anjani Nagar, Aerodrome Road, Indore","opening_hours":"24/7","number_of_machines":1,"atm_guard":"no","cash_in_support":"no","withdrawal_limit":20000,"ward_no":"004","ward_name":"SUKHDEV NAGAR"},{"latitude":22.79079764,"longitude":75.90777459,"amenity":"atm","name":"Allahabad Bank","name_hindi":"अलाहाबाद बैंक","address":"AB Road, Dewas Naka","opening_hours":"24/7","number_of_machines":1,"atm_guard":"yes","cash_in_support":"no","withdrawal_limit":25000,"ward_no":"035","ward_name":"LASUDIYA MORI"},{"latitude":22.75264167,"longitude":75.89633667,"amenity":"atm","name":"Andhra Bank","name_hindi":"आंध्रा बैंक","address":"1st Floor Mangal City Mall, AB Road, Vijaynagar, Indore","opening_hours":"24/7","number_of_machines":1,"atm_guard":"no","cash_in_support":"no","withdrawal_limit":15000,"ward_no":"031","ward_name":"MAHARAJA CHATRASAL"},{"latitude":22.71893963,"longitude":75.88801945,"amenity":"atm","name":"Andhra Bank","name_hindi":"आंध्रा बैंक","address":"Geeta Bhavan","opening_hours":"24/7","number_of_machines":1,"atm_guard":"yes","cash_in_support":"no","withdrawal_limit":50000,"ward_no":"048","ward_name":"GITA BHAVAN"},{"latitude":22.69923333,"longitude":75.86415,"amenity":"atm","name":"Andhra Bank","name_hindi":"आंध्रा बैंक","address":"Gold Coin Plaza, Bhanwarkua Main Road, Sindhi Colony","opening_hours":"24/7","number_of_machines":1,"atm_guard":"no","cash_in_support":"no","withdrawal_limit":25000,"ward_no":"065","ward_name":"SANT KANWARRAM"},{"latitude":22.70098833,"longitude":75.83757,"amenity":"atm","name":"Andhra Bank","name_hindi":"आंध्रा बैंक","address":"Sukhnivas Road, Opp. Samsung Store, Usha Nagar, Scheme 71, Indore","opening_hours":"24/7","number_of_machines":1,"atm_guard":"no","cash_in_support":"no","withdrawal_limit":25000,"ward_no":"071","ward_name":"DRAVID NAGAR"},{"latitude":22.71563333,"longitude":75.84999667,"amenity":"atm","name":"Andhra Bank","name_hindi":"आंध्रा बैंक","address":"335, Jawahar Marg, Madhav Mandir Complex, Indore","opening_hours":"24/7","number_of_machines":3,"atm_guard":"no","cash_in_support":"yes","withdrawal_limit":25000,"ward_no":"068","ward_name":"BAMBAI BAZAR"},{"latitude":22.72516837,"longitude":75.82319347,"amenity":"atm","name":"Andhra Bank","name_hindi":"आंध्रा बैंक","address":"Building no 3, Airport Road, Sukhdev Nagar, Indore","opening_hours":"24/7","number_of_machines":1,"atm_guard":"no","cash_in_support":"no","withdrawal_limit":20000,"ward_no":"004","ward_name":"SUKHDEV NAGAR"},{"latitude":22.7438,"longitude":75.89320167,"amenity":"atm","name":"AU Small Finance Bank","name_hindi":"ऐ यू स्मॉल फाइनेंस बैंक","address":"Scheme No.54, Opposite C21 Mall, Vijay Nagar","opening_hours":"24/7","number_of_machines":1,"atm_guard":"yes","cash_in_support":"yes","withdrawal_limit":20000,"ward_no":"029","ward_name":"DR. SHYAM PRASAD MUKHARJI"},{"latitude":22.6938,"longitude":75.86688333,"amenity":"atm","name":"AU Small Finance Bank","name_hindi":"ऐ यू स्मॉल फाइनेंस बैंक","address":"Bhawarkua Main Road","opening_hours":"24/7","number_of_machines":1,"atm_guard":"yes","cash_in_support":"yes","withdrawal_limit":10000,"ward_no":"074","ward_name":"VISHNAPURI"},{"latitude":22.75209833,"longitude":75.88915833,"amenity":"atm","name":"Axis Bank","name_hindi":"एक्सिस बैंक","address":"1st Floor, Sayaji Plaza, Opp Bhandari Hospital, Vijaynagar, Indore","opening_hours":"24/7","number_of_machines":2,"atm_guard":"yes","cash_in_support":"yes","withdrawal_limit":20000,"ward_no":"028","ward_name":"MA TULJA BHAVANI"},{"latitude":22.750555,"longitude":75.89886,"amenity":"atm","name":"Axis Bank","name_hindi":"एक्सिस बैंक","address":"25,Bhagya Shree Nagar Service Road, Near Petrol Pump, Opp Vijaynagar Police Station, Indore","opening_hours":"24/7","number_of_machines":1,"atm_guard":"no","cash_in_support":"no","withdrawal_limit":15000,"ward_no":"031","ward_name":"MAHARAJA CHATRASAL"},{"latitude":22.75372,"longitude":75.90251333,"amenity":"atm","name":"Axis Bank","name_hindi":"एक्सिस बैंक","address":"Hotel Ps9 , Bombay Hospital, Indore","opening_hours":"24/7","number_of_machines":1,"atm_guard":"yes","cash_in_support":"no","withdrawal_limit":40000,"ward_no":"031","ward_name":"MAHARAJA CHATRASAL"},{"latitude":22.731585,"longitude":75.87263,"amenity":"atm","name":"Axis Bank","name_hindi":"एक्सिस बैंक","address":"57, New Dewas Road, Lal Bangla Colony, Indore","opening_hours":"24/7","number_of_machines":1,"atm_guard":"no","cash_in_support":"no","withdrawal_limit":20000,"ward_no":"047","ward_name":"SARDAR VALLABHBHAI"},{"latitude":22.73416167,"longitude":75.88993333,"amenity":"atm","name":"Axis Bank","name_hindi":"एक्सिस बैंक","address":"1/2, Lig Colony, LIG Square, Indore","opening_hours":"24/7","number_of_machines":1,"atm_guard":"no","cash_in_support":"no","withdrawal_limit":20000,"ward_no":"045","ward_name":"DR. BHIMRAO AMBEDAR"},{"latitude":22.73691491,"longitude":75.88463861,"amenity":"atm","name":"Axis Bank","name_hindi":"एक्सिस बैंक","address":"677 ,Atal Dwar Road , Indore","opening_hours":"24/7","number_of_machines":1,"atm_guard":"no","cash_in_support":"no","withdrawal_limit":175000,"ward_no":"045","ward_name":"DR. BHIMRAO AMBEDAR"},{"latitude":22.73033914,"longitude":75.89844127,"amenity":"atm","name":"Axis Bank","name_hindi":"एक्सिस बैंक","address":"60, Khajrana Main Rd, Shree Nagar Ext, Utkarsh Vihar Colony, Indore","opening_hours":"24/7","number_of_machines":1,"atm_guard":"no","cash_in_support":"no","withdrawal_limit":40000,"ward_no":"043","ward_name":"SHRINAGAR"},{"latitude":22.74549485,"longitude":75.87175255,"amenity":"atm","name":"Axis Bank","name_hindi":"एक्सिस बैंक","address":"Near Petrol Pump, Pardeshipura Main Square, Indore","opening_hours":"24/7","number_of_machines":1,"atm_guard":"no","cash_in_support":"no","withdrawal_limit":20000,"ward_no":"023","ward_name":"SWARGIYA RAJESH JOSHI"},{"latitude":22.74394,"longitude":75.89325667,"amenity":"atm","name":"Axis Bank","name_hindi":"एक्सिस बैंक","address":"C21 Mall, Scheme No. 54, Agra Bombay Road, Vijay Nagar","opening_hours":"24/7","number_of_machines":1,"atm_guard":"no","cash_in_support":"no","withdrawal_limit":40000,"ward_no":"029","ward_name":"DR. SHYAM PRASAD MUKHARJI"},{"latitude":22.72031962,"longitude":75.87091181,"amenity":"atm","name":"Axis Bank","name_hindi":"एक्सिस बैंक","address":"562, M.G. Road","opening_hours":"24/7","number_of_machines":1,"atm_guard":"no","cash_in_support":"no","withdrawal_limit":50000,"ward_no":"047","ward_name":"SARDAR VALLABHBHAI"},{"latitude":22.72240694,"longitude":75.87416921,"amenity":"atm","name":"Axis Bank","name_hindi":"एक्सिस बैंक","address":"Kamal Palace 1, Yeshwant Colony, Yeshwant Niwas Road,Sanghi Colony,Indore","opening_hours":"24/7","number_of_machines":2,"atm_guard":"yes","cash_in_support":"yes","withdrawal_limit":40000,"ward_no":"047","ward_name":"SARDAR VALLABHBHAI"},{"latitude":22.71471,"longitude":75.888825,"amenity":"atm","name":"Axis Bank","name_hindi":"एक्सिस बैंक","address":"Near Barrapathar Mandir, Indore","opening_hours":"24/7","number_of_machines":1,"atm_guard":"no","cash_in_support":"no","withdrawal_limit":40000,"ward_no":"048","ward_name":"GITA BHAVAN"},{"latitude":22.71859167,"longitude":75.88363667,"amenity":"atm","name":"Axis Bank","name_hindi":"एक्सिस बैंक","address":"Juhi plaza, Geeta Bhawan Square","opening_hours":"24/7","number_of_machines":1,"atm_guard":"no","cash_in_support":"no","withdrawal_limit":40000,"ward_no":"055","ward_name":"SAUTH TUKOGANJ"},{"latitude":22.70438785,"longitude":75.84256967,"amenity":"atm","name":"Axis Bank","name_hindi":"एक्सिस बैंक","address":"Mahunakka Circle","opening_hours":"24/7","number_of_machines":1,"atm_guard":"no","cash_in_support":"no","withdrawal_limit":175000,"ward_no":"071","ward_name":"DRAVID NAGAR"},{"latitude":22.70719167,"longitude":75.84179833,"amenity":"atm","name":"Axis Bank","name_hindi":"एक्सिस बैंक","address":"MOG Line Road","opening_hours":"24/7","number_of_machines":1,"atm_guard":"no","cash_in_support":"no","withdrawal_limit":40000,"ward_no":"071","ward_name":"DRAVID NAGAR"},{"latitude":22.70177833,"longitude":75.86248,"amenity":"atm","name":"Axis Bank","name_hindi":"एक्सिस बैंक","address":"24, Indore Icchapur Road, Khati Wala Tank, Veer Savarkar Market","opening_hours":"24/7","number_of_machines":1,"atm_guard":"no","cash_in_support":"no","withdrawal_limit":50000,"ward_no":"065","ward_name":"SANT KANWARRAM"},{"latitude":22.71795701,"longitude":75.86122963,"amenity":"atm","name":"Axis Bank","name_hindi":"एक्सिस बैंक","address":"105, Ranipura Main Road, Siyaganj, Indore","opening_hours":"24/7","number_of_machines":1,"atm_guard":"no","cash_in_support":"no","withdrawal_limit":40000,"ward_no":"060","ward_name":"RANIPURA"},{"latitude":22.71901781,"longitude":75.86560878,"amenity":"atm","name":"Axis Bank","name_hindi":"एक्सिस बैंक","address":"LG-6, Raja Ram Mohan Roy Complex, M.T.H. Compound","opening_hours":"24/7","number_of_machines":1,"atm_guard":"no","cash_in_support":"no","withdrawal_limit":40000,"ward_no":"057","ward_name":"DEVI AHILYABAI"},{"latitude":22.72281201,"longitude":75.85386674,"amenity":"atm","name":"Axis Bank","name_hindi":"एक्सिस बैंक","address":"53, Imli Bazar A, Subhash Marg, Near Doctor O P Parik, Indore","opening_hours":"24/7","number_of_machines":1,"atm_guard":"no","cash_in_support":"no","withdrawal_limit":50000,"ward_no":"058","ward_name":"IMLI BAZAR"},{"latitude":22.7229144,"longitude":75.85759505,"amenity":"atm","name":"Axis Bank","name_hindi":"एक्सिस बैंक","address":"174, Netaji Subhash Marg, Indore","opening_hours":"24/7","number_of_machines":1,"atm_guard":"no","cash_in_support":"no","withdrawal_limit":40000,"ward_no":"057","ward_name":"DEVI AHILYABAI"},{"latitude":22.7214945,"longitude":75.84792969,"amenity":"atm","name":"Axis Bank","name_hindi":"एक्सिस बैंक","address":"45/2, Tiwari Complex, Chipa Bangal, Malhar Ganj, Indore","opening_hours":"24/7","number_of_machines":1,"atm_guard":"no","cash_in_support":"no","withdrawal_limit":40000,"ward_no":"008","ward_name":"JUNA RISALA"},{"latitude":22.71935399,"longitude":75.86277861,"amenity":"atm","name":"Axis Bank","name_hindi":"एक्सिस बैंक","address":"23, Shri Ram Piyaoo Road, Indore","opening_hours":"24/7","number_of_machines":1,"atm_guard":"no","cash_in_support":"no","withdrawal_limit":40000,"ward_no":"057","ward_name":"DEVI AHILYABAI"},{"latitude":22.69698,"longitude":75.839365,"amenity":"atm","name":"Axis Bank","name_hindi":"एक्सिस बैंक","address":"Bhusari Mansion, Near Kalpavriksh Institute, Annapurna Road, Opposite Dusshera Maidan, Indore","opening_hours":"24/7","number_of_machines":2,"atm_guard":"yes","cash_in_support":"yes","withdrawal_limit":50000,"ward_no":"071","ward_name":"DRAVID NAGAR"},{"latitude":22.72876473,"longitude":75.82473415,"amenity":"atm","name":"Axis Bank","name_hindi":"एक्सिस बैंक","address":"218, Somani Nagar, Sukhdev Nagar","opening_hours":"24/7","number_of_machines":1,"atm_guard":"no","cash_in_support":"no","withdrawal_limit":100000,"ward_no":"004","ward_name":"SUKHDEV NAGAR"},{"latitude":22.7244185,"longitude":75.82549397,"amenity":"atm","name":"Axis Bank","name_hindi":"एक्सिस बैंक","address":"624, Kalani Nagar, Airport Rd","opening_hours":"24/7","number_of_machines":4,"atm_guard":"yes","cash_in_support":"yes","withdrawal_limit":40000,"ward_no":"003","ward_name":"KALANI NAGAR"},{"latitude":22.72806772,"longitude":75.83388457,"amenity":"atm","name":"Axis Bank","name_hindi":"एक्सिस बैंक","address":"Sector-B, 60ft Road, Palhar Nagar, Indore.","opening_hours":"24/7","number_of_machines":1,"atm_guard":"no","cash_in_support":"no","withdrawal_limit":20000,"ward_no":"014","ward_name":"ASHOK NAGAR"},{"latitude":22.75109167,"longitude":75.84925167,"amenity":"atm","name":"Axis Bank","name_hindi":"एक्सिस बैंक","address":"Band Ganga bridge","opening_hours":"24/7","number_of_machines":1,"atm_guard":"no","cash_in_support":"no","withdrawal_limit":40000,"ward_no":"018","ward_name":"SANT KABIR"},{"latitude":22.75622906,"longitude":75.86330738,"amenity":"atm","name":"Axis Bank","name_hindi":"एक्सिस बैंक","address":"Patel Market, Khatipura Main Road, Gouri Nagar, Indore","opening_hours":"24/7","number_of_machines":1,"atm_guard":"no","cash_in_support":"no","withdrawal_limit":50000,"ward_no":"020","ward_name":"GAURI NAGAR"},{"latitude":22.73257933,"longitude":75.84696782,"amenity":"atm","name":"Axis Bank","name_hindi":"एक्सिस बैंक","address":"Near Police Petrol Pump, Marimata Rd, 15th Battalion","opening_hours":"24/7","number_of_machines":1,"atm_guard":"no","cash_in_support":"no","withdrawal_limit":40000,"ward_no":"009","ward_name":"VRINDAVAN"},{"latitude":22.73375913,"longitude":75.84870899,"amenity":"atm","name":"Axis Bank","name_hindi":"एक्सिस बैंक","address":"Marimata Branch, VIP Road, Marimata Square","opening_hours":"24/7","number_of_machines":1,"atm_guard":"no","cash_in_support":"no","withdrawal_limit":40000,"ward_no":"009","ward_name":"VRINDAVAN"},{"latitude":22.74016047,"longitude":75.84766863,"amenity":"atm","name":"Axis Bank","name_hindi":"एक्सिस बैंक","address":"2/1,Mehta Colony ,Vrindavan Square","opening_hours":"24/7","number_of_machines":1,"atm_guard":"no","cash_in_support":"no","withdrawal_limit":40000,"ward_no":"009","ward_name":"VRINDAVAN"},{"latitude":22.74060967,"longitude":75.83664058,"amenity":"atm","name":"Axis Bank","name_hindi":"एक्सिस बैंक","address":"Avantika Nagar, Scheme no. 51, Sangam Nagar, Near Jyotiba Phule Udyaan, Indore.","opening_hours":"24/7","number_of_machines":1,"atm_guard":"no","cash_in_support":"no","withdrawal_limit":20000,"ward_no":"013","ward_name":"SANGAM NAGAR"},{"latitude":22.73492504,"longitude":75.83050491,"amenity":"atm","name":"Axis Bank","name_hindi":"एक्सिस बैंक","address":"Rukmani Nagar, Sanwariya Nagar, Chota Bangarda Main Road, Indore.","opening_hours":"24/7","number_of_machines":1,"atm_guard":"no","cash_in_support":"no","withdrawal_limit":20000,"ward_no":"014","ward_name":"ASHOK NAGAR"},{"latitude":22.76803,"longitude":75.91441,"amenity":"atm","name":"Axis Bank","name_hindi":"एक्सिस बैंक","address":"Nipania, Near Bhavans Prominent School, Village Pipliya Kumar, Indore","opening_hours":"24/7","number_of_machines":1,"atm_guard":"no","cash_in_support":"no","withdrawal_limit":50000,"ward_no":"036","ward_name":"NIPANIYA"},{"latitude":22.772885,"longitude":75.90206667,"amenity":"atm","name":"Axis Bank","name_hindi":"एक्सिस बैंक","address":"Niranjanpur Square, AB Road, Dewas Naka, Indore","opening_hours":"24/7","number_of_machines":1,"atm_guard":"no","cash_in_support":"no","withdrawal_limit":50000,"ward_no":"035","ward_name":"LASUDIYA MORI"},{"latitude":22.73213953,"longitude":75.91351108,"amenity":"atm","name":"Axis Bank","name_hindi":"एक्सिस बैंक","address":"Zam Zam Square","opening_hours":"24/7","number_of_machines":1,"atm_guard":"no","cash_in_support":"no","withdrawal_limit":40000,"ward_no":"039","ward_name":"NAHAR SHAHVALI"},{"latitude":22.76168107,"longitude":75.92215599,"amenity":"atm","name":"Axis Bank","name_hindi":"एक्सिस बैंक","address":"The Glamourra, Near Apollo DB City, Indore","opening_hours":"24/7","number_of_machines":1,"atm_guard":"no","cash_in_support":"no","withdrawal_limit":40000,"ward_no":"036","ward_name":"NIPANIYA"},{"latitude":22.76793687,"longitude":75.91436528,"amenity":"atm","name":"Axis Bank","name_hindi":"एक्सिस बैंक","address":"Sector A, Dewas Naka, Pipliya Kumar, Indore","opening_hours":"24/7","number_of_machines":1,"atm_guard":"no","cash_in_support":"no","withdrawal_limit":50000,"ward_no":"036","ward_name":"NIPANIYA"},{"latitude":22.79090833,"longitude":75.90773,"amenity":"atm","name":"Axis Bank","name_hindi":"एक्सिस बैंक","address":"Lasudia Mori A B Road","opening_hours":"24/7","number_of_machines":1,"atm_guard":"no","cash_in_support":"no","withdrawal_limit":40000,"ward_no":"035","ward_name":"LASUDIYA MORI"},{"latitude":22.73840102,"longitude":75.79169428,"amenity":"atm","name":"Axis Bank","name_hindi":"एक्सिस बैंक","address":"Near Shaheed Mangal Pandey Dwar,Gandhi Nagar, Bada Bangarda, Indore.","opening_hours":"24/7","number_of_machines":1,"atm_guard":"no","cash_in_support":"no","withdrawal_limit":40000},{"latitude":22.68198167,"longitude":75.8638,"amenity":"atm","name":"Axis Bank","name_hindi":"एक्सिस बैंक","address":"54, Nanak Palace, Bhola Ram Ustad Marg, Indore","opening_hours":"24/7","number_of_machines":2,"atm_guard":"no","cash_in_support":"no","withdrawal_limit":50000,"ward_no":"074","ward_name":"VISHNAPURI"},{"latitude":22.670665,"longitude":75.880965,"amenity":"atm","name":"Axis Bank","name_hindi":"एक्सिस बैंक","address":"Chirag Square, Rani Bagh Main, Khandwa Road","opening_hours":"24/7","number_of_machines":1,"atm_guard":"no","cash_in_support":"no","withdrawal_limit":40000,"ward_no":"077","ward_name":"BILAWALI"},{"latitude":22.68561896,"longitude":75.88874943,"amenity":"atm","name":"Axis Bank","name_hindi":"एक्सिस बैंक","address":"Nemawar Road, Dinesh Nagar, Palda","opening_hours":"24/7","number_of_machines":1,"atm_guard":"no","cash_in_support":"no","withdrawal_limit":40000,"ward_no":"075","ward_name":"PALDA"},{"latitude":22.69305082,"longitude":75.89924382,"amenity":"atm","name":"Axis Bank","name_hindi":"एक्सिस बैंक","address":"Musakhedi Square, Indore.","opening_hours":"24/7","number_of_machines":1,"atm_guard":"no","cash_in_support":"no","withdrawal_limit":20000,"ward_no":"054","ward_name":"RESIDENCY"},{"latitude":22.81908167,"longitude":75.92732167,"amenity":"atm","name":"Axis Bank","name_hindi":"एक्सिस बैंक","address":"Mangliya AB Road","opening_hours":"24/7","number_of_machines":1,"atm_guard":"no","cash_in_support":"no","withdrawal_limit":40000},{"latitude":22.74368667,"longitude":75.87455833,"amenity":"atm","name":"Axis Bank ATM","name_hindi":"एक्सिस बैंक एटीएम","address":"No. 73/1, Old No. 50/1, Gali No. 1, Nanda Nagar, Indore","opening_hours":"24/7","number_of_machines":1,"atm_guard":"no","cash_in_support":"no","withdrawal_limit":25000,"ward_no":"025","ward_name":"NANDA NAGAR"},{"latitude":22.73091116,"longitude":75.88909652,"amenity":"atm","name":"Axis Bank ATM","name_hindi":"एक्सिस बैंक एटीएम","address":"A.B. Road, Phadnis Colony","opening_hours":"24/7","number_of_machines":1,"atm_guard":"yes","cash_in_support":"no","withdrawal_limit":50000,"ward_no":"045","ward_name":"DR. BHIMRAO AMBEDAR"},{"latitude":22.71356167,"longitude":75.84909833,"amenity":"atm","name":"Axis Bank ATM","name_hindi":"एक्सिस बैंक एटीएम","address":"Chhatribagh Main Road, Indore","opening_hours":"24/7","number_of_machines":1,"atm_guard":"no","cash_in_support":"no","withdrawal_limit":40000,"ward_no":"068","ward_name":"BAMBAI BAZAR"},{"latitude":22.716265,"longitude":75.84837333,"amenity":"atm","name":"Axis Bank ATM","name_hindi":"एक्सिस बैंक एटीएम","address":"85, Rang Mahel, Itwari Bazar, Indore","opening_hours":"24/7","number_of_machines":1,"atm_guard":"no","cash_in_support":"no","withdrawal_limit":40000,"ward_no":"068","ward_name":"BAMBAI BAZAR"},{"latitude":22.728815,"longitude":75.824745,"amenity":"atm","name":"Axis Bank ATM","name_hindi":"एक्सिस बैंक एटीएम","address":"60 Feet Road, Aerodrum Road, Indore","opening_hours":"24/7","number_of_machines":1,"atm_guard":"no","cash_in_support":"no","withdrawal_limit":40000,"ward_no":"014","ward_name":"ASHOK NAGAR"},{"latitude":22.72808667,"longitude":75.83384333,"amenity":"atm","name":"Axis Bank ATM","name_hindi":"एक्सिस बैंक एटीएम","address":"60 Feet Main Road, Panchwati Nagar, Indore","opening_hours":"24/7","number_of_machines":1,"atm_guard":"no","cash_in_support":"no","withdrawal_limit":50000,"ward_no":"014","ward_name":"ASHOK NAGAR"},{"latitude":22.74618809,"longitude":75.8805305,"amenity":"atm","name":"Axis Bankank","name_hindi":"एक्सीस बैंक","address":"1242/11, MR 9 Road, Majdur Chowk, Nanda Nagar, Indore.","opening_hours":"24/7","number_of_machines":1,"atm_guard":"no","cash_in_support":"no","withdrawal_limit":20000,"ward_no":"027","ward_name":"PASHUPATI NATH"},{"latitude":22.74465833,"longitude":75.893205,"amenity":"atm","name":"Bandhan Bank","name_hindi":"बंधन बैंक","address":"Scheme No.54, Opposite C21 Mall, Vijay Nagar","opening_hours":"24/7","number_of_machines":1,"atm_guard":"no","cash_in_support":"no","withdrawal_limit":20000,"ward_no":"029","ward_name":"DR. SHYAM PRASAD MUKHARJI"},{"latitude":22.718195,"longitude":75.87720833,"amenity":"atm","name":"Bandhan Bank","name_hindi":"बंधन बैंक","address":"A Square Building, Indore","opening_hours":"24/7","number_of_machines":1,"atm_guard":"no","cash_in_support":"no","withdrawal_limit":50000,"ward_no":"055","ward_name":"SAUTH TUKOGANJ"},{"latitude":22.7308994,"longitude":75.89963928,"amenity":"atm","name":"Bank of Baroda","name_hindi":"बैंक ऑफ बरोदा","address":"In Front Of Little Flower Higher Secondary School,Khajrana Road,Indore","opening_hours":"Mo-Su 10:00-21:00","number_of_machines":1,"atm_guard":"yes","cash_in_support":"no","withdrawal_limit":25000,"ward_no":"042","ward_name":"SWAMI VIVEKANAND"},{"latitude":22.7296463,"longitude":75.897289,"amenity":"atm","name":"Bank Of Baroda","name_hindi":"बैंक ऑफ बरोदा","address":"1, Santoshi Heights, Chandralok Colony, Khajrana Main Road,Indore","opening_hours":"24/7","number_of_machines":1,"atm_guard":"yes","cash_in_support":"no","withdrawal_limit":25000,"ward_no":"042","ward_name":"SWAMI VIVEKANAND"},{"latitude":22.74270793,"longitude":75.87608594,"amenity":"atm","name":"Bank of Baroda","name_hindi":"बैंक ऑफ बरोदा","address":"31/1, Teen Puliya, Nanda Nagar Main Road, Indore","opening_hours":"24/7","number_of_machines":1,"atm_guard":"no","cash_in_support":"no","withdrawal_limit":20000,"ward_no":"025","ward_name":"NANDA NAGAR"},{"latitude":22.73621333,"longitude":75.886205,"amenity":"atm","name":"Bank of Baroda","name_hindi":"बैंक ऑफ बरोदा","address":"HIG RSS Nagar, Indore","opening_hours":"24/7","number_of_machines":4,"atm_guard":"no","cash_in_support":"yes","withdrawal_limit":25000,"ward_no":"045","ward_name":"DR. BHIMRAO AMBEDAR"},{"latitude":22.71893833,"longitude":75.89896,"amenity":"atm","name":"Bank of Baroda","name_hindi":"बैंक ऑफ बरोदा","address":"Sector A, Tilak Nagar Main Road","opening_hours":"24/7","number_of_machines":1,"atm_guard":"no","cash_in_support":"no","withdrawal_limit":25000,"ward_no":"049","ward_name":"TILAKNAGAR"},{"latitude":22.72299353,"longitude":75.89325923,"amenity":"atm","name":"Bank of Baroda","name_hindi":"बैंक ऑफ बरोदा","address":"Kanadiya Road, Ravindra Nagar","opening_hours":"24/7","number_of_machines":1,"atm_guard":"yes","cash_in_support":"no","withdrawal_limit":20000,"ward_no":"042","ward_name":"SWAMI VIVEKANAND"},{"latitude":22.72663507,"longitude":75.88755314,"amenity":"atm","name":"Bank of Baroda","name_hindi":"बैंक ऑफ बरोदा","address":"Agra Bombay Road, Near Sangam House, New Palasia, Indore","opening_hours":"24/7","number_of_machines":5,"atm_guard":"yes","cash_in_support":"yes","withdrawal_limit":25000,"ward_no":"043","ward_name":"SHRINAGAR"},{"latitude":22.71063,"longitude":75.87566,"amenity":"atm","name":"Bank of Baroda","name_hindi":"बैंक ऑफ बरोदा","address":"143, RNT Marg, Chhawni, Indore","opening_hours":"24/7","number_of_machines":1,"atm_guard":"no","cash_in_support":"no","withdrawal_limit":15000,"ward_no":"055","ward_name":"SAUTH TUKOGANJ"},{"latitude":22.71328833,"longitude":75.87738333,"amenity":"atm","name":"Bank of Baroda","name_hindi":"बैंक ऑफ बरोदा","address":"RNT Marg, Madhumilan sq., Indore","opening_hours":"24/7","number_of_machines":1,"atm_guard":"yes","cash_in_support":"no","withdrawal_limit":25000,"ward_no":"055","ward_name":"SAUTH TUKOGANJ"},{"latitude":22.69663667,"longitude":75.86560333,"amenity":"atm","name":"Bank of Baroda","name_hindi":"बैंक ऑफ बरोदा","address":"2 Sapna Sangeeta Road, Transport Nagar, Near ICICI Bank, Ashok Nagar","opening_hours":"24/7","number_of_machines":3,"atm_guard":"no","cash_in_support":"no","withdrawal_limit":25000,"ward_no":"065","ward_name":"SANT KANWARRAM"},{"latitude":22.701215,"longitude":75.86942167,"amenity":"atm","name":"Bank of Baroda","name_hindi":"बैंक ऑफ बरोदा","address":"Dev Guradia Road, Snehnagar","opening_hours":"24/7","number_of_machines":2,"atm_guard":"no","cash_in_support":"yes","withdrawal_limit":25000,"ward_no":"063","ward_name":"NAVLAKHA"},{"latitude":22.69646333,"longitude":75.854595,"amenity":"atm","name":"Bank of Baroda","name_hindi":"बैंक ऑफ बरोदा","address":"16/2, Manik Bagh Road, Nandanvan Colony","opening_hours":"24/7","number_of_machines":1,"atm_guard":"no","cash_in_support":"no","withdrawal_limit":25000,"ward_no":"073","ward_name":"LAXMANSINGH CHAUHAN"},{"latitude":22.70328,"longitude":75.85548667,"amenity":"atm","name":"Bank of Baroda","name_hindi":"बैंक ऑफ बरोदा","address":"2, Manik Bagh Road, Adarsh Nagar, Palsikar Colony","opening_hours":"24/7","number_of_machines":1,"atm_guard":"no","cash_in_support":"no","withdrawal_limit":25000,"ward_no":"066","ward_name":"SHAHID HEMU COLONY"},{"latitude":22.72612382,"longitude":75.86526637,"amenity":"atm","name":"Bank of Baroda","name_hindi":"बैंक ऑफ बरोदा","address":"61/1, V.I.P. Road, Near Nyay Pura, Snehlataganj, Indore","opening_hours":"24/7","number_of_machines":2,"atm_guard":"no","cash_in_support":"yes","withdrawal_limit":25000,"ward_no":"056","ward_name":"SNEHALATA GANJ"},{"latitude":22.71942812,"longitude":75.84848128,"amenity":"atm","name":"Bank of Baroda","name_hindi":"बैंक ऑफ बरोदा","address":"282-288, Mahatma Gandhi Road, M.T. Cloth Market, Indore","opening_hours":"24/7","number_of_machines":1,"atm_guard":"no","cash_in_support":"no","withdrawal_limit":25000,"ward_no":"069","ward_name":"JAWAHAR MARG"},{"latitude":22.69449,"longitude":75.82911833,"amenity":"atm","name":"Bank of Baroda","name_hindi":"बैंक ऑफ बरोदा","address":"Ranjeet Hanuman Road, Footikothi Square, Sudama Nagar, Phooti Kothi, Sector D, Indore","opening_hours":"24/7","number_of_machines":1,"atm_guard":"no","cash_in_support":"no","withdrawal_limit":25000,"ward_no":"083","ward_name":"GUSHMATA NAGAR"},{"latitude":22.70394333,"longitude":75.861255,"amenity":"atm","name":"Bank of Baroda","name_hindi":"बैंक ऑफ बरोदा","address":"B-2, Joshi Colony, Khatiwala Tank, Indore","opening_hours":"24/7","number_of_machines":1,"atm_guard":"yes","cash_in_support":"no","withdrawal_limit":50000,"ward_no":"065","ward_name":"SANT KANWARRAM"},{"latitude":22.716035,"longitude":75.86537667,"amenity":"atm","name":"Bank of Baroda","name_hindi":"बैंक ऑफ बरोदा","address":"Siyaganj Main Road, Indore","opening_hours":"24/7","number_of_machines":3,"atm_guard":"no","cash_in_support":"no","withdrawal_limit":30000,"ward_no":"060","ward_name":"RANIPURA"},{"latitude":22.72495222,"longitude":75.82336362,"amenity":"atm","name":"Bank Of Baroda","name_hindi":"बैंक ऑफ बरोदा","address":"11-Kalani Nagar, Aerodrome Road","opening_hours":"24/7","number_of_machines":2,"atm_guard":"no","cash_in_support":"no","withdrawal_limit":20000,"ward_no":"003","ward_name":"KALANI NAGAR"},{"latitude":22.74605752,"longitude":75.86143641,"amenity":"atm","name":"Bank Of Baroda","name_hindi":"बैंक ऑफ बरोदा","address":"Bhagirathpura","opening_hours":"24/7","number_of_machines":1,"atm_guard":"no","cash_in_support":"no","withdrawal_limit":25000,"ward_no":"011","ward_name":"BHAGIRATHPURA"},{"latitude":22.74843167,"longitude":75.922975,"amenity":"atm","name":"Bank of Baroda","name_hindi":"बैंक ऑफ बरोदा","address":"Baroda Complex, Plot no 12, 1st Floor, Scheme 134, Nipania","opening_hours":"24/7","number_of_machines":5,"atm_guard":"no","cash_in_support":"yes","withdrawal_limit":25000,"ward_no":"036","ward_name":"NIPANIYA"},{"latitude":22.67106667,"longitude":75.88090667,"amenity":"atm","name":"Bank of Baroda","name_hindi":"बैंक ऑफ बरोदा","address":"Rani Bagh Main, Khandwa Road","opening_hours":"24/7","number_of_machines":3,"atm_guard":"yes","cash_in_support":"yes","withdrawal_limit":25000,"ward_no":"077","ward_name":"BILAWALI"},{"latitude":22.68780836,"longitude":75.89526636,"amenity":"atm","name":"Bank of Baroda","name_hindi":"बैंक ऑफ बरोदा","address":"Palda Branch, Nemawar Road, Dinesh Nagar, Palda, Indore.","opening_hours":"24/7","number_of_machines":1,"atm_guard":"no","cash_in_support":"no","withdrawal_limit":25000,"ward_no":"075","ward_name":"PALDA"},{"latitude":22.76889133,"longitude":75.89062211,"amenity":"atm","name":"Bank Of Baroda ATM","name_hindi":"बैंक ऑफ बरोदा ए टी एम","address":"49 -D,S-1,Main Road, Scheme no. 78 ,Indore","opening_hours":"24/7","number_of_machines":1,"atm_guard":"no","cash_in_support":"no","withdrawal_limit":20000,"ward_no":"034","ward_name":"SHAHID BHAGATSINGH"},{"latitude":22.74273,"longitude":75.876085,"amenity":"atm","name":"Bank of Baroda ATM","name_hindi":"बैंक ऑफ बरोदा ए टी एम","address":"Urwashi Complex, Jaora Compound, Indore","opening_hours":"24/7","number_of_machines":4,"atm_guard":"yes","cash_in_support":"yes","withdrawal_limit":50000,"ward_no":"025","ward_name":"NANDA NAGAR"},{"latitude":22.696715,"longitude":75.87938167,"amenity":"atm","name":"Bank of Baroda ATM","name_hindi":"बैंक ऑफ बरोदा ए टी एम","address":"12-13, Prakash Nagar, Nemawar Road, Indore","opening_hours":"24/7","number_of_machines":1,"atm_guard":"no","cash_in_support":"no","withdrawal_limit":20000,"ward_no":"064","ward_name":"CHITAVAD"},{"latitude":22.76698319,"longitude":75.89900217,"amenity":"atm","name":"Bank Of India","name_hindi":"बैंक ऑफ़ इंडिया","address":"Bank Of India , Dewas Naka , Indore","opening_hours":"24/7","number_of_machines":1,"atm_guard":"yes","cash_in_support":"no","withdrawal_limit":25000,"ward_no":"034","ward_name":"SHAHID BHAGATSINGH"},{"latitude":22.75406833,"longitude":75.89219,"amenity":"atm","name":"Bank of India","name_hindi":"बैंक ऑफ़ इंडिया","address":"16/15, Vijay Nagar Main, Indore","opening_hours":"24/7","number_of_machines":1,"atm_guard":"no","cash_in_support":"no","withdrawal_limit":15000,"ward_no":"029","ward_name":"DR. SHYAM PRASAD MUKHARJI"},{"latitude":22.75413667,"longitude":75.903575,"amenity":"atm","name":"Bank Of India","name_hindi":"बैंक ऑफ़ इंडिया","address":"Bombay Hospital Campus,Eastern Ring Road,Indore","opening_hours":"24/7","number_of_machines":1,"atm_guard":"yes","cash_in_support":"no","withdrawal_limit":25000,"ward_no":"031","ward_name":"MAHARAJA CHATRASAL"},{"latitude":22.7575596,"longitude":75.884405,"amenity":"atm","name":"Bank Of India","name_hindi":"बैंक ऑफ़ इंडिया","address":"OM Gurudev Complex, Scheme Number 54,Vijay Nagar,Indore","opening_hours":"24/7","number_of_machines":3,"atm_guard":"no","cash_in_support":"yes","withdrawal_limit":40000,"ward_no":"029","ward_name":"DR. SHYAM PRASAD MUKHARJI"},{"latitude":22.72882667,"longitude":75.87470333,"amenity":"atm","name":"Bank of India","name_hindi":"बैंक ऑफ़ इंडिया","address":"22, YN Road Opp. Rani Sati Gate, Indore","opening_hours":"24/7","number_of_machines":1,"atm_guard":"yes","cash_in_support":"yes","withdrawal_limit":20000,"ward_no":"047","ward_name":"SARDAR VALLABHBHAI"},{"latitude":22.731875,"longitude":75.87292167,"amenity":"atm","name":"Bank Of India","name_hindi":"बैंक ऑफ़ इंडिया","address":"56, New Dewas Road,Near Lal Bungalow, Indore","opening_hours":"24/7","number_of_machines":1,"atm_guard":"no","cash_in_support":"no","withdrawal_limit":20000,"ward_no":"047","ward_name":"SARDAR VALLABHBHAI"},{"latitude":22.72839833,"longitude":75.88791833,"amenity":"atm","name":"Bank of India","name_hindi":"बैंक ऑफ़ इंडिया","address":"LG Kanchan Sagar, Near Industry House, AB Road, Indore","opening_hours":"24/7","number_of_machines":2,"atm_guard":"yes","cash_in_support":"yes","withdrawal_limit":20000,"ward_no":"045","ward_name":"DR. BHIMRAO AMBEDAR"},{"latitude":22.73309462,"longitude":75.9025113,"amenity":"atm","name":"Bank of India","name_hindi":"बैंक ऑफ़ इंडिया","address":"Nahar Shah Wali Road, Khajrana Square, Indore","opening_hours":"24/7","number_of_machines":1,"atm_guard":"no","cash_in_support":"no","withdrawal_limit":25000,"ward_no":"040","ward_name":"KHAJRANA GANESH"},{"latitude":22.74174167,"longitude":75.89915,"amenity":"atm","name":"Bank of India","name_hindi":"बैंक ऑफ़ इंडिया","address":"Shradha Shree Colony, MR 9","opening_hours":"24/7","number_of_machines":2,"atm_guard":"no","cash_in_support":"no","withdrawal_limit":25000,"ward_no":"030","ward_name":"SANT RAVIDAS"},{"latitude":22.72161482,"longitude":75.87726705,"amenity":"atm","name":"Bank of India","name_hindi":"बैंक ऑफ़ इंडिया","address":"575/1, Mahatma Gandhi Road, Race Course Road, Indore","opening_hours":"24/7","number_of_machines":3,"atm_guard":"yes","cash_in_support":"yes","withdrawal_limit":25000,"ward_no":"047","ward_name":"SARDAR VALLABHBHAI"},{"latitude":22.718955,"longitude":75.89912333,"amenity":"atm","name":"Bank of India","name_hindi":"बैंक ऑफ़ इंडिया","address":"380/9, Sector A, Tilak Nagar Main Road, Mahavir Nagar","opening_hours":"24/7","number_of_machines":1,"atm_guard":"no","cash_in_support":"no","withdrawal_limit":25000,"ward_no":"049","ward_name":"TILAKNAGAR"},{"latitude":22.72353953,"longitude":75.89712033,"amenity":"atm","name":"Bank of India","name_hindi":"बैंक ऑफ़ इंडिया","address":"Saket Club Rd, Saket Nagar, Indore","opening_hours":"24/7","number_of_machines":1,"atm_guard":"no","cash_in_support":"no","withdrawal_limit":20000,"ward_no":"042","ward_name":"SWAMI VIVEKANAND"},{"latitude":22.69948833,"longitude":75.863815,"amenity":"atm","name":"Bank of India","name_hindi":"बैंक ऑफ़ इंडिया","address":"Samadhi Heights, Narmada Chamber, 36 Sapna Sangeeta Road, Tower Chouraha, Khatiwala Tank","opening_hours":"24/7","number_of_machines":1,"atm_guard":"no","cash_in_support":"no","withdrawal_limit":25000,"ward_no":"065","ward_name":"SANT KANWARRAM"},{"latitude":22.700505,"longitude":75.86863333,"amenity":"atm","name":"Bank of India","name_hindi":"बैंक ऑफ़ इंडिया","address":"Shell Tower, Sapna Sangeeta Road, Snehnagar","opening_hours":"24/7","number_of_machines":1,"atm_guard":"no","cash_in_support":"no","withdrawal_limit":25000,"ward_no":"063","ward_name":"NAVLAKHA"},{"latitude":22.69205333,"longitude":75.86724667,"amenity":"atm","name":"Bank of India","name_hindi":"बैंक ऑफ़ इंडिया","address":"Agra Bombay Road, Indrapuri Colony, Bhanwar Kuwa","opening_hours":"24/7","number_of_machines":1,"atm_guard":"no","cash_in_support":"no","withdrawal_limit":20000,"ward_no":"074","ward_name":"VISHNAPURI"},{"latitude":22.71890011,"longitude":75.8657126,"amenity":"atm","name":"Bank Of India","name_hindi":"बैंक ऑफ़ इंडिया","address":"B-2, Raja Ram Mohan Roy Complex, Mahatma Gandhi Road, MTH Compound Index, Phase - II, Shastri Market, Choti Gwaltoli, Indore","opening_hours":"24/7","number_of_machines":1,"atm_guard":"yes","cash_in_support":"no","withdrawal_limit":25000,"ward_no":"057","ward_name":"DEVI AHILYABAI"},{"latitude":22.7249732,"longitude":75.85712623,"amenity":"atm","name":"Bank Of India","name_hindi":"बैंक ऑफ़ इंडिया","address":"177, Tilakpath Main Road, Ram Bagh, Indore","opening_hours":"24/7","number_of_machines":2,"atm_guard":"no","cash_in_support":"no","withdrawal_limit":25000,"ward_no":"057","ward_name":"DEVI AHILYABAI"},{"latitude":22.71946096,"longitude":75.86164539,"amenity":"atm","name":"Bank of India","name_hindi":"बैंक ऑफ़ इंडिया","address":"Opposite Fadnis Complex, M.G. Road, Indore","opening_hours":"24/7","number_of_machines":1,"atm_guard":"yes","cash_in_support":"no","withdrawal_limit":20000,"ward_no":"060","ward_name":"RANIPURA"},{"latitude":22.69454167,"longitude":75.83819333,"amenity":"atm","name":"Bank of India","name_hindi":"बैंक ऑफ़ इंडिया","address":"Annapurna Road, Opposite Dussehra Maidan, Bank Colony, Sudama Nagar, Indore","opening_hours":"24/7","number_of_machines":1,"atm_guard":"yes","cash_in_support":"no","withdrawal_limit":25000,"ward_no":"071","ward_name":"DRAVID NAGAR"},{"latitude":22.69699167,"longitude":75.844545,"amenity":"atm","name":"Bank of India","name_hindi":"बैंक ऑफ़ इंडिया","address":"Mansi Plaza, Keshar Bagh Road, Indore","opening_hours":"24/7","number_of_machines":1,"atm_guard":"no","cash_in_support":"no","withdrawal_limit":25000,"ward_no":"072","ward_name":"LOKMANYA NAGAR"},{"latitude":22.72832526,"longitude":75.8308713,"amenity":"atm","name":"Bank Of India","name_hindi":"बैंक ऑफ़ इंडिया","address":"332, Palhar Nagar, 60 Feet Road","opening_hours":"24/7","number_of_machines":1,"atm_guard":"no","cash_in_support":"no","withdrawal_limit":20000,"ward_no":"014","ward_name":"ASHOK NAGAR"},{"latitude":22.72218739,"longitude":75.83411298,"amenity":"atm","name":"Bank of India","name_hindi":"बैंक ऑफ़ इंडिया","address":"18,Airport Road, Vidhyanchal Nagar Colony, Vidhyanchal Nagar, Indore.","opening_hours":"24/7","number_of_machines":3,"atm_guard":"no","cash_in_support":"no","withdrawal_limit":20000,"ward_no":"006","ward_name":"MALHARGANJ"},{"latitude":22.73446974,"longitude":75.84967559,"amenity":"atm","name":"Bank of India","name_hindi":"बैंक ऑफ़ इंडिया","address":"Banganga Main Road, Mari Mata Square, Indore.","opening_hours":"24/7","number_of_machines":1,"atm_guard":"no","cash_in_support":"no","withdrawal_limit":20000,"ward_no":"010","ward_name":"BANGANGA"},{"latitude":22.74585,"longitude":75.9289,"amenity":"atm","name":"Bank of India","name_hindi":"बैंक ऑफ़ इंडिया","address":"Scheme 134, Nipania, Indore","opening_hours":"Mo-Su 06:00-00:00","number_of_machines":1,"atm_guard":"yes","cash_in_support":"no","withdrawal_limit":25000,"ward_no":"039","ward_name":"NAHAR SHAHVALI"},{"latitude":22.68997693,"longitude":75.89133449,"amenity":"atm","name":"Bank of India","name_hindi":"बैंक ऑफ़ इंडिया","address":"180, Eastern Ring Road, Babulal Nagar, Khati Mohalla, Indore.","opening_hours":"24/7","number_of_machines":4,"atm_guard":"no","cash_in_support":"no","withdrawal_limit":20000,"ward_no":"052","ward_name":"MUSAKHEDI"},{"latitude":22.746045,"longitude":75.87398833,"amenity":"atm","name":"Bank of India ATM","name_hindi":"बैंक ऑफ़ इंडिया","address":"Rd Number 8, Near Sugnadevi College, Teen Puliya, Pardesi Pura, Nanda Nagar, Indore","opening_hours":"24/7","number_of_machines":1,"atm_guard":"no","cash_in_support":"no","withdrawal_limit":25000,"ward_no":"023","ward_name":"SWARGIYA RAJESH JOSHI"},{"latitude":22.744805,"longitude":75.87145167,"amenity":"atm","name":"Bank of India ATM","name_hindi":"बैंक ऑफ़ इंडिया","address":"29/1, Pardeshipura Road, Pardeshipura Square, Pardesipura, Indore","opening_hours":"24/7","number_of_machines":1,"atm_guard":"no","cash_in_support":"no","withdrawal_limit":25000,"ward_no":"023","ward_name":"SWARGIYA RAJESH JOSHI"},{"latitude":22.70777667,"longitude":75.85292833,"amenity":"atm","name":"Bank of India ATM","name_hindi":"बैंक ऑफ़ इंडिया","address":"Jairampur Colony, Collectorate Square,Indore","opening_hours":"24/7","number_of_machines":3,"atm_guard":"yes","cash_in_support":"yes","withdrawal_limit":25000,"ward_no":"066","ward_name":"SHAHID HEMU COLONY"},{"latitude":22.71526667,"longitude":75.84946333,"amenity":"atm","name":"Bank of India ATM","name_hindi":"बैंक ऑफ़ इंडिया","address":"Narsingh Bazar Main Road, Indore","opening_hours":"24/7","number_of_machines":1,"atm_guard":"no","cash_in_support":"no","withdrawal_limit":30000,"ward_no":"068","ward_name":"BAMBAI BAZAR"},{"latitude":22.71715,"longitude":75.85558333,"amenity":"atm","name":"Bank of India ATM","name_hindi":"बैंक ऑफ़ इंडिया","address":"Jawahar Marg Main Road, Near Rajwada Chowk, Indore","opening_hours":"24/7","number_of_machines":2,"atm_guard":"no","cash_in_support":"no","withdrawal_limit":35000,"ward_no":"059","ward_name":"HARSIDDHI"},{"latitude":22.72830333,"longitude":75.83081833,"amenity":"atm","name":"Bank of India ATM","name_hindi":"बैंक ऑफ़ इंडिया","address":"60 Feet Main Road, Near Wateroverhead Tank, Indore","opening_hours":"24/7","number_of_machines":1,"atm_guard":"no","cash_in_support":"no","withdrawal_limit":25000,"ward_no":"014","ward_name":"ASHOK NAGAR"},{"latitude":22.69668167,"longitude":75.87928,"amenity":"atm","name":"Bank of India ATM","name_hindi":"बैंक ऑफ़ इंडिया","address":"12-13, Prakash Nagar, Nemawar Road, Indore","opening_hours":"24/7","number_of_machines":1,"atm_guard":"no","cash_in_support":"no","withdrawal_limit":35000,"ward_no":"064","ward_name":"CHITAVAD"},{"latitude":22.69227167,"longitude":75.882125,"amenity":"atm","name":"Bank of India ATM","name_hindi":"बैंक ऑफ़ इंडिया","address":"Bank Of India\n 183/1, Navlakha Rd, Anand Nagar, Kaushalyapuri, Indore","opening_hours":"24/7","number_of_machines":1,"atm_guard":"no","cash_in_support":"no","withdrawal_limit":25000,"ward_no":"064","ward_name":"CHITAVAD"},{"latitude":22.72243012,"longitude":75.88241709,"amenity":"atm","name":"Bank of Maharashtra","name_hindi":"बैंक ऑफ महाराष्ट्र","address":"UG 8/11, Indraprasth Tower, 6, Mahatma Gandhi Road, South Tukoganj, Indore","opening_hours":"Mo-Su 10:00-18:00","number_of_machines":1,"atm_guard":"no","cash_in_support":"no","withdrawal_limit":10000,"ward_no":"055","ward_name":"SAUTH TUKOGANJ"},{"latitude":22.71998767,"longitude":75.86166684,"amenity":"atm","name":"Bank of Maharashtra","name_hindi":"बैंक ऑफ महाराष्ट्र","address":"Phadnis Complex, MG Road, Indore.","opening_hours":"24/7","number_of_machines":1,"atm_guard":"no","cash_in_support":"no","withdrawal_limit":20000,"ward_no":"060","ward_name":"RANIPURA"},{"latitude":22.75200167,"longitude":75.89632667,"amenity":"atm","name":"Bank of Maharastra","name_hindi":"बैंक ऑफ महाराष्ट्र","address":"Scheme no. 54,Below Vishal Mega Mart, Mangal City Mall, Opp. Vijaynagar Police Station, Indore","opening_hours":"24/7","number_of_machines":1,"atm_guard":"yes","cash_in_support":"no","withdrawal_limit":15000,"ward_no":"031","ward_name":"MAHARAJA CHATRASAL"},{"latitude":22.728305,"longitude":75.888035,"amenity":"atm","name":"Bank of Maharastra","name_hindi":"बैंक ऑफ महाराष्ट्र","address":"1st Floor, Kanchan Sagar, Near Industry House AB Road, Indore","opening_hours":"24/7","number_of_machines":1,"atm_guard":"no","cash_in_support":"no","withdrawal_limit":15000,"ward_no":"045","ward_name":"DR. BHIMRAO AMBEDAR"},{"latitude":22.71204275,"longitude":75.84031275,"amenity":"atm","name":"Bank Of Maharastra","name_hindi":"बैंक ऑफ महाराष्ट्र","address":"Raj Mohalla, Dhar Road","opening_hours":"24/7","number_of_machines":1,"atm_guard":"no","cash_in_support":"no","withdrawal_limit":10000,"ward_no":"070","ward_name":"LOKNAYAK NAGAR"},{"latitude":22.70768667,"longitude":75.85828833,"amenity":"atm","name":"Bank of Maharastra","name_hindi":"बैंक ऑफ महाराष्ट्र","address":"Palsikar Main Road, Palsikar Colony, Indore","opening_hours":"24/7","number_of_machines":1,"atm_guard":"no","cash_in_support":"no","withdrawal_limit":10000,"ward_no":"066","ward_name":"SHAHID HEMU COLONY"},{"latitude":22.69141,"longitude":75.83763333,"amenity":"atm","name":"Bank of Maharastra","name_hindi":"बैंक ऑफ महाराष्ट्र","address":"Opposite Annapurna Temple, Sudama Nagar, Indore","opening_hours":"24/7","number_of_machines":1,"atm_guard":"no","cash_in_support":"no","withdrawal_limit":10000,"ward_no":"082","ward_name":"SUDAMA NAGAR"},{"latitude":22.69454,"longitude":75.844365,"amenity":"atm","name":"Bank of Maharastra","name_hindi":"बैंक ऑफ महाराष्ट्र","address":"Lokmanya Nagar, Keshar Bagh Main Road, Indore","opening_hours":"24/7","number_of_machines":2,"atm_guard":"yes","cash_in_support":"yes","withdrawal_limit":10000,"ward_no":"072","ward_name":"LOKMANYA NAGAR"},{"latitude":22.73413023,"longitude":75.85172296,"amenity":"atm","name":"Baroda Bank","name_hindi":"बरोडा बैंक","address":"Chandrashekhar Vyaas Road, VIP Road, Mari Mata Square, Indore.","opening_hours":"24/7","number_of_machines":2,"atm_guard":"yes","cash_in_support":"yes","withdrawal_limit":20000,"ward_no":"058","ward_name":"IMLI BAZAR"},{"latitude":22.74480167,"longitude":75.85115167,"amenity":"atm","name":"BOB","name_hindi":"बी ओ बी","address":"Band Ganga","opening_hours":"24/7","number_of_machines":1,"atm_guard":"no","cash_in_support":"no","withdrawal_limit":25000,"ward_no":"010","ward_name":"BANGANGA"},{"latitude":22.79080667,"longitude":75.90774833,"amenity":"atm","name":"BOB","name_hindi":"बी ओ बी","address":"Lasudia Mori A B Road","opening_hours":"24/7","number_of_machines":1,"atm_guard":"no","cash_in_support":"no","withdrawal_limit":25000,"ward_no":"035","ward_name":"LASUDIYA MORI"},{"latitude":22.71867061,"longitude":75.87552848,"amenity":"atm","name":"BOI","name_hindi":"बी ओ आई","address":"RNT Marg","opening_hours":"24/7","number_of_machines":3,"atm_guard":"yes","cash_in_support":"yes","withdrawal_limit":25000,"ward_no":"055","ward_name":"SAUTH TUKOGANJ"},{"latitude":22.71473045,"longitude":75.88881162,"amenity":"atm","name":"BOI","name_hindi":"बी ओ आई","address":"Lala Ram Nagar","opening_hours":"24/7","number_of_machines":1,"atm_guard":"no","cash_in_support":"no","withdrawal_limit":25000,"ward_no":"048","ward_name":"GITA BHAVAN"},{"latitude":22.7203,"longitude":75.870975,"amenity":"atm","name":"BOI","name_hindi":"बी ओ आई","address":"5/62 Shiba Complex, MG Road,Indore","opening_hours":"24/7","number_of_machines":1,"atm_guard":"no","cash_in_support":"no","withdrawal_limit":25000,"ward_no":"047","ward_name":"SARDAR VALLABHBHAI"},{"latitude":22.71804667,"longitude":75.88288667,"amenity":"atm","name":"BOI","name_hindi":"बी ओ आई","address":"Ratlam Kothi, Geeta Bhawan Road","opening_hours":"24/7","number_of_machines":3,"atm_guard":"no","cash_in_support":"yes","withdrawal_limit":25000,"ward_no":"055","ward_name":"SAUTH TUKOGANJ"},{"latitude":22.71075126,"longitude":75.83253016,"amenity":"atm","name":"BOI","name_hindi":"बी ओ आई","address":"Labariya bheru, Dhar Road","opening_hours":"24/7","number_of_machines":1,"atm_guard":"no","cash_in_support":"no","withdrawal_limit":100000,"ward_no":"070","ward_name":"LOKNAYAK NAGAR"},{"latitude":22.71760783,"longitude":75.84568941,"amenity":"atm","name":"BOI","name_hindi":"बी ओ आई","address":"Malhar Gang","opening_hours":"24/7","number_of_machines":1,"atm_guard":"no","cash_in_support":"no","withdrawal_limit":100000,"ward_no":"069","ward_name":"JAWAHAR MARG"},{"latitude":22.71300667,"longitude":75.83935833,"amenity":"atm","name":"BOI","name_hindi":"बी ओ आई","address":"Labariya Bheru, Dhar Road","opening_hours":"24/7","number_of_machines":1,"atm_guard":"no","cash_in_support":"no","withdrawal_limit":25000,"ward_no":"070","ward_name":"LOKNAYAK NAGAR"},{"latitude":22.71392833,"longitude":75.84556333,"amenity":"atm","name":"BOI","name_hindi":"बी ओ आई","address":"14/1, G N T Marg, Indore","opening_hours":"24/7","number_of_machines":1,"atm_guard":"no","cash_in_support":"no","withdrawal_limit":25000,"ward_no":"069","ward_name":"JAWAHAR MARG"},{"latitude":22.74614833,"longitude":75.86134,"amenity":"atm","name":"BOI","name_hindi":"बी ओ आई","address":"Bhagirathpura","opening_hours":"24/7","number_of_machines":1,"atm_guard":"no","cash_in_support":"no","withdrawal_limit":25000,"ward_no":"011","ward_name":"BHAGIRATHPURA"},{"latitude":22.74631664,"longitude":75.85093204,"amenity":"atm","name":"BOI","name_hindi":"बी ओ आई","address":"Baanganga","opening_hours":"24/7","number_of_machines":1,"atm_guard":"no","cash_in_support":"no","withdrawal_limit":25000,"ward_no":"010","ward_name":"BANGANGA"},{"latitude":22.7318263,"longitude":75.91396051,"amenity":"atm","name":"BOI","name_hindi":"बी ओ आई","address":"Dilip Nagar Main Road","opening_hours":"24/7","number_of_machines":1,"atm_guard":"no","cash_in_support":"no","withdrawal_limit":25000,"ward_no":"039","ward_name":"NAHAR SHAHVALI"},{"latitude":22.78751265,"longitude":75.90704109,"amenity":"atm","name":"BOI","name_hindi":"बी ओ आई","address":"AB Road, Dewas Naka","opening_hours":"24/7","number_of_machines":1,"atm_guard":"no","cash_in_support":"no","withdrawal_limit":25000,"ward_no":"035","ward_name":"LASUDIYA MORI"},{"latitude":22.80309494,"longitude":75.90727838,"amenity":"atm","name":"BOI","name_hindi":"बी ओ आई","address":"Singapore Township Talvali Chanda","opening_hours":"24/7","number_of_machines":1,"atm_guard":"no","cash_in_support":"no","withdrawal_limit":25000,"ward_no":"035","ward_name":"LASUDIYA MORI"},{"latitude":22.76835359,"longitude":75.89293015,"amenity":"atm","name":"BOI ATM","name_hindi":"बी ओ आई ए टी एम","address":"Plot no. 49/ Sector C/Part 2/Scheme no. 78 , Indore","opening_hours":"24/7","number_of_machines":1,"ward_no":"034","ward_name":"SHAHID BHAGATSINGH"},{"latitude":22.76702,"longitude":75.89898167,"amenity":"atm","name":"BOI ATM","name_hindi":"बी ओ आई ए टी एम","address":"Aranya Nagar, Vijay Nagar, Indore","opening_hours":"24/7","number_of_machines":1,"atm_guard":"no","cash_in_support":"no","withdrawal_limit":25000,"ward_no":"034","ward_name":"SHAHID BHAGATSINGH"},{"latitude":22.73572167,"longitude":75.88364833,"amenity":"atm","name":"BOI Bank","name_hindi":"बी ओ आई बैंक","address":"Atal Dwaar Road, Nehru Nagar, Indore","opening_hours":"24/7","number_of_machines":1,"atm_guard":"no","cash_in_support":"no","withdrawal_limit":25000,"ward_no":"026","ward_name":"JEEN MATA"},{"latitude":22.74961667,"longitude":75.88974833,"amenity":"atm","name":"Canara Bank","name_hindi":"केनरा बैंक","address":"UG-15, Meghdoot Tower, Opp Girdhar Mahal, Vijaynagar, Indore","opening_hours":"24/7","number_of_machines":1,"atm_guard":"no","cash_in_support":"no","withdrawal_limit":15000,"ward_no":"029","ward_name":"DR. SHYAM PRASAD MUKHARJI"},{"latitude":22.76843044,"longitude":75.8977764,"amenity":"atm","name":"Canara Bank","name_hindi":"केनरा बैंक","address":"Nai Sadak, Near Power House,Part 1, Vijay nagar, Indore.","opening_hours":"24/7","number_of_machines":1,"atm_guard":"no","cash_in_support":"no","withdrawal_limit":20000,"ward_no":"034","ward_name":"SHAHID BHAGATSINGH"},{"latitude":22.75697018,"longitude":75.88697707,"amenity":"atm","name":"Canara Bank","name_hindi":"केनरा बैंक","address":"F6,Scheme Number 54,Vijay Nagar,Indore","opening_hours":"24/7","number_of_machines":1,"atm_guard":"no","cash_in_support":"no","withdrawal_limit":40000,"ward_no":"029","ward_name":"DR. SHYAM PRASAD MUKHARJI"},{"latitude":22.72946113,"longitude":75.89670134,"amenity":"atm","name":"Canara Bank","name_hindi":"केनरा बैंक","address":"29, Shanti Nagar, Shri Nagar Extension, Khajrana Road, Indore","opening_hours":"24/7","number_of_machines":3,"atm_guard":"yes","cash_in_support":"yes","withdrawal_limit":40000,"ward_no":"043","ward_name":"SHRINAGAR"},{"latitude":22.74511463,"longitude":75.88260968,"amenity":"atm","name":"Canara Bank","name_hindi":"केनरा बैंक","address":"Nanda Nagar","opening_hours":"24/7","number_of_machines":1,"atm_guard":"no","cash_in_support":"no","withdrawal_limit":50000,"ward_no":"027","ward_name":"PASHUPATI NATH"},{"latitude":22.74353602,"longitude":75.87470076,"amenity":"atm","name":"Canara Bank","name_hindi":"केनरा बैंक","address":"70/1, Nanda Nagar Main Road,Indore","opening_hours":"24/7","number_of_machines":1,"atm_guard":"no","cash_in_support":"no","withdrawal_limit":20000,"ward_no":"025","ward_name":"NANDA NAGAR"},{"latitude":22.74118,"longitude":75.881995,"amenity":"atm","name":"Canara Bank","name_hindi":"केनरा बैंक","address":"164/12, Patnipura Main Road, Indore","opening_hours":"24/7","number_of_machines":1,"atm_guard":"no","cash_in_support":"no","withdrawal_limit":40000,"ward_no":"025","ward_name":"NANDA NAGAR"},{"latitude":22.72316452,"longitude":75.88783756,"amenity":"atm","name":"Canara Bank","name_hindi":"केनरा बैंक","address":"101, Mahatma Gandhi Road, Near Palasia Square, Manorama Ganj, Indore","opening_hours":"24/7","number_of_machines":1,"atm_guard":"no","cash_in_support":"no","withdrawal_limit":40000,"ward_no":"048","ward_name":"GITA BHAVAN"},{"latitude":22.72350495,"longitude":75.87424305,"amenity":"atm","name":"Canara Bank","name_hindi":"केनरा बैंक","address":"20 B, Yashwant Niwas Road, Sanghi Colony, Indore","opening_hours":"24/7","number_of_machines":1,"atm_guard":"no","cash_in_support":"no","withdrawal_limit":40000,"ward_no":"047","ward_name":"SARDAR VALLABHBHAI"},{"latitude":22.70948,"longitude":75.87538167,"amenity":"atm","name":"Canara Bank","name_hindi":"केनरा बैंक","address":"47, RNT Marg, Chhawni, Indore","opening_hours":"24/7","number_of_machines":1,"atm_guard":"no","cash_in_support":"no","withdrawal_limit":20000,"ward_no":"055","ward_name":"SAUTH TUKOGANJ"},{"latitude":22.715915,"longitude":75.87381833,"amenity":"atm","name":"Canara Bank","name_hindi":"केनरा बैंक","address":"11,RNT Marg, Indore","opening_hours":"24/7","number_of_machines":4,"atm_guard":"yes","cash_in_support":"yes","withdrawal_limit":40000,"ward_no":"055","ward_name":"SAUTH TUKOGANJ"},{"latitude":22.69622667,"longitude":75.86562667,"amenity":"atm","name":"Canara Bank","name_hindi":"केनरा बैंक","address":"Sundaram Complex, Bhawarkua Main Road, Near, Transport Nagar","opening_hours":"24/7","number_of_machines":1,"atm_guard":"no","cash_in_support":"no","withdrawal_limit":50000,"ward_no":"065","ward_name":"SANT KANWARRAM"},{"latitude":22.71842768,"longitude":75.8616397,"amenity":"atm","name":"Canara Bank","name_hindi":"केनरा बैंक","address":"36, Bhagon Plaza, Jag Jivan RamMohalla, Ranipura , Indore","opening_hours":"24/7","number_of_machines":1,"atm_guard":"no","cash_in_support":"no","withdrawal_limit":50000,"ward_no":"060","ward_name":"RANIPURA"},{"latitude":22.72242836,"longitude":75.85419305,"amenity":"atm","name":"Canara Bank","name_hindi":"केनरा बैंक","address":"38, Imli Bazar , Indore","opening_hours":"24/7","number_of_machines":1,"atm_guard":"no","cash_in_support":"no","withdrawal_limit":40000,"ward_no":"058","ward_name":"IMLI BAZAR"},{"latitude":22.71937103,"longitude":75.84916962,"amenity":"atm","name":"Canara Bank","name_hindi":"केनरा बैंक","address":"Mount Cloth Market, 582, Mahatma Gandhi Road, Yashwant Ganj, Khajuri Bazar, Indore","opening_hours":"24/7","number_of_machines":1,"atm_guard":"no","cash_in_support":"no","withdrawal_limit":40000,"ward_no":"069","ward_name":"JAWAHAR MARG"},{"latitude":22.700135,"longitude":75.84111167,"amenity":"atm","name":"Canara Bank","name_hindi":"केनरा बैंक","address":"7, Annapurna Rd, Nai Duniya, Revenue Colony, Revenue Nagar, Indore","opening_hours":"24/7","number_of_machines":1,"atm_guard":"no","cash_in_support":"no","withdrawal_limit":40000,"ward_no":"072","ward_name":"LOKMANYA NAGAR"},{"latitude":22.696595,"longitude":75.84452,"amenity":"atm","name":"Canara Bank","name_hindi":"केनरा बैंक","address":"Shree Labh Avenue, Keshar Bagh Road, Indore","opening_hours":"24/7","number_of_machines":1,"atm_guard":"no","cash_in_support":"no","withdrawal_limit":40000,"ward_no":"072","ward_name":"LOKMANYA NAGAR"},{"latitude":22.7254346,"longitude":75.82261923,"amenity":"atm","name":"Canara Bank","name_hindi":"केनरा बैंक","address":"Sukhdev Nagar, Kalani Nagar, Airport Road","opening_hours":"24/7","number_of_machines":1,"atm_guard":"no","cash_in_support":"yes","withdrawal_limit":20000,"ward_no":"004","ward_name":"SUKHDEV NAGAR"},{"latitude":22.720491,"longitude":75.84176313,"amenity":"atm","name":"Canara Bank","name_hindi":"केनरा बैंक","address":"Near Badaganpati Mandir, MG Road, Indore.","opening_hours":"24/7","number_of_machines":1,"atm_guard":"no","cash_in_support":"no","withdrawal_limit":20000,"ward_no":"007","ward_name":"JANTA COLONY"},{"latitude":22.76842833,"longitude":75.89786,"amenity":"atm","name":"Canara Bank","name_hindi":"केनरा बैंक","address":"Scheme Number 114, Kanchan Vihar Colony Main Road, Indore","opening_hours":"24/7","number_of_machines":1,"atm_guard":"no","cash_in_support":"no","withdrawal_limit":40000,"ward_no":"034","ward_name":"SHAHID BHAGATSINGH"},{"latitude":22.752845,"longitude":75.917695,"amenity":"atm","name":"Canara Bank","name_hindi":"केनरा बैंक","address":"Tulsi Nagar Road, Sai Kripa Colony, Scheme No 171","opening_hours":"Mo-Fr 10:00-16:00","number_of_machines":1,"atm_guard":"yes","cash_in_support":"no","withdrawal_limit":40000,"ward_no":"037","ward_name":"SAI KRUPA"},{"latitude":22.69166167,"longitude":75.86806,"amenity":"atm","name":"Canara Bank","name_hindi":"केनरा बैंक","address":"10, Khandwa Road, Bhawarkua, Indore","opening_hours":"24/7","number_of_machines":1,"atm_guard":"no","cash_in_support":"no","withdrawal_limit":40000,"ward_no":"074","ward_name":"VISHNAPURI"},{"latitude":22.818385,"longitude":75.926995,"amenity":"atm","name":"Canara Bank","name_hindi":"केनरा बैंक","address":"Mangliya A B Road","opening_hours":"24/7","number_of_machines":1,"atm_guard":"no","cash_in_support":"no","withdrawal_limit":40000},{"latitude":22.75431833,"longitude":75.88196333,"amenity":"atm","name":"Canara Bank ATM","name_hindi":"केनरा बैंक एटीएम","address":"EA-3,CLIA Satellite Office,\n M R 10 Road,Indore","opening_hours":"24/7","number_of_machines":1,"atm_guard":"no","cash_in_support":"no","withdrawal_limit":20000,"ward_no":"029","ward_name":"DR. SHYAM PRASAD MUKHARJI"},{"latitude":22.74474833,"longitude":75.871435,"amenity":"atm","name":"Canara Bank ATM","name_hindi":"केनरा बैंक एटीएम","address":"32, Pardeshipura Main Road, Pardesipura, Indore","opening_hours":"24/7","number_of_machines":1,"atm_guard":"no","cash_in_support":"no","withdrawal_limit":40000,"ward_no":"023","ward_name":"SWARGIYA RAJESH JOSHI"},{"latitude":22.74905,"longitude":75.869295,"amenity":"atm","name":"Central Bank ATM","name_hindi":"सेंट्रल बैंक एटीएम","address":"505, Opposite To Readymade Garment Complex, Clerk Colony, Padesi Pura, Clerk Colony, Indore","opening_hours":"24/7","number_of_machines":2,"atm_guard":"no","cash_in_support":"yes","withdrawal_limit":40000,"ward_no":"023","ward_name":"SWARGIYA RAJESH JOSHI"},{"latitude":22.71705167,"longitude":75.84950833,"amenity":"atm","name":"Central Bank ATM","name_hindi":"सेंट्रल बैंक एटीएम","address":"Sitlamata Bazar Main Road, Indore","opening_hours":"24/7","number_of_machines":2,"atm_guard":"no","cash_in_support":"no","withdrawal_limit":25000,"ward_no":"069","ward_name":"JAWAHAR MARG"},{"latitude":22.72895333,"longitude":75.82142167,"amenity":"atm","name":"Central Bank ATM","name_hindi":"सेंट्रल बैंक एटीएम","address":"60 Feet Road, Indore","opening_hours":"24/7","number_of_machines":1,"atm_guard":"no","cash_in_support":"no","withdrawal_limit":25000,"ward_no":"004","ward_name":"SUKHDEV NAGAR"},{"latitude":22.69689333,"longitude":75.87921167,"amenity":"atm","name":"Central Bank ATM","name_hindi":"सेंट्रल बैंक एटीएम","address":"Nemawar Road, Navlakha Main Road, Indore","opening_hours":"Mo-Sa 09:00-17:00","number_of_machines":1,"atm_guard":"yes","cash_in_support":"yes","withdrawal_limit":25000,"ward_no":"064","ward_name":"CHITAVAD"},{"latitude":22.69276167,"longitude":75.88199,"amenity":"atm","name":"Central Bank ATM","name_hindi":"सेंट्रल बैंक एटीएम","address":"Near Palda Naka, Navlakha Main Road,Indore","opening_hours":"24/7","number_of_machines":1,"atm_guard":"no","cash_in_support":"no","withdrawal_limit":30000,"ward_no":"064","ward_name":"CHITAVAD"},{"latitude":22.75214,"longitude":75.89147167,"amenity":"atm","name":"Central Bank of India","name_hindi":"सेंट्रल बैंक ऑफ इंडिया","address":"37, Scheme no.54, Opposite Sayaji Hotel, Vijaynagar, Indore","opening_hours":"24/7","number_of_machines":1,"atm_guard":"no","cash_in_support":"no","withdrawal_limit":15000,"ward_no":"029","ward_name":"DR. SHYAM PRASAD MUKHARJI"},{"latitude":22.73189333,"longitude":75.87480833,"amenity":"atm","name":"Central Bank of India","name_hindi":"सेंट्रल बैंक ऑफ इंडिया","address":"UG-15, Silver State Minal Shri, YN Road, Indore","opening_hours":"24/7","number_of_machines":1,"atm_guard":"no","cash_in_support":"no","withdrawal_limit":20000,"ward_no":"047","ward_name":"SARDAR VALLABHBHAI"},{"latitude":22.72846264,"longitude":75.89529318,"amenity":"atm","name":"Central Bank Of India","name_hindi":"सेंट्रल बैंक ऑफ इंडिया","address":"Khajrana Main Rd, Shree Nagar Ext, New Palasia, Indore","opening_hours":"24/7","number_of_machines":3,"atm_guard":"no","cash_in_support":"yes","withdrawal_limit":40000,"ward_no":"043","ward_name":"SHRINAGAR"},{"latitude":22.698075,"longitude":75.86455333,"amenity":"atm","name":"Central Bank of India","name_hindi":"सेंट्रल बैंक ऑफ इंडिया","address":"Sapna Sangeeta Rd, Tower Square, Navlakha","opening_hours":"24/7","number_of_machines":1,"atm_guard":"no","cash_in_support":"no","withdrawal_limit":40000,"ward_no":"065","ward_name":"SANT KANWARRAM"},{"latitude":22.69645167,"longitude":75.8314,"amenity":"atm","name":"Central Bank of India","name_hindi":"सेंट्रल बैंक ऑफ इंडिया","address":"12 Gokul Dham, Ranjeet Hanuman Road, Gumasta Nagar, Sudama Nagar, Indore","opening_hours":"24/7","number_of_machines":2,"atm_guard":"no","cash_in_support":"yes","withdrawal_limit":40000,"ward_no":"083","ward_name":"GUSHMATA NAGAR"},{"latitude":22.69685333,"longitude":75.85458333,"amenity":"atm","name":"Central Bank of India","name_hindi":"सेंट्रल बैंक ऑफ इंडिया","address":"16/2, Anas Avenue, Near Maszid, Gulzar Colony, Manik Bagh Road","opening_hours":"24/7","number_of_machines":1,"atm_guard":"no","cash_in_support":"no","withdrawal_limit":40000,"ward_no":"073","ward_name":"LAXMANSINGH CHAUHAN"},{"latitude":22.72542378,"longitude":75.82243132,"amenity":"atm","name":"Central Bank of India","name_hindi":"सेंट्रल बैंक ऑफ इंडिया","address":"6 Airport Road, Sukhdev Nagar, Sangam Nagar, Indore.","opening_hours":"24/7","number_of_machines":2,"atm_guard":"no","cash_in_support":"yes","withdrawal_limit":20000,"ward_no":"004","ward_name":"SUKHDEV NAGAR"},{"latitude":22.76990063,"longitude":75.88731294,"amenity":"atm","name":"Central Bank Of India","name_hindi":"सेंट्रल बैंक ऑफ इंडिया","address":"Near Rajiv Awas Square, Part-1 , Scheme Number 78","opening_hours":"24/7","number_of_machines":1,"atm_guard":"no","cash_in_support":"no","withdrawal_limit":20000,"ward_no":"034","ward_name":"SHAHID BHAGATSINGH"},{"latitude":22.80511196,"longitude":75.91671523,"amenity":"atm","name":"Central Bank Of India","name_hindi":"सेंट्रल बैंक ऑफ इंडिया","address":"Mangliya, AB Road","opening_hours":"24/7","number_of_machines":1,"atm_guard":"no","cash_in_support":"no","withdrawal_limit":25000,"ward_no":"035","ward_name":"LASUDIYA MORI"},{"latitude":22.7694535,"longitude":75.88881849,"amenity":"atm","name":"Central Bank Of India ATM","name_hindi":"सेंट्रल बैंक ऑफ इंडिया ए टी एम","address":"Near Astha Hospital,Rajiv Awas Vihar,Part -1,Scheme no. 114,Indore","opening_hours":"24/7","number_of_machines":1,"atm_guard":"no","cash_in_support":"no","withdrawal_limit":20000,"ward_no":"034","ward_name":"SHAHID BHAGATSINGH"},{"latitude":22.72716131,"longitude":75.88340832,"amenity":"atm","name":"City Union Bank limited","name_hindi":"सिटी यूनियन बैंक लिमिटेड","address":"6/1, The Magnate Tower, Curewell Hospital Road, New Palasia, Indore","opening_hours":"24/7","number_of_machines":1,"atm_guard":"no","cash_in_support":"yes","withdrawal_limit":100000,"ward_no":"043","ward_name":"SHRINAGAR"},{"latitude":22.73938762,"longitude":75.881715,"amenity":"atm","name":"Co-operative Bank","name_hindi":"को-ओपेरतीव बैंक","address":"5, Jagjivan Ram Nagar, Patnipura, Indore","opening_hours":"24/7","number_of_machines":2,"atm_guard":"no","cash_in_support":"yes","withdrawal_limit":5000,"ward_no":"044","ward_name":"H.I.G."},{"latitude":22.75428,"longitude":75.89621,"amenity":"atm","name":"Corporation Bank","name_hindi":"कोर्पोरेशन बैंक","address":"Plot No.51,Vijay Nagar,Near Satyasai Square,Indore","opening_hours":"Mo-Sa 10:30-17:30","number_of_machines":1,"atm_guard":"no","cash_in_support":"no","withdrawal_limit":25000,"ward_no":"029","ward_name":"DR. SHYAM PRASAD MUKHARJI"},{"latitude":22.71944539,"longitude":75.87144817,"amenity":"atm","name":"Corporation Bank","name_hindi":"कोर्पोरेशन बैंक","address":"RNT Road, Regal","opening_hours":"24/7","number_of_machines":1,"atm_guard":"no","cash_in_support":"no","withdrawal_limit":25000,"ward_no":"055","ward_name":"SAUTH TUKOGANJ"},{"latitude":22.72699695,"longitude":75.88321422,"amenity":"atm","name":"Corporation Bank","name_hindi":"कोर्पोरेशन बैंक","address":"102, Kanika Apartment, 14/1, New Palasia, Indore","opening_hours":"24/7","number_of_machines":1,"atm_guard":"yes","cash_in_support":"no","withdrawal_limit":15000,"ward_no":"047","ward_name":"SARDAR VALLABHBHAI"},{"latitude":22.69335333,"longitude":75.86821667,"amenity":"atm","name":"Corporation Bank","name_hindi":"कोर्पोरेशन बैंक","address":"Ranawar Trade Center, Agra Bombay Road, Bhavarkuan, Ashok Nagar, Vishnu Puri Colony","opening_hours":"24/7","number_of_machines":1,"atm_guard":"no","cash_in_support":"no","withdrawal_limit":25000,"ward_no":"074","ward_name":"VISHNAPURI"},{"latitude":22.702625,"longitude":75.84001,"amenity":"atm","name":"Corporation Bank","name_hindi":"कोर्पोरेशन बैंक","address":"8, Ranjeet Hanuman Road, Usha Nagar, Indore","opening_hours":"24/7","number_of_machines":1,"atm_guard":"yes","cash_in_support":"no","withdrawal_limit":15000,"ward_no":"071","ward_name":"DRAVID NAGAR"},{"latitude":22.77668333,"longitude":75.89998833,"amenity":"atm","name":"Corporation Bank","name_hindi":"कोर्पोरेशन बैंक","address":"New Loha Mandi, AB Road, Dewas Naka, Indore","opening_hours":"24/7","number_of_machines":1,"atm_guard":"no","cash_in_support":"no","withdrawal_limit":25000,"ward_no":"034","ward_name":"SHAHID BHAGATSINGH"},{"latitude":22.74355,"longitude":75.87473667,"amenity":"atm","name":"Corporation Bank ATM","name_hindi":"कोर्पोरेशन बैंक एटिएम","address":"Near Soni Jewellers Ratlam Wale, 69/1, Nanda Nagar Main Road, Nanda Nagar, Indore","opening_hours":"24/7","number_of_machines":1,"atm_guard":"no","cash_in_support":"no","withdrawal_limit":15000,"ward_no":"025","ward_name":"NANDA NAGAR"},{"latitude":22.7176,"longitude":75.87403,"amenity":"atm","name":"Cosmos Bank","name_hindi":"कॉस्मॉस बैंक","address":"South Tukogunj, Behind High Court, Indore","opening_hours":"24/7","number_of_machines":2,"atm_guard":"yes","cash_in_support":"no","withdrawal_limit":25000,"ward_no":"055","ward_name":"SAUTH TUKOGANJ"},{"latitude":22.69055167,"longitude":75.83753833,"amenity":"atm","name":"Cosmos Bank","name_hindi":"कॉस्मॉस बैंक","address":"2, Annapurna Road, Annapurna Mandir, Sudama Nagar, Indore","opening_hours":"24/7","number_of_machines":1,"atm_guard":"yes","cash_in_support":"no","withdrawal_limit":25000,"ward_no":"082","ward_name":"SUDAMA NAGAR"},{"latitude":22.72748333,"longitude":75.88151833,"amenity":"atm","name":"DCB Bank","name_hindi":"डी सी बी बैंक","address":"21/3,DCB Bank New Palasia, Opp.Hotel Apna Avenue, Janjeerwala Square, Indore","opening_hours":"24/7","number_of_machines":1,"atm_guard":"yes","cash_in_support":"no","withdrawal_limit":15000,"ward_no":"043","ward_name":"SHRINAGAR"},{"latitude":22.72745156,"longitude":75.88154845,"amenity":"atm","name":"DCB Bank","name_hindi":"डी सी बी बैंक","address":"Shop Number 1/2, Princess Pride, 21/3, New Palasia, Janjeer wala Square, Indore","opening_hours":"24/7","number_of_machines":1,"atm_guard":"no","cash_in_support":"no","withdrawal_limit":25000,"ward_no":"043","ward_name":"SHRINAGAR"},{"latitude":22.72558265,"longitude":75.89291262,"amenity":"atm","name":"Dena Bank","name_hindi":"देना बैंक","address":"Navneet Darshan Building, Old Palasia, Greater Kailash Hospital Road, Indore","opening_hours":"24/7","number_of_machines":1,"atm_guard":"no","cash_in_support":"no","withdrawal_limit":20000,"ward_no":"043","ward_name":"SHRINAGAR"},{"latitude":22.695405,"longitude":75.83031167,"amenity":"atm","name":"Dena Bank","name_hindi":"देना बैंक","address":"Shop No.982-A, Lakshman Singh Gour Marg, Foothi Kothi Road, Footikothi, Near Gumasta Nagar, Sector D, Sudama Nagar, Indore","opening_hours":"24/7","number_of_machines":1,"atm_guard":"no","cash_in_support":"no","withdrawal_limit":20000,"ward_no":"083","ward_name":"GUSHMATA NAGAR"},{"latitude":22.69604833,"longitude":75.86593,"amenity":"atm","name":"Equitas Small Finance Bank","name_hindi":"इक्विटास स्माल फाइनेंस बैंक","address":"Bhawarkua Main Road, Ashok Nagar,","opening_hours":"24/7","number_of_machines":1,"atm_guard":"yes","cash_in_support":"no","withdrawal_limit":50000,"ward_no":"065","ward_name":"SANT KANWARRAM"},{"latitude":22.74739833,"longitude":75.89096333,"amenity":"atm","name":"Federal Bank","name_hindi":"फ़ेडरल बैंक","address":"Vijaynagar, Near sayaji , Indore","opening_hours":"24/7","number_of_machines":1,"atm_guard":"no","cash_in_support":"no","withdrawal_limit":50000,"ward_no":"029","ward_name":"DR. SHYAM PRASAD MUKHARJI"},{"latitude":22.71798833,"longitude":75.88248833,"amenity":"atm","name":"Federal Bank","name_hindi":"फ़ेडरल बैंक","address":"Ratlam Kothi, Geeta Bhawan Road","opening_hours":"24/7","number_of_machines":1,"atm_guard":"yes","cash_in_support":"yes","withdrawal_limit":50000,"ward_no":"055","ward_name":"SAUTH TUKOGANJ"},{"latitude":22.69674,"longitude":75.86523333,"amenity":"atm","name":"Fincare Small Finance Bank","name_hindi":"फिनकेयर स्माल फाइनेंस बैंक","address":"Bhawarkuan Main Road, Transport Nagar","opening_hours":"24/7","number_of_machines":1,"atm_guard":"yes","cash_in_support":"no","withdrawal_limit":20000,"ward_no":"065","ward_name":"SANT KANWARRAM"},{"latitude":22.75338833,"longitude":75.90469,"amenity":"atm","name":"H DFC Bank","name_hindi":"#N/A","address":"SN 1 , Modi House ,Ring Road , Mahalaxmi Nagar , Scheme 94 , Indore","opening_hours":"24/7","number_of_machines":1,"atm_guard":"no","cash_in_support":"no","withdrawal_limit":100000,"ward_no":"037","ward_name":"SAI KRUPA"},{"latitude":22.75573949,"longitude":75.89656552,"amenity":"atm","name":"HDFC","name_hindi":"एच डि एफ सी","address":"Vijay Nagar, Main Branch, Satya Sai Square","opening_hours":"24/7","number_of_machines":1,"atm_guard":"yes","cash_in_support":"no","withdrawal_limit":20000,"ward_no":"029","ward_name":"DR. SHYAM PRASAD MUKHARJI"},{"latitude":22.74791287,"longitude":75.86921479,"amenity":"atm","name":"HDFC","name_hindi":"एच डि एफ सी","address":"Opposite Kankeshwari Mandir, Readymade Complex Road, Pardeshipura, Indore","opening_hours":"24/7","number_of_machines":1,"atm_guard":"no","cash_in_support":"no","withdrawal_limit":20000,"ward_no":"023","ward_name":"SWARGIYA RAJESH JOSHI"},{"latitude":22.74465462,"longitude":75.87142114,"amenity":"atm","name":"HDFC","name_hindi":"एच डि एफ सी","address":"32, Pardeshipura Main Road, Indore","opening_hours":"24/7","number_of_machines":1,"atm_guard":"no","cash_in_support":"no","withdrawal_limit":20000,"ward_no":"023","ward_name":"SWARGIYA RAJESH JOSHI"},{"latitude":22.735885,"longitude":75.88662667,"amenity":"atm","name":"HDFC","name_hindi":"एच डि एफ सी","address":"C-15, HIG RSS Nagar Colony Indore","opening_hours":"24/7","number_of_machines":1,"atm_guard":"yes","cash_in_support":"no","withdrawal_limit":50000,"ward_no":"045","ward_name":"DR. BHIMRAO AMBEDAR"},{"latitude":22.715755,"longitude":75.87368167,"amenity":"atm","name":"HDFC","name_hindi":"एच डि एफ सी","address":"President plaza, RNT Marg, Indore","opening_hours":"24/7","number_of_machines":1,"atm_guard":"no","cash_in_support":"no","withdrawal_limit":40000,"ward_no":"055","ward_name":"SAUTH TUKOGANJ"},{"latitude":22.71749833,"longitude":75.87797667,"amenity":"atm","name":"HDFC","name_hindi":"एच डि एफ सी","address":"Dhakan vala Kuan, South Toukogunj, Indore","opening_hours":"24/7","number_of_machines":3,"atm_guard":"no","cash_in_support":"no","withdrawal_limit":50000,"ward_no":"055","ward_name":"SAUTH TUKOGANJ"},{"latitude":22.71528833,"longitude":75.84387333,"amenity":"atm","name":"HDFC","name_hindi":"एच डि एफ सी","address":"Jawahar Marg, Indore","opening_hours":"24/7","number_of_machines":2,"atm_guard":"yes","cash_in_support":"yes","withdrawal_limit":50000,"ward_no":"069","ward_name":"JAWAHAR MARG"},{"latitude":22.74629,"longitude":75.85091333,"amenity":"atm","name":"HDFC","name_hindi":"एच डि एफ सी","address":"Band Ganga","opening_hours":"24/7","number_of_machines":1,"atm_guard":"no","cash_in_support":"no","withdrawal_limit":50000,"ward_no":"010","ward_name":"BANGANGA"},{"latitude":22.75294167,"longitude":75.88773,"amenity":"atm","name":"HDFC ATM","name_hindi":"एच डी एफ सी एटीएम","address":"54,Sayaji Square,Vijay Nagar,\n Indore","opening_hours":"24/7","number_of_machines":3,"atm_guard":"no","cash_in_support":"yes","withdrawal_limit":50000,"ward_no":"029","ward_name":"DR. SHYAM PRASAD MUKHARJI"},{"latitude":22.75737333,"longitude":75.90400833,"amenity":"atm","name":"HDFC Bank","name_hindi":"एच डी एफ सी बैंक","address":"245, Sai Kripa Colony Scheme No.94, Mahalakshmi Nagar Indore","opening_hours":"24/7","number_of_machines":2,"atm_guard":"no","cash_in_support":"no","withdrawal_limit":20000,"ward_no":"031","ward_name":"MAHARAJA CHATRASAL"},{"latitude":22.75731667,"longitude":75.90402667,"amenity":"atm","name":"HDFC Bank","name_hindi":"एच डी एफ सी बैंक","address":"Briliant Avenue, Ring Road, Indore","opening_hours":"24/7","number_of_machines":2,"atm_guard":"yes","cash_in_support":"no","withdrawal_limit":50000,"ward_no":"031","ward_name":"MAHARAJA CHATRASAL"},{"latitude":22.73347167,"longitude":75.87494333,"amenity":"atm","name":"HDFC Bank","name_hindi":"एच डी एफ सी बैंक","address":"16, YN Road, Near Malwa Mill Square, Indore","opening_hours":"24/7","number_of_machines":1,"atm_guard":"no","cash_in_support":"no","withdrawal_limit":50000,"ward_no":"047","ward_name":"SARDAR VALLABHBHAI"},{"latitude":22.72996969,"longitude":75.89795493,"amenity":"atm","name":"HDFC Bank","name_hindi":"एच डी एफ सी बैंक","address":"5/1 Guru Kripa Crystal, Khajrana Road, Chandra lok Square, Indore","opening_hours":"24/7","number_of_machines":1,"atm_guard":"yes","cash_in_support":"no","withdrawal_limit":40000,"ward_no":"043","ward_name":"SHRINAGAR"},{"latitude":22.74660833,"longitude":75.89359,"amenity":"atm","name":"HDFC Bank","name_hindi":"एच डी एफ सी बैंक","address":"Scheme No.54, Near Rasoma Square, Sheeta Nagar","opening_hours":"24/7","number_of_machines":2,"atm_guard":"no","cash_in_support":"no","withdrawal_limit":100000,"ward_no":"029","ward_name":"DR. SHYAM PRASAD MUKHARJI"},{"latitude":22.71496833,"longitude":75.89419,"amenity":"atm","name":"HDFC Bank","name_hindi":"एच डी एफ सी बैंक","address":"Geeta Nagar Colony 109,Lalaram Nagar","opening_hours":"24/7","number_of_machines":1,"atm_guard":"no","cash_in_support":"no","withdrawal_limit":50000,"ward_no":"048","ward_name":"GITA BHAVAN"},{"latitude":22.7185787,"longitude":75.88757764,"amenity":"atm","name":"HDFC Bank","name_hindi":"एच डी एफ सी बैंक","address":"Geeta Bhawan","opening_hours":"24/7","number_of_machines":1,"atm_guard":"no","cash_in_support":"no","withdrawal_limit":50000,"ward_no":"048","ward_name":"GITA BHAVAN"},{"latitude":22.72191561,"longitude":75.87945877,"amenity":"atm","name":"HDFC Bank","name_hindi":"एच डी एफ सी बैंक","address":"HDFC House , South Tukoganj, Indore","opening_hours":"Mo-Su 07:00-23:00","number_of_machines":1,"atm_guard":"yes","cash_in_support":"no","withdrawal_limit":50000,"ward_no":"055","ward_name":"SAUTH TUKOGANJ"},{"latitude":22.72533138,"longitude":75.88280063,"amenity":"atm","name":"HDFC Bank","name_hindi":"एच डी एफ सी बैंक","address":"7, Commerce House Building, Race Course Road , 11 Bungalow Colony, New Palasia , Indore","opening_hours":"24/7","number_of_machines":2,"atm_guard":"no","cash_in_support":"no","withdrawal_limit":50000,"ward_no":"047","ward_name":"SARDAR VALLABHBHAI"},{"latitude":22.71892333,"longitude":75.89901667,"amenity":"atm","name":"HDFC Bank","name_hindi":"एच डी एफ सी बैंक","address":"Sector A,Tilak Nagar Main Road, Mahavir Nagar","opening_hours":"24/7","number_of_machines":1,"atm_guard":"no","cash_in_support":"no","withdrawal_limit":50000,"ward_no":"049","ward_name":"TILAKNAGAR"},{"latitude":22.699885,"longitude":75.867545,"amenity":"atm","name":"HDFC Bank","name_hindi":"एच डी एफ सी बैंक","address":"28, Mishika Towers, Sapna Sangeeta Road","opening_hours":"24/7","number_of_machines":1,"atm_guard":"yes","cash_in_support":"no","withdrawal_limit":50000,"ward_no":"063","ward_name":"NAVLAKHA"},{"latitude":22.69807,"longitude":75.86453667,"amenity":"atm","name":"HDFC Bank","name_hindi":"एच डी एफ सी बैंक","address":"Sapna Sangeeta Road, Tower Square, Navlakha","opening_hours":"24/7","number_of_machines":1,"atm_guard":"no","cash_in_support":"no","withdrawal_limit":50000,"ward_no":"065","ward_name":"SANT KANWARRAM"},{"latitude":22.72398317,"longitude":75.86168684,"amenity":"atm","name":"HDFC Bank","name_hindi":"एच डी एफ सी बैंक","address":"4, Netaji Subhash Marg, Chimanbagh Chauraha, Indore","opening_hours":"24/7","number_of_machines":2,"atm_guard":"no","cash_in_support":"no","withdrawal_limit":50000,"ward_no":"057","ward_name":"DEVI AHILYABAI"},{"latitude":22.72784394,"longitude":75.86314389,"amenity":"atm","name":"HDFC Bank","name_hindi":"एच डी एफ सी बैंक","address":"Gracia Heights, D.R.P. Line Square, Indore","opening_hours":"24/7","number_of_machines":1,"atm_guard":"no","cash_in_support":"no","withdrawal_limit":50000,"ward_no":"056","ward_name":"SNEHALATA GANJ"},{"latitude":22.69676667,"longitude":75.831525,"amenity":"atm","name":"HDFC Bank","name_hindi":"एच डी एफ सी बैंक","address":"11, Kanha Avenue, Gumasta Nagar Ranjit Hanuman Main Road Opposite Annpurna Sweets, Gumasta Nagar, Scheme 71, Indore","opening_hours":"24/7","number_of_machines":1,"atm_guard":"yes","cash_in_support":"no","withdrawal_limit":50000,"ward_no":"083","ward_name":"GUSHMATA NAGAR"},{"latitude":22.69465,"longitude":75.83859,"amenity":"atm","name":"HDFC Bank","name_hindi":"एच डी एफ सी बैंक","address":"Roop Tower, Annapurna Road, Opposite Dusshera Maidan, Indore","opening_hours":"24/7","number_of_machines":1,"atm_guard":"no","cash_in_support":"no","withdrawal_limit":50000,"ward_no":"071","ward_name":"DRAVID NAGAR"},{"latitude":22.69777833,"longitude":75.85463833,"amenity":"atm","name":"HDFC Bank","name_hindi":"एच डी एफ सी बैंक","address":"1, Gulzar Colony, Manik Bagh Road Near Police Choki, Indore","opening_hours":"24/7","number_of_machines":1,"atm_guard":"no","cash_in_support":"no","withdrawal_limit":50000,"ward_no":"073","ward_name":"LAXMANSINGH CHAUHAN"},{"latitude":22.72802817,"longitude":75.83445523,"amenity":"atm","name":"HDFC Bank","name_hindi":"एच डी एफ सी बैंक","address":"25, Palhar Nagar, 60 Feet Road","opening_hours":"24/7","number_of_machines":1,"atm_guard":"no","cash_in_support":"no","withdrawal_limit":50000,"ward_no":"014","ward_name":"ASHOK NAGAR"},{"latitude":22.72356093,"longitude":75.82838075,"amenity":"atm","name":"HDFC Bank","name_hindi":"एच डी एफ सी बैंक","address":"SN 11, Sitashree Apt, Mohta Bagh , Airport Road, Indore.","opening_hours":"24/7","number_of_machines":1,"atm_guard":"no","cash_in_support":"no","withdrawal_limit":20000,"ward_no":"004","ward_name":"SUKHDEV NAGAR"},{"latitude":22.69363333,"longitude":75.82811,"amenity":"atm","name":"HDFC Bank","name_hindi":"एच डी एफ सी बैंक","address":"Phooti Kothi Square, Near Pukhraj Palace, Indore","opening_hours":"24/7","number_of_machines":1,"atm_guard":"no","cash_in_support":"no","withdrawal_limit":50000,"ward_no":"082","ward_name":"SUDAMA NAGAR"},{"latitude":22.755779,"longitude":75.86376851,"amenity":"atm","name":"HDFC Bank","name_hindi":"एच डी एफ सी बैंक","address":"Shop Number 1, Patel Market, Near Hotel Siddheshwar Inn, Gouri Nagar, Indore","opening_hours":"24/7","number_of_machines":1,"atm_guard":"no","cash_in_support":"no","withdrawal_limit":50000,"ward_no":"020","ward_name":"GAURI NAGAR"},{"latitude":22.73358671,"longitude":75.85001917,"amenity":"atm","name":"HDFC bank","name_hindi":"एच डी एफ सी बैंक","address":"Swami Complex, Mari Mata Square, Indore.","opening_hours":"24/7","number_of_machines":1,"atm_guard":"no","cash_in_support":"no","withdrawal_limit":20000,"ward_no":"058","ward_name":"IMLI BAZAR"},{"latitude":22.75299167,"longitude":75.91498167,"amenity":"atm","name":"HDFC Bank","name_hindi":"एच डी एफ सी बैंक","address":"245, Sai Kripa Colony, Mahalaxmi Nagar","opening_hours":"24/7","number_of_machines":1,"atm_guard":"no","cash_in_support":"no","withdrawal_limit":50000,"ward_no":"037","ward_name":"SAI KRUPA"},{"latitude":22.67103,"longitude":75.88101333,"amenity":"atm","name":"HDFC Bank","name_hindi":"एच डी एफ सी बैंक","address":"Rani Bagh Main, Khandwa Road","opening_hours":"24/7","number_of_machines":1,"atm_guard":"no","cash_in_support":"no","withdrawal_limit":50000,"ward_no":"077","ward_name":"BILAWALI"},{"latitude":22.69301826,"longitude":75.89915154,"amenity":"atm","name":"HDFC Bank","name_hindi":"एच डी एफ सी बैंक","address":"Infront Mata Mandir, Musakhedi Square, Ring Road","opening_hours":"24/7","number_of_machines":1,"atm_guard":"no","cash_in_support":"no","withdrawal_limit":50000,"ward_no":"054","ward_name":"RESIDENCY"},{"latitude":22.68641093,"longitude":75.89126919,"amenity":"atm","name":"HDFC Bank","name_hindi":"एच डी एफ सी बैंक","address":"Nemawar Road, Dinesh Nagar, Palda.","opening_hours":"24/7","number_of_machines":1,"atm_guard":"no","cash_in_support":"no","withdrawal_limit":20000,"ward_no":"064","ward_name":"CHITAVAD"},{"latitude":22.81804759,"longitude":75.92675029,"amenity":"atm","name":"HDFC Bank","name_hindi":"एच डी एफ सी बैंक","address":"Mangliya","opening_hours":"24/7","number_of_machines":2,"atm_guard":"yes","cash_in_support":"yes","withdrawal_limit":50000},{"latitude":22.75512333,"longitude":75.87706167,"amenity":"atm","name":"HDFC Bank ATM","name_hindi":"एच डी एफ सी बैंक एटिएम","address":"A-14, Sukhlia Main Road,Indore","opening_hours":"24/7","number_of_machines":1,"atm_guard":"no","cash_in_support":"no","withdrawal_limit":50000,"ward_no":"022","ward_name":"PANDIT DINDAYAL UPADHYAY"},{"latitude":22.76834252,"longitude":75.89295211,"amenity":"atm","name":"HDFC Bank ATM","name_hindi":"एच डी एफ सी बैंक एटिएम","address":"Sector-C,Part 1,Main Road,Rajiv Awas Vihar,Scheme no. 78,Indore","opening_hours":"24/7","number_of_machines":1,"atm_guard":"no","cash_in_support":"no","withdrawal_limit":20000,"ward_no":"034","ward_name":"SHAHID BHAGATSINGH"},{"latitude":22.773185,"longitude":75.84793667,"amenity":"atm","name":"HDFC Bank ATM","name_hindi":"एच डी एफ सी बैंक एटिएम","address":"Ujjain-Indore Road, Sector F, Sanwer Road Industrial Area, Indore","opening_hours":"24/7","number_of_machines":1,"atm_guard":"no","cash_in_support":"no","withdrawal_limit":35000,"ward_no":"019","ward_name":"VISHVAKARMA"},{"latitude":22.68178833,"longitude":75.863785,"amenity":"atm","name":"Hitachi ATM","name_hindi":"हिताची एटीएम","address":"316/5, Hargovind Nagar, Bhola Ram Ustad Marg, Nanak Palace, Indore","opening_hours":"24/7","number_of_machines":1,"atm_guard":"no","cash_in_support":"no","withdrawal_limit":20000,"ward_no":"074","ward_name":"VISHNAPURI"},{"latitude":22.67344761,"longitude":75.87833776,"amenity":"atm","name":"Hitachi Atm","name_hindi":"हिताची एटीएम","address":"136, ganesh Nagar Main Road, Khandwa Naka, Indore","opening_hours":"24/7","number_of_machines":1,"atm_guard":"no","cash_in_support":"no","withdrawal_limit":15000,"ward_no":"077","ward_name":"BILAWALI"},{"latitude":22.75675123,"longitude":75.89260494,"amenity":"atm","name":"ICICI","name_hindi":"आई सी आई सी आई","address":"UG- 3, AF, Shivam Palace, Scheme no. 54, Vijay Nagar, Indore","opening_hours":"24/7","number_of_machines":1,"atm_guard":"no","cash_in_support":"no","withdrawal_limit":20000,"ward_no":"029","ward_name":"DR. SHYAM PRASAD MUKHARJI"},{"latitude":22.75549659,"longitude":75.89548106,"amenity":"atm","name":"ICICI","name_hindi":"आई सी आई सी आई","address":"Plot no 60/Ab, Sector A, Scheme no. 54, Vijay nagar, Indore","opening_hours":"24/7","number_of_machines":1,"atm_guard":"yes","cash_in_support":"no","withdrawal_limit":20000,"ward_no":"029","ward_name":"DR. SHYAM PRASAD MUKHARJI"},{"latitude":22.71801333,"longitude":75.88238167,"amenity":"atm","name":"ICICI","name_hindi":"आई सी आई सी आई","address":"Ratlam Kothi, Geeta Bhawan Road, Indore","opening_hours":"24/7","number_of_machines":3,"atm_guard":"yes","cash_in_support":"yes","withdrawal_limit":50000,"ward_no":"055","ward_name":"SAUTH TUKOGANJ"},{"latitude":22.71534006,"longitude":75.8410548,"amenity":"atm","name":"ICICI","name_hindi":"आई सी आई सी आई","address":"Raj Mohalla Square","opening_hours":"24/7","number_of_machines":1,"atm_guard":"no","cash_in_support":"no","withdrawal_limit":50000,"ward_no":"069","ward_name":"JAWAHAR MARG"},{"latitude":22.71419333,"longitude":75.84281667,"amenity":"atm","name":"ICICI","name_hindi":"आई सी आई सी आई","address":"176, Rahmoholla","opening_hours":"24/7","number_of_machines":2,"atm_guard":"no","cash_in_support":"no","withdrawal_limit":50000,"ward_no":"070","ward_name":"LOKNAYAK NAGAR"},{"latitude":22.789565,"longitude":75.90694,"amenity":"atm","name":"ICICI","name_hindi":"आई सी आई सी आई","address":"4/2, Lasudia Mori A B Road Mangliya","opening_hours":"24/7","number_of_machines":1,"atm_guard":"yes","cash_in_support":"no","withdrawal_limit":50000,"ward_no":"035","ward_name":"LASUDIYA MORI"},{"latitude":22.753095,"longitude":75.88776,"amenity":"atm","name":"ICICI ATM","name_hindi":"आई सी आई सी आई एटीएम","address":"54,Sayaji Square,Vijay Nagar,Indore","opening_hours":"24/7","number_of_machines":3,"atm_guard":"no","cash_in_support":"no","withdrawal_limit":50000,"ward_no":"029","ward_name":"DR. SHYAM PRASAD MUKHARJI"},{"latitude":22.7729,"longitude":75.90204667,"amenity":"atm","name":"ICICI ATM","name_hindi":"आई सी आई सी आई एटीएम","address":"Diamond Garge Petrol Pump, A B Road, Indore","opening_hours":"24/7","number_of_machines":1,"atm_guard":"no","cash_in_support":"no","withdrawal_limit":40000,"ward_no":"035","ward_name":"LASUDIYA MORI"},{"latitude":22.75342667,"longitude":75.91004667,"amenity":"atm","name":"ICICI Bank","name_hindi":"आई सी आई सी आई बैंक","address":"370, Mahalakshmi Nagar Sai Kripa Main Road, Indore","opening_hours":"24/7","number_of_machines":1,"atm_guard":"no","cash_in_support":"no","withdrawal_limit":50000,"ward_no":"037","ward_name":"SAI KRUPA"},{"latitude":22.72920667,"longitude":75.8744,"amenity":"atm","name":"ICICI Bank","name_hindi":"आई सी आई सी आई बैंक","address":"GF Sanghi Manohar, YN Road, Indore","opening_hours":"24/7","number_of_machines":1,"atm_guard":"yes","cash_in_support":"no","withdrawal_limit":50000,"ward_no":"047","ward_name":"SARDAR VALLABHBHAI"},{"latitude":22.73966288,"longitude":75.88109222,"amenity":"atm","name":"ICICI Bank","name_hindi":"आई सी आई सी आई बैंक","address":"2, Patnipura Square, Indore","opening_hours":"24/7","number_of_machines":1,"atm_guard":"no","cash_in_support":"no","withdrawal_limit":50000,"ward_no":"026","ward_name":"JEEN MATA"},{"latitude":22.73693833,"longitude":75.88456833,"amenity":"atm","name":"ICICI Bank","name_hindi":"आई सी आई सी आई बैंक","address":"178, Atal Dwaar Road, Indore","opening_hours":"24/7","number_of_machines":1,"atm_guard":"yes","cash_in_support":"no","withdrawal_limit":50000,"ward_no":"026","ward_name":"JEEN MATA"},{"latitude":22.74016667,"longitude":75.89152,"amenity":"atm","name":"ICICI bank","name_hindi":"आई सी आई सी आई बैंक","address":"Malav Parisar, Near LIG Square, Indore","opening_hours":"24/7","number_of_machines":2,"atm_guard":"yes","cash_in_support":"no","withdrawal_limit":50000,"ward_no":"044","ward_name":"H.I.G."},{"latitude":22.74310833,"longitude":75.88361167,"amenity":"atm","name":"ICICI Bank","name_hindi":"आई सी आई सी आई बैंक","address":"New Dewas Road, Opp. Astha Cinema, Indore","opening_hours":"24/7","number_of_machines":1,"atm_guard":"no","cash_in_support":"no","withdrawal_limit":50000,"ward_no":"027","ward_name":"PASHUPATI NATH"},{"latitude":22.74205667,"longitude":75.89784333,"amenity":"atm","name":"ICICI Bank","name_hindi":"आई सी आई सी आई बैंक","address":"MR 9 Road, Anil Nagar, Near Prithviraj Hotel","opening_hours":"24/7","number_of_machines":1,"atm_guard":"no","cash_in_support":"no","withdrawal_limit":50000,"ward_no":"030","ward_name":"SANT RAVIDAS"},{"latitude":22.71908333,"longitude":75.89620333,"amenity":"atm","name":"ICICI Bank","name_hindi":"आई सी आई सी आई बैंक","address":"5, Tilak Nagar Main Road, Savindnagar","opening_hours":"24/7","number_of_machines":1,"atm_guard":"no","cash_in_support":"no","withdrawal_limit":50000,"ward_no":"049","ward_name":"TILAKNAGAR"},{"latitude":22.72524617,"longitude":75.8949144,"amenity":"atm","name":"ICICI Bank","name_hindi":"आई सी आई सी आई बैंक","address":"Saket Nagar Branch, Saket Nagar Square","opening_hours":"24/7","number_of_machines":1,"atm_guard":"yes","cash_in_support":"no","withdrawal_limit":20000,"ward_no":"042","ward_name":"SWAMI VIVEKANAND"},{"latitude":22.72676067,"longitude":75.88249387,"amenity":"atm","name":"ICICI Bank","name_hindi":"आई सी आई सी आई बैंक","address":"19/1, Near Cure Well Hospital, New Pakada , Indore","opening_hours":"24/7","number_of_machines":2,"atm_guard":"yes","cash_in_support":"yes","withdrawal_limit":50000,"ward_no":"047","ward_name":"SARDAR VALLABHBHAI"},{"latitude":22.72319598,"longitude":75.89483316,"amenity":"atm","name":"ICICI bank","name_hindi":"आई सी आई सी आई बैंक","address":"24, Patrakar Saket Nagar, Indore","opening_hours":"24/7","number_of_machines":2,"atm_guard":"no","cash_in_support":"no","withdrawal_limit":20000,"ward_no":"042","ward_name":"SWAMI VIVEKANAND"},{"latitude":22.71109833,"longitude":75.88030333,"amenity":"atm","name":"ICICI Bank","name_hindi":"आई सी आई सी आई बैंक","address":"1st Floor Urvashi Complex, 3 Jaora Compound, Indore","opening_hours":"24/7","number_of_machines":2,"atm_guard":"yes","cash_in_support":"no","withdrawal_limit":50000,"ward_no":"055","ward_name":"SAUTH TUKOGANJ"},{"latitude":22.71127,"longitude":75.87799167,"amenity":"atm","name":"ICICI Bank","name_hindi":"आई सी आई सी आई बैंक","address":"194, Nakoda Apartment, Jaora Compound, Indore","opening_hours":"24/7","number_of_machines":1,"atm_guard":"no","cash_in_support":"no","withdrawal_limit":20000,"ward_no":"055","ward_name":"SAUTH TUKOGANJ"},{"latitude":22.701085,"longitude":75.86951667,"amenity":"atm","name":"ICICI Bank","name_hindi":"आई सी आई सी आई बैंक","address":"64 A, Patel Nagar, Sapna Sangeeta Road, Opposite Vikram Tower, Snehnagar","opening_hours":"24/7","number_of_machines":2,"atm_guard":"no","cash_in_support":"no","withdrawal_limit":50000,"ward_no":"063","ward_name":"NAVLAKHA"},{"latitude":22.69653333,"longitude":75.86548833,"amenity":"atm","name":"ICICI Bank","name_hindi":"आई सी आई सी आई बैंक","address":"2 Sapna Sangeeta Road, Transport Nagar, Near Bank of Baroda, Ashok Nagar,","opening_hours":"24/7","number_of_machines":1,"atm_guard":"yes","cash_in_support":"no","withdrawal_limit":50000,"ward_no":"065","ward_name":"SANT KANWARRAM"},{"latitude":22.69151167,"longitude":75.86672833,"amenity":"atm","name":"ICICI Bank","name_hindi":"आई सी आई सी आई बैंक","address":"Agra Bombay Road, Near Police Station, Indrapuri Colony","opening_hours":"24/7","number_of_machines":1,"atm_guard":"no","cash_in_support":"no","withdrawal_limit":50000,"ward_no":"074","ward_name":"VISHNAPURI"},{"latitude":22.72357611,"longitude":75.85702659,"amenity":"atm","name":"ICICI Bank","name_hindi":"आई सी आई सी आई बैंक","address":"193, Tilak path, Ram Bagh, Indore","opening_hours":"24/7","number_of_machines":1,"atm_guard":"no","cash_in_support":"no","withdrawal_limit":50000,"ward_no":"057","ward_name":"DEVI AHILYABAI"},{"latitude":22.7192797,"longitude":75.85010678,"amenity":"atm","name":"ICICI Bank","name_hindi":"आई सी आई सी आई बैंक","address":"286, Near Gorakund Chouraha, M G Road, Gorakund, Ahilya Pura, Indore","opening_hours":"24/7","number_of_machines":1,"atm_guard":"no","cash_in_support":"no","withdrawal_limit":50000,"ward_no":"008","ward_name":"JUNA RISALA"},{"latitude":22.7195269,"longitude":75.84850035,"amenity":"atm","name":"ICICI Bank","name_hindi":"आई सी आई सी आई बैंक","address":"375, M. G. Road, Opposite Sitlamata Mandir, Gorakund, Chipa Bakhal, Indore","opening_hours":"24/7","number_of_machines":1,"atm_guard":"no","cash_in_support":"no","withdrawal_limit":50000,"ward_no":"008","ward_name":"JUNA RISALA"},{"latitude":22.71816838,"longitude":75.8555503,"amenity":"atm","name":"ICICI Bank","name_hindi":"आई सी आई सी आई बैंक","address":"17 P Y Road, Rajwada, Indore","opening_hours":"24/7","number_of_machines":4,"atm_guard":"no","cash_in_support":"no","withdrawal_limit":100000,"ward_no":"059","ward_name":"HARSIDDHI"},{"latitude":22.72012958,"longitude":75.8616178,"amenity":"atm","name":"ICICI Bank","name_hindi":"आई सी आई सी आई बैंक","address":"4/1, Mahatma Gandhi Rd, Siyaganj, Indore","opening_hours":"24/7","number_of_machines":1,"atm_guard":"no","cash_in_support":"no","withdrawal_limit":50000,"ward_no":"057","ward_name":"DEVI AHILYABAI"},{"latitude":22.69815333,"longitude":75.83390833,"amenity":"atm","name":"ICICI Bank","name_hindi":"आई सी आई सी आई बैंक","address":"311, Usha Nagar Extension, Ranjeet Hanuman Road, Indore","opening_hours":"24/7","number_of_machines":1,"atm_guard":"yes","cash_in_support":"no","withdrawal_limit":50000,"ward_no":"071","ward_name":"DRAVID NAGAR"},{"latitude":22.703365,"longitude":75.84242833,"amenity":"atm","name":"ICICI Bank","name_hindi":"आई सी आई सी आई बैंक","address":"Vaishnavi Apartment,Usha Nagar, Annapurna Road, Indore","opening_hours":"24/7","number_of_machines":1,"atm_guard":"yes","cash_in_support":"no","withdrawal_limit":50000,"ward_no":"071","ward_name":"DRAVID NAGAR"},{"latitude":22.72354844,"longitude":75.8280809,"amenity":"atm","name":"ICICI Bank","name_hindi":"आई सी आई सी आई बैंक","address":"6/A, Sitashree Apt, Mohta Bagh, Airport Road, Indore","opening_hours":"24/7","number_of_machines":1,"atm_guard":"no","cash_in_support":"no","withdrawal_limit":20000,"ward_no":"004","ward_name":"SUKHDEV NAGAR"},{"latitude":22.75594422,"longitude":75.86318418,"amenity":"atm","name":"ICICI Bank","name_hindi":"आई सी आई सी आई बैंक","address":"Infront of Patel Market, Khatipura Main Road, Gouri Nagar, Indore","opening_hours":"24/7","number_of_machines":1,"atm_guard":"no","cash_in_support":"no","withdrawal_limit":50000,"ward_no":"023","ward_name":"SWARGIYA RAJESH JOSHI"},{"latitude":22.74009492,"longitude":75.84787231,"amenity":"atm","name":"ICICI Bank","name_hindi":"आई सी आई सी आई बैंक","address":"Vrindavan Colony Square, Kila Maidan Road, Kamla Nehru Nagar","opening_hours":"24/7","number_of_machines":1,"atm_guard":"no","cash_in_support":"no","withdrawal_limit":20000,"ward_no":"009","ward_name":"VRINDAVAN"},{"latitude":22.73987092,"longitude":75.84979554,"amenity":"atm","name":"ICICI Bank","name_hindi":"आई सी आई सी आई बैंक","address":"Near 53,Vrindavan Colony ,Banganga Main Road,","opening_hours":"24/7","number_of_machines":1,"atm_guard":"no","cash_in_support":"no","withdrawal_limit":40000,"ward_no":"009","ward_name":"VRINDAVAN"},{"latitude":22.7331296,"longitude":75.84814011,"amenity":"atm","name":"ICICI bank","name_hindi":"आई सी आई सी आई बैंक","address":"12, Brahmbag Colony, VIP Road, Indore.","opening_hours":"24/7","number_of_machines":1,"atm_guard":"no","cash_in_support":"no","withdrawal_limit":20000,"ward_no":"009","ward_name":"VRINDAVAN"},{"latitude":22.76249518,"longitude":75.92196137,"amenity":"atm","name":"ICICI Bank","name_hindi":"आई सी आई सी आई बैंक","address":"Plot Number 8-9, Samarth Park Colony, Niapnia, Indore","opening_hours":"24/7","number_of_machines":1,"atm_guard":"no","cash_in_support":"no","withdrawal_limit":50000,"ward_no":"036","ward_name":"NIPANIYA"},{"latitude":22.68860833,"longitude":75.86276,"amenity":"atm","name":"ICICI Bank","name_hindi":"आई सी आई सी आई बैंक","address":"124, Saraswati Complex, Near Water Tank, Vishnu puri, Indore","opening_hours":"24/7","number_of_machines":1,"atm_guard":"no","cash_in_support":"no","withdrawal_limit":40000,"ward_no":"074","ward_name":"VISHNAPURI"},{"latitude":22.672495,"longitude":75.880395,"amenity":"atm","name":"ICICI Bank","name_hindi":"आई सी आई सी आई बैंक","address":"Rani Bagh Main, Khandwa Road","opening_hours":"24/7","number_of_machines":1,"atm_guard":"no","cash_in_support":"no","withdrawal_limit":100000,"ward_no":"077","ward_name":"BILAWALI"},{"latitude":22.80309333,"longitude":75.90726,"amenity":"atm","name":"ICICI Bank","name_hindi":"आई सी आई सी आई बैंक","address":"270A Singapore Township Indore","opening_hours":"24/7","number_of_machines":1,"atm_guard":"no","cash_in_support":"no","withdrawal_limit":50000,"ward_no":"035","ward_name":"LASUDIYA MORI"},{"latitude":22.70605,"longitude":75.819635,"amenity":"atm","name":"ICICI Bank","name_hindi":"आई सी आई सी आई बैंक","address":"118, Sirpur, Dhar Road, Indore","opening_hours":"24/7","number_of_machines":1,"atm_guard":"no","cash_in_support":"no","withdrawal_limit":40000,"ward_no":"001","ward_name":"SIRPUR"},{"latitude":22.7536,"longitude":75.88522,"amenity":"atm","name":"ICICI Bank ATM","name_hindi":"आई सी आई सी आई बैंक एटीएम","address":"FF-22,Regency place,\n Scheme 54,Vijay Nagar,Indore","opening_hours":"24/7","number_of_machines":1,"atm_guard":"no","cash_in_support":"no","withdrawal_limit":50000,"ward_no":"029","ward_name":"DR. SHYAM PRASAD MUKHARJI"},{"latitude":22.75514,"longitude":75.87703833,"amenity":"atm","name":"ICICI Bank ATM","name_hindi":"आई सी आई सी आई बैंक एटीएम","address":"A-13,Sukhlia Main Road,Indore","opening_hours":"24/7","number_of_machines":1,"atm_guard":"no","cash_in_support":"no","withdrawal_limit":50000,"ward_no":"022","ward_name":"PANDIT DINDAYAL UPADHYAY"},{"latitude":22.74474833,"longitude":75.871435,"amenity":"atm","name":"ICICI Bank ATM","name_hindi":"आई सी आई सी आई बैंक एटीएम","address":"Pardeshipura Square, Pardesipura, Indore","opening_hours":"24/7","number_of_machines":2,"atm_guard":"no","cash_in_support":"no","withdrawal_limit":50000,"ward_no":"023","ward_name":"SWARGIYA RAJESH JOSHI"},{"latitude":22.73389047,"longitude":75.88955761,"amenity":"atm","name":"ICICI Bank ATM","name_hindi":"आई सी आई सी आई बैंक एटीएम","address":"Opposite Life Line Hospital, LIG Square","opening_hours":"24/7","number_of_machines":1,"atm_guard":"no","cash_in_support":"no","withdrawal_limit":50000,"ward_no":"045","ward_name":"DR. BHIMRAO AMBEDAR"},{"latitude":22.72887021,"longitude":75.8883253,"amenity":"atm","name":"ICICI Bank ATM","name_hindi":"आई सी आई सी आई बैंक एटीएम","address":"Onam Plaza, Near Industry house, Palasiya Indore","opening_hours":"24/7","number_of_machines":1,"atm_guard":"yes","cash_in_support":"no","withdrawal_limit":50000,"ward_no":"045","ward_name":"DR. BHIMRAO AMBEDAR"},{"latitude":22.707725,"longitude":75.85849,"amenity":"atm","name":"ICICI BANK ATM","name_hindi":"आई सी आई सी आई बैंक एटीएम","address":"Palsikar Main Road, Palsikar Colony, Indore","opening_hours":"24/7","number_of_machines":1,"atm_guard":"no","cash_in_support":"no","withdrawal_limit":40000,"ward_no":"066","ward_name":"SHAHID HEMU COLONY"},{"latitude":22.773185,"longitude":75.84793667,"amenity":"atm","name":"ICICI Bank ATM","name_hindi":"आई सी आई सी आई बैंक एटीएम","address":"Ujjain-Indore Road, Sector F, Sanwer Road, Indore","opening_hours":"Mo-Sa 10:30-16:30","number_of_machines":1,"atm_guard":"yes","cash_in_support":"no","withdrawal_limit":30000,"ward_no":"019","ward_name":"VISHVAKARMA"},{"latitude":22.72155737,"longitude":75.87379299,"amenity":"atm","name":"ICICI Direct","name_hindi":"आई सी आई सी आई डायरेक्ट","address":"Mahatma Gandhi Rd, South Tukoganj, Indore","opening_hours":"24/7","number_of_machines":1,"atm_guard":"yes","cash_in_support":"no","withdrawal_limit":10000,"ward_no":"047","ward_name":"SARDAR VALLABHBHAI"},{"latitude":22.75602836,"longitude":75.89668813,"amenity":"atm","name":"IDBI","name_hindi":"आई डि बि आई","address":"204,Scheme no. 54, Vijay Nagar, AB Road, Near Hotel Kumar's, Indore","opening_hours":"24/7","number_of_machines":2,"atm_guard":"yes","cash_in_support":"yes","withdrawal_limit":20000,"ward_no":"029","ward_name":"DR. SHYAM PRASAD MUKHARJI"},{"latitude":22.71791398,"longitude":75.88196193,"amenity":"atm","name":"IDBI","name_hindi":"आई डि बि आई","address":"16-C, Ratlam Kothi, Kanchan Bagh","opening_hours":"24/7","number_of_machines":2,"atm_guard":"yes","cash_in_support":"yes","withdrawal_limit":20000,"ward_no":"055","ward_name":"SAUTH TUKOGANJ"},{"latitude":22.69305667,"longitude":75.86759667,"amenity":"atm","name":"IDBI Bank","name_hindi":"आई डी बी आई बैंक","address":"Scheme No.44, Bhawarkua Main Road, Bhavarkuan Square, Aditya Nagar, Vishnu Puri Colony","opening_hours":"24/7","number_of_machines":1,"atm_guard":"no","cash_in_support":"no","withdrawal_limit":25000,"ward_no":"074","ward_name":"VISHNAPURI"},{"latitude":22.695225,"longitude":75.853475,"amenity":"atm","name":"IDBI Bank","name_hindi":"आई डी बी आई बैंक","address":"Shyam Nagar, Manik Bagh Road","opening_hours":"24/7","number_of_machines":1,"atm_guard":"no","cash_in_support":"no","withdrawal_limit":25000,"ward_no":"073","ward_name":"LAXMANSINGH CHAUHAN"},{"latitude":22.69656,"longitude":75.83166,"amenity":"atm","name":"IDBI Bank","name_hindi":"आई डी बी आई बैंक","address":"475, Sukhnivas Road, Near Sethi Gate, Sector D, Sudama Nagar, Indore","opening_hours":"24/7","number_of_machines":1,"atm_guard":"no","cash_in_support":"yes","withdrawal_limit":25000,"ward_no":"083","ward_name":"GUSHMATA NAGAR"},{"latitude":22.69474,"longitude":75.83862333,"amenity":"atm","name":"IDBI Bank","name_hindi":"आई डी बी आई बैंक","address":"Roop Tower, Annapurna Road, Opposite Dusshera Maidan, Indore","opening_hours":"24/7","number_of_machines":1,"atm_guard":"no","cash_in_support":"no","withdrawal_limit":25000,"ward_no":"071","ward_name":"DRAVID NAGAR"},{"latitude":22.72549331,"longitude":75.82200668,"amenity":"atm","name":"IDBI Bank","name_hindi":"आई डी बी आई बैंक","address":"11, Aerodrome Road, Kalani Nagar","opening_hours":"24/7","number_of_machines":1,"atm_guard":"no","cash_in_support":"no","withdrawal_limit":20000,"ward_no":"004","ward_name":"SUKHDEV NAGAR"},{"latitude":22.73408711,"longitude":75.85125759,"amenity":"atm","name":"IDBI Bank","name_hindi":"आई डी बी आई बैंक","address":"23, Dilip Singh Colony , Mari mata Square","opening_hours":"24/7","number_of_machines":1,"atm_guard":"no","cash_in_support":"no","withdrawal_limit":20000,"ward_no":"058","ward_name":"IMLI BAZAR"},{"latitude":22.69136833,"longitude":75.88219667,"amenity":"atm","name":"IDBI Bank ATM","name_hindi":"आईडीबीआई बैंक एटीएम","address":"Dada Swami Road, Near Chitwada Pass, Navlakha, Indore","opening_hours":"24/7","number_of_machines":2,"atm_guard":"no","cash_in_support":"no","withdrawal_limit":30000,"ward_no":"064","ward_name":"CHITAVAD"},{"latitude":22.69728167,"longitude":75.86481833,"amenity":"atm","name":"IDBIBank","name_hindi":"#N/A","address":"State Highway 27, Tower Square, Transport Nagar","opening_hours":"24/7","number_of_machines":2,"atm_guard":"no","cash_in_support":"yes","withdrawal_limit":25000,"ward_no":"065","ward_name":"SANT KANWARRAM"},{"latitude":22.7253469,"longitude":75.88298557,"amenity":"atm","name":"IDFC Bank","name_hindi":"आई डी एफ सी बैंक","address":"7, Commerce House, Race Course Road, 11 Bungalow Colony, New Palasia, Indore","opening_hours":"24/7","number_of_machines":1,"atm_guard":"yes","cash_in_support":"no","withdrawal_limit":50000,"ward_no":"047","ward_name":"SARDAR VALLABHBHAI"},{"latitude":22.73506494,"longitude":75.8875804,"amenity":"atm","name":"Indian Bank","name_hindi":"इंडियन बैंक","address":"C1, Aditya Enclave, HIG Colony, Indore","opening_hours":"24/7","number_of_machines":1,"atm_guard":"yes","cash_in_support":"no","withdrawal_limit":25000,"ward_no":"045","ward_name":"DR. BHIMRAO AMBEDAR"},{"latitude":22.71758333,"longitude":75.87269667,"amenity":"atm","name":"Indian Bank","name_hindi":"इंडियन बैंक","address":"Shiv Vardhan Complex, RNT Marg, Indore","opening_hours":"24/7","number_of_machines":2,"atm_guard":"no","cash_in_support":"yes","withdrawal_limit":25000,"ward_no":"055","ward_name":"SAUTH TUKOGANJ"},{"latitude":22.72364422,"longitude":75.82782414,"amenity":"atm","name":"Indian Bank","name_hindi":"इंडियन बैंक","address":"Below Sita Shree Residency, Ganga Colony, Airport Road","opening_hours":"24/7","number_of_machines":1,"atm_guard":"no","cash_in_support":"no","withdrawal_limit":20000,"ward_no":"004","ward_name":"SUKHDEV NAGAR"},{"latitude":22.75395,"longitude":75.90055167,"amenity":"atm","name":"Indian Overseas Bank","name_hindi":"इंडियन ओवरसीज बैंक","address":"BCM Heights, Near Reliance Fresh Vijay Nagar, Indore","opening_hours":"24/7","number_of_machines":1,"atm_guard":"no","cash_in_support":"no","withdrawal_limit":20000,"ward_no":"031","ward_name":"MAHARAJA CHATRASAL"},{"latitude":22.72295234,"longitude":75.88216404,"amenity":"atm","name":"Indian Overseas Bank","name_hindi":"इंडियन ओवरसीज बैंक","address":"581, Mahatma Gandhi Road, South Tukoganj,Indore","opening_hours":"24/7","number_of_machines":1,"atm_guard":"no","cash_in_support":"no","withdrawal_limit":20000,"ward_no":"047","ward_name":"SARDAR VALLABHBHAI"},{"latitude":22.7176,"longitude":75.871715,"amenity":"atm","name":"Indian Overseas Bank","name_hindi":"इंडियन ओवरसीज बैंक","address":"Corporate House, RNT Marg,Indore","opening_hours":"Mo-Sa 10:30-17:30","number_of_machines":1,"atm_guard":"no","cash_in_support":"no","withdrawal_limit":50000,"ward_no":"055","ward_name":"SAUTH TUKOGANJ"},{"latitude":22.69195667,"longitude":75.86633333,"amenity":"atm","name":"Indian Overseas Bank","name_hindi":"इंडियन ओवरसीज बैंक","address":"Harshdeep Arcade, Near Universal Girls Hostel, Bhawarkua, Indore","opening_hours":"24/7","number_of_machines":1,"atm_guard":"no","cash_in_support":"no","withdrawal_limit":20000,"ward_no":"074","ward_name":"VISHNAPURI"},{"latitude":22.73727201,"longitude":75.79315991,"amenity":"atm","name":"Indian Overseas Bank","name_hindi":"इंडियन ओवरसीज बैंक","address":"Major District Marg, Gandhi Nagar, Indore","opening_hours":"24/7","number_of_machines":1,"atm_guard":"no","cash_in_support":"no","withdrawal_limit":20000},{"latitude":22.74817667,"longitude":75.836235,"amenity":"atm","name":"Indicash","name_hindi":"इंडिकेश","address":"Dashrath Bagh Colony Main Road","opening_hours":"24/7","number_of_machines":1,"atm_guard":"no","cash_in_support":"no","withdrawal_limit":2000,"ward_no":"016","ward_name":"NANDBAG"},{"latitude":22.74971,"longitude":75.84038,"amenity":"atm","name":"Indicash ATM","name_hindi":"इंडिकैश ATM","address":"Rishi Nagar Main Road, Kushwah Nagar, Banganga","opening_hours":"24/7","number_of_machines":1,"atm_guard":"no","cash_in_support":"no","withdrawal_limit":2000,"ward_no":"017","ward_name":"KUSHVAH NAGAR"},{"latitude":22.75305473,"longitude":75.88751955,"amenity":"atm","name":"Indusind Bank","name_hindi":"इंडसइंड बैंक","address":"1st Floor Shekhar Tower, Scheme no.54, Vijyanagar, Indore","opening_hours":"24/7","number_of_machines":1,"atm_guard":"yes","cash_in_support":"yes","withdrawal_limit":15000,"ward_no":"029","ward_name":"DR. SHYAM PRASAD MUKHARJI"},{"latitude":22.71633833,"longitude":75.847615,"amenity":"atm","name":"Indusind Bank","name_hindi":"इंडसइंड बैंक","address":"Hukumchand Marg, Indore","opening_hours":"24/7","number_of_machines":1,"atm_guard":"yes","cash_in_support":"no","withdrawal_limit":200000,"ward_no":"069","ward_name":"JAWAHAR MARG"},{"latitude":22.69957,"longitude":75.86756667,"amenity":"atm","name":"IndusInd Bank","name_hindi":"इंडसइंड बैंक","address":"27, Shubham Corporate, Sapna Sangeeta Road","opening_hours":"24/7","number_of_machines":1,"atm_guard":"yes","cash_in_support":"no","withdrawal_limit":25000,"ward_no":"063","ward_name":"NAVLAKHA"},{"latitude":22.71958901,"longitude":75.86272717,"amenity":"atm","name":"IndusInd Bank","name_hindi":"इंडसइंड बैंक","address":"8, Shree Rampiyaoo Road, Kothari Market, Indore.","opening_hours":"24/7","number_of_machines":1,"atm_guard":"no","cash_in_support":"no","withdrawal_limit":20000,"ward_no":"060","ward_name":"RANIPURA"},{"latitude":22.7280562,"longitude":75.88791627,"amenity":"atm","name":"IndusInd Bank ATM","name_hindi":"इंडसइंड बैंक ए टी एम","address":"Industry House, Palasiya, Indore","opening_hours":"24/7","number_of_machines":1,"atm_guard":"no","cash_in_support":"no","withdrawal_limit":20000,"ward_no":"045","ward_name":"DR. BHIMRAO AMBEDAR"},{"latitude":22.73773529,"longitude":75.88391684,"amenity":"atm","name":"Induslank Bank","name_hindi":"इन्डसलैंड बैंक","address":"516/7, M.I.G. Road, Patnipura, Indore","opening_hours":"24/7","number_of_machines":1,"atm_guard":"no","cash_in_support":"no","withdrawal_limit":200000,"ward_no":"026","ward_name":"JEEN MATA"},{"latitude":22.71905,"longitude":75.89694833,"amenity":"atm","name":"Induslnd Bank","name_hindi":"इंदसलैंड बैंक","address":"Tilak Nagar Main Road, Near community Hall","opening_hours":"24/7","number_of_machines":1,"atm_guard":"no","cash_in_support":"no","ward_no":"049","ward_name":"TILAKNAGAR"},{"latitude":22.69319167,"longitude":75.86776,"amenity":"atm","name":"Induslnd Bank","name_hindi":"इंदसलैंड बैंक","address":"Scheme No. 44, Bhawarkua Main Road, Bhavarkuan Square, Aditya Nagar, Vishnu Puri Colony","opening_hours":"24/7","number_of_machines":1,"atm_guard":"no","cash_in_support":"no","withdrawal_limit":25000,"ward_no":"074","ward_name":"VISHNAPURI"},{"latitude":22.724352,"longitude":75.88207033,"amenity":"atm","name":"Jammu and Kashmir Bank","name_hindi":"जम्मू एंड कश्मीर बैंक","address":"UG-3-4, Mahatma Gandhi Road, Diamond Trade Centre, Diamond Colony, New Parasia, Indore","opening_hours":"24/7","number_of_machines":1,"atm_guard":"no","cash_in_support":"no","withdrawal_limit":100000,"ward_no":"047","ward_name":"SARDAR VALLABHBHAI"},{"latitude":22.69337333,"longitude":75.867215,"amenity":"atm","name":"Jana Small Finance Bank","name_hindi":"#N/A","address":"5-6 Veda Buisness park, Bhanwar Kuwa","opening_hours":"Mo-Sa 09:00-16:00","number_of_machines":1,"atm_guard":"yes","cash_in_support":"no","withdrawal_limit":25000,"ward_no":"074","ward_name":"VISHNAPURI"},{"latitude":22.72535838,"longitude":75.89042358,"amenity":"atm","name":"Karnataka Bank","name_hindi":"कर्णाटका बैंक","address":"UG-1,2 and 9, Captain C S Naidu Arcade, Greater Kailash Road, New Palasia, Indore","opening_hours":"24/7","number_of_machines":1,"atm_guard":"no","cash_in_support":"no","withdrawal_limit":40000,"ward_no":"043","ward_name":"SHRINAGAR"},{"latitude":22.76225117,"longitude":75.88091313,"amenity":"atm","name":"Karnataka Bank limited","name_hindi":"कर्नाटका बैंक लिमिटेड","address":"Sanatan House, In front Of Brilliant Convection Centre, Scheme Number 74, Vijay Nagar,Indore","opening_hours":"24/7","number_of_machines":1,"atm_guard":"yes","cash_in_support":"no","withdrawal_limit":40000,"ward_no":"032","ward_name":"ATAL BIHARI VAJPEYI"},{"latitude":22.72559144,"longitude":75.89339091,"amenity":"atm","name":"Kotak Mahindra","name_hindi":"कोटक महिंद्रा","address":"Shop no. 1/3 Plot no 5/2, Classic Moon, Old Palasia, Greater Kailash Hospital Road, Indore","opening_hours":"Mo-Sa 10:00-17:00","number_of_machines":1,"atm_guard":"yes","cash_in_support":"no","withdrawal_limit":20000,"ward_no":"043","ward_name":"SHRINAGAR"},{"latitude":22.75359,"longitude":75.89658833,"amenity":"atm","name":"Kotak Mahindra Bank","name_hindi":"कोटक महिंद्रा बैंक","address":"Metro Tower, Scheme 54 PU4 Near Vijay Nagar Square, Agra Bombay Rd, Indore","opening_hours":"24/7","number_of_machines":1,"atm_guard":"yes","cash_in_support":"no","withdrawal_limit":15000,"ward_no":"031","ward_name":"MAHARAJA CHATRASAL"},{"latitude":22.7271378,"longitude":75.89440771,"amenity":"atm","name":"Kotak Mahindra Bank","name_hindi":"कोटक महिंद्रा बैंक","address":"17, Anand Bazar","opening_hours":"24/7","number_of_machines":1,"atm_guard":"no","cash_in_support":"no","withdrawal_limit":20000,"ward_no":"043","ward_name":"SHRINAGAR"},{"latitude":22.72592203,"longitude":75.88133407,"amenity":"atm","name":"Kotak Mahindra Bank","name_hindi":"कोटक महिंद्रा बैंक","address":"201,K K Bapna Arcade,Dr. Roshan Bhandari Marg,Janjeerwala Square,Indore","opening_hours":"24/7","number_of_machines":1,"atm_guard":"no","cash_in_support":"no","withdrawal_limit":40000,"ward_no":"047","ward_name":"SARDAR VALLABHBHAI"},{"latitude":22.72281588,"longitude":75.88134086,"amenity":"atm","name":"Kotak Mahindra Bank","name_hindi":"कोटक महिंद्रा बैंक","address":"Indraprastha Tower, 580, Mahatma Gandhi Road, Indore","opening_hours":"24/7","number_of_machines":3,"atm_guard":"yes","cash_in_support":"yes","withdrawal_limit":40000,"ward_no":"047","ward_name":"SARDAR VALLABHBHAI"},{"latitude":22.69817167,"longitude":75.86460333,"amenity":"atm","name":"Kotak Mahindra Bank","name_hindi":"कोटक महिंद्रा बैंक","address":"Sapna Sangeeta Road, Tower Square, Navlakha","opening_hours":"24/7","number_of_machines":1,"atm_guard":"yes","cash_in_support":"no","withdrawal_limit":40000,"ward_no":"065","ward_name":"SANT KANWARRAM"},{"latitude":22.71630833,"longitude":75.84851333,"amenity":"atm","name":"Kotak Mahindra Bank ATM","name_hindi":"कोटक महिंद्रा बैंक एटीएम ","address":"111, Hukumchand Marg, Itwari Bazar, Indore","opening_hours":"24/7","number_of_machines":2,"atm_guard":"no","cash_in_support":"no","withdrawal_limit":25000,"ward_no":"068","ward_name":"BAMBAI BAZAR"},{"latitude":22.71665667,"longitude":75.85577167,"amenity":"atm","name":"Kotak Mahindra Bank ATM","name_hindi":"कोटक महिंद्रा बैंक एटीएम ","address":"Jawahar Marg Main Road, Indore","opening_hours":"24/7","number_of_machines":1,"atm_guard":"yes","cash_in_support":"no","withdrawal_limit":20000,"ward_no":"059","ward_name":"HARSIDDHI"},{"latitude":22.71724493,"longitude":75.87349772,"amenity":"atm","name":"Lakshmi Vilas Bank","name_hindi":"लक्ष्मी विलास बैंक","address":"101, RNT Marg","opening_hours":"24/7","number_of_machines":1,"atm_guard":"no","cash_in_support":"no","withdrawal_limit":100000,"ward_no":"055","ward_name":"SAUTH TUKOGANJ"},{"latitude":22.68741248,"longitude":75.89879774,"amenity":"atm","name":"Laxmi Vilas Bank","name_hindi":"लष्मी विलाज बैंक","address":"Near Indian Oil Fuel Pump, Nemawar Road, Palda","opening_hours":"24/7","number_of_machines":1,"atm_guard":"no","cash_in_support":"no","withdrawal_limit":20000,"ward_no":"075","ward_name":"PALDA"},{"latitude":22.69678333,"longitude":75.865245,"amenity":"atm","name":"NKGSB Bank","name_hindi":"इन के जी एस बी बैंक","address":"Bhawarkua Main Road, Transport Nagar","opening_hours":"24/7","number_of_machines":1,"atm_guard":"yes","cash_in_support":"no","withdrawal_limit":15000,"ward_no":"065","ward_name":"SANT KANWARRAM"},{"latitude":22.73038667,"longitude":75.888845,"amenity":"atm","name":"Oriental Bank of Commerce","name_hindi":"ओरिएण्टल बैंक ऑफ कॉमर्स","address":"1st Floor Oriental Bank Nikita Apartment, Near Amaltas Hotel, AB Road, Indore","opening_hours":"24/7","number_of_machines":1,"atm_guard":"no","cash_in_support":"no","withdrawal_limit":20000,"ward_no":"045","ward_name":"DR. BHIMRAO AMBEDAR"},{"latitude":22.71952833,"longitude":75.89998,"amenity":"atm","name":"Oriental Bank of Commerce","name_hindi":"ओरिएण्टल बैंक ऑफ कॉमर्स","address":"458, Sector A, Tilak Nagar Main Road, Mahavir Nagar","opening_hours":"24/7","number_of_machines":1,"atm_guard":"no","cash_in_support":"no","withdrawal_limit":15000,"ward_no":"049","ward_name":"TILAKNAGAR"},{"latitude":22.72560762,"longitude":75.87415428,"amenity":"atm","name":"Oriental Bank Of Commerce","name_hindi":"ओरिएण्टल बैंक ऑफ कॉमर्स","address":"SGSITS Branch, Yeshwant Niwas Road, Builders Colony, Indore","opening_hours":"Mo-Fr 10:00-16:30","number_of_machines":2,"atm_guard":"no","cash_in_support":"no","withdrawal_limit":15000,"ward_no":"047","ward_name":"SARDAR VALLABHBHAI"},{"latitude":22.69995167,"longitude":75.86129333,"amenity":"atm","name":"Oriental Bank of Commerce","name_hindi":"ओरिएण्टल बैंक ऑफ कॉमर्स","address":"201, Door Sanchar Colony, Veer Savarkar Market","opening_hours":"24/7","number_of_machines":1,"atm_guard":"yes","cash_in_support":"no","withdrawal_limit":15000,"ward_no":"065","ward_name":"SANT KANWARRAM"},{"latitude":22.697285,"longitude":75.833935,"amenity":"atm","name":"Oriental Bank of Commerce","name_hindi":"ओरिएण्टल बैंक ऑफ कॉमर्स","address":"83-A, Sudama Nagar, Narendra Tiwari Road, Indore","opening_hours":"24/7","number_of_machines":1,"atm_guard":"yes","cash_in_support":"yes","withdrawal_limit":15000,"ward_no":"071","ward_name":"DRAVID NAGAR"},{"latitude":22.74896167,"longitude":75.92377167,"amenity":"atm","name":"Oriental Bank of Commerce","name_hindi":"ओरिएण्टल बैंक ऑफ कॉमर्स","address":"Scheme No.134, Nipania","opening_hours":"24/7","number_of_machines":1,"atm_guard":"no","cash_in_support":"no","withdrawal_limit":25000,"ward_no":"039","ward_name":"NAHAR SHAHVALI"},{"latitude":22.81725333,"longitude":75.926075,"amenity":"atm","name":"Oriental Bank of Commerce","name_hindi":"ओरिएण्टल बैंक ऑफ कॉमर्स","address":"Mangliya AB Road","opening_hours":"24/7","number_of_machines":1,"atm_guard":"no","cash_in_support":"no","withdrawal_limit":15000},{"latitude":22.69520667,"longitude":75.88029167,"amenity":"atm","name":"Oriental Bank of Commerce","name_hindi":"ओरिएंटल बैंक ऑफ़ कोम्मेर्स एटीएम","address":"Prakash Nagar, Navlakha Main Road, Indore","opening_hours":"24/7","number_of_machines":1,"atm_guard":"no","cash_in_support":"no","withdrawal_limit":20000,"ward_no":"064","ward_name":"CHITAVAD"},{"latitude":22.75756325,"longitude":75.88415977,"amenity":"atm","name":"PMC Bank","name_hindi":"पीएमसी बैंक","address":"G7 Omguru Complex ,Scheme No. 54,Vijay Nagar,Indore","opening_hours":"24/7","number_of_machines":1,"atm_guard":"no","cash_in_support":"yes","withdrawal_limit":25000,"ward_no":"029","ward_name":"DR. SHYAM PRASAD MUKHARJI"},{"latitude":22.69567667,"longitude":75.86606,"amenity":"atm","name":"PMC Bank","name_hindi":"पीएमसी बैंक","address":"9, Bhawarkua Main Road, Tower Chouraha, Ashok Nagar","opening_hours":"24/7","number_of_machines":2,"atm_guard":"no","cash_in_support":"no","ward_no":"074","ward_name":"VISHNAPURI"},{"latitude":22.71398833,"longitude":75.887355,"amenity":"atm","name":"PNB","name_hindi":"पी एन बी","address":"13, Navratan Bagh, Indore","opening_hours":"24/7","number_of_machines":2,"atm_guard":"no","cash_in_support":"yes","withdrawal_limit":25000,"ward_no":"048","ward_name":"GITA BHAVAN"},{"latitude":22.71531299,"longitude":75.84254636,"amenity":"atm","name":"PNB","name_hindi":"पी एन बी","address":"Jawahar Marg","opening_hours":"24/7","number_of_machines":2,"atm_guard":"yes","cash_in_support":"yes","withdrawal_limit":25000,"ward_no":"069","ward_name":"JAWAHAR MARG"},{"latitude":22.72896166,"longitude":75.87947703,"amenity":"atm","name":"PNB ATM","name_hindi":"पी एन बी ए टी एम","address":"Near Shalby Hospital, Race Course Road,Indore","opening_hours":"24/7","number_of_machines":1,"atm_guard":"no","cash_in_support":"no","withdrawal_limit":20000,"ward_no":"047","ward_name":"SARDAR VALLABHBHAI"},{"latitude":22.73070333,"longitude":75.88885167,"amenity":"atm","name":"PNB Bank","name_hindi":"पी एन बी बैंक","address":"PNB Bank Fadnis Colony, Near Sanjivani Hospital, AB Road, Indore","opening_hours":"24/7","number_of_machines":2,"atm_guard":"yes","cash_in_support":"yes","withdrawal_limit":50000,"ward_no":"045","ward_name":"DR. BHIMRAO AMBEDAR"},{"latitude":22.695065,"longitude":75.83007167,"amenity":"atm","name":"PNB Bank","name_hindi":"पी एन बी बैंक","address":"1st Floor 987-A, Ranjeet Hanuman Road, Near Phooti Kothi Square, Indore","opening_hours":"24/7","number_of_machines":1,"atm_guard":"no","cash_in_support":"no","withdrawal_limit":50000,"ward_no":"083","ward_name":"GUSHMATA NAGAR"},{"latitude":22.76701833,"longitude":75.899415,"amenity":"atm","name":"Punjab And Sindh Bank","name_hindi":"पंजाब एंड सिंध बैंक","address":"Scheme Number 114, Nai Sadak, Opposite Saffron Restaurant, Indore","opening_hours":"24/7","number_of_machines":1,"atm_guard":"no","cash_in_support":"no","withdrawal_limit":25000,"ward_no":"034","ward_name":"SHAHID BHAGATSINGH"},{"latitude":22.76706546,"longitude":75.89938061,"amenity":"atm","name":"Punjab National Bank","name_hindi":"पंजाब नेशनल बैंक","address":"Dewas Naka , Indore","opening_hours":"24/7","number_of_machines":1,"atm_guard":"no","cash_in_support":"no","withdrawal_limit":25000,"ward_no":"034","ward_name":"SHAHID BHAGATSINGH"},{"latitude":22.75378,"longitude":75.90446333,"amenity":"atm","name":"Punjab National Bank","name_hindi":"पंजाब नेशनल बैंक","address":"248, Scheme No.94, Indore","opening_hours":"24/7","number_of_machines":2,"atm_guard":"no","cash_in_support":"no","withdrawal_limit":25000,"ward_no":"037","ward_name":"SAI KRUPA"},{"latitude":22.76338328,"longitude":75.88299268,"amenity":"atm","name":"Punjab National Bank","name_hindi":"पंजाब नेशनल बैंक","address":"Brilliant Titanium,Aranya Nagar,Scheme No 78,Vijay Nagar, Indore","opening_hours":"24/7","number_of_machines":1,"atm_guard":"yes","cash_in_support":"no","withdrawal_limit":25000,"ward_no":"032","ward_name":"ATAL BIHARI VAJPEYI"},{"latitude":22.75383333,"longitude":75.90447333,"amenity":"atm","name":"Punjab National Bank","name_hindi":"पंजाब नेशनल बैंक","address":"EB -248 , Scheme Number 94 , Ring Road ,Indore","number_of_machines":1,"atm_guard":"yes","cash_in_support":"yes","withdrawal_limit":25000,"ward_no":"037","ward_name":"SAI KRUPA"},{"latitude":22.72651987,"longitude":75.8800011,"amenity":"atm","name":"Punjab National Bank","name_hindi":"पंजाब नेशनल बैंक","address":"56/4, R S BHANDARI MARG, NEAR SHALBY HOSPITAL, JANJEERWALA SQUARE, Janjeerwala Square, Opposite B.B.C., Doctor Roshan Singh Bhandari Marg,Westside,HGS","number_of_machines":1,"atm_guard":"no","cash_in_support":"no","withdrawal_limit":10000,"ward_no":"047","ward_name":"SARDAR VALLABHBHAI"},{"latitude":22.72316165,"longitude":75.88665904,"amenity":"atm","name":"Punjab National Bank","name_hindi":"पंजाब नेशनल बैंक","address":"21, Agra Bombay Road, Palasia Square, Manorama Ganj, Indore","opening_hours":"24/7","number_of_machines":1,"atm_guard":"no","cash_in_support":"no","withdrawal_limit":25000,"ward_no":"048","ward_name":"GITA BHAVAN"},{"latitude":22.72724569,"longitude":75.85204753,"amenity":"atm","name":"Punjab National Bank","name_hindi":"पंजाब नेशनल बैंक","address":"61, Sadar Bazar Main Road, Indore","opening_hours":"24/7","number_of_machines":1,"atm_guard":"no","cash_in_support":"no","withdrawal_limit":25000,"ward_no":"058","ward_name":"IMLI BAZAR"},{"latitude":22.69835667,"longitude":75.84424667,"amenity":"atm","name":"Punjab National Bank","name_hindi":"पंजाब नेशनल बैंक","address":"Keshar Bagh Road, Behind PNB Bank, Indore","opening_hours":"24/7","number_of_machines":1,"atm_guard":"no","cash_in_support":"no","withdrawal_limit":25000,"ward_no":"072","ward_name":"LOKMANYA NAGAR"},{"latitude":22.72415497,"longitude":75.82766572,"amenity":"atm","name":"Punjab National Bank","name_hindi":"पंजाब नेशनल बैंक","address":"Airport Road Branch, Shakti Nagar, Airport Road","opening_hours":"24/7","number_of_machines":2,"atm_guard":"no","cash_in_support":"yes","withdrawal_limit":20000,"ward_no":"004","ward_name":"SUKHDEV NAGAR"},{"latitude":22.74002602,"longitude":75.83708279,"amenity":"atm","name":"Punjab National Bank","name_hindi":"पंजाब नेशनल बैंक","address":"294 Avantika Nagar, Scheme No. 51,Sangam Nagar","opening_hours":"24/7","number_of_machines":1,"atm_guard":"no","cash_in_support":"no","withdrawal_limit":25000,"ward_no":"013","ward_name":"SANGAM NAGAR"},{"latitude":22.67605349,"longitude":75.87882747,"amenity":"atm","name":"Punjab National Bank","name_hindi":"पंजाब नेशनल बैंक","address":"Near Radha Swami Satsang Area, Khandwa Road, Rani Bagh Main, Indore","opening_hours":"24/7","number_of_machines":1,"atm_guard":"no","cash_in_support":"no","withdrawal_limit":25000,"ward_no":"075","ward_name":"PALDA"},{"latitude":22.796365,"longitude":75.931995,"amenity":"atm","name":"Punjab National Bank","name_hindi":"पंजाब नेशनल बैंक","address":"Bypass Road, Anindiya Khedi, RKDF College , Manglia","opening_hours":"Mo-Sa 10:30-17:00","number_of_machines":1,"atm_guard":"yes","cash_in_support":"no","withdrawal_limit":25000,"ward_no":"036","ward_name":"NIPANIYA"},{"latitude":22.75316167,"longitude":75.88735333,"amenity":"atm","name":"Punjab National Bank ATM","name_hindi":"पंजाब नेशनल बैंक एटीएम","address":"FF-36 Vijay Nagar,Opposite of Meghdhoot Upwan,Indore","opening_hours":"24/7","number_of_machines":2,"atm_guard":"no","cash_in_support":"yes","withdrawal_limit":25000,"ward_no":"029","ward_name":"DR. SHYAM PRASAD MUKHARJI"},{"latitude":22.76853828,"longitude":75.89219095,"amenity":"atm","name":"Punjab National Bank ATM","name_hindi":"पंजाब नेशनल बैंक एटीएम","address":"58-D.B. ,M-1, Scheme no. 78 ,Indore","opening_hours":"24/7","number_of_machines":1,"atm_guard":"no","cash_in_support":"no","withdrawal_limit":20000,"ward_no":"034","ward_name":"SHAHID BHAGATSINGH"},{"latitude":22.71713,"longitude":75.84958,"amenity":"atm","name":"Punjab National Bank ATM","name_hindi":"पंजाब नेशनल बैंक एटीएम","address":"Sitlamata Bazar Main Road,Indore","opening_hours":"Mo-Sa 09:00-17:00","number_of_machines":1,"atm_guard":"no","cash_in_support":"no","withdrawal_limit":35000,"ward_no":"069","ward_name":"JAWAHAR MARG"},{"latitude":22.71623,"longitude":75.85553,"amenity":"atm","name":"Punjab National Bank ATM","name_hindi":"पंजाब नेशनल बैंक एटीएम","address":"Imli Sahab Gurudwara, Yeshwant Road, Indore","opening_hours":"24/7","number_of_machines":1,"atm_guard":"no","cash_in_support":"no","withdrawal_limit":40000,"ward_no":"059","ward_name":"HARSIDDHI"},{"latitude":22.73325198,"longitude":75.84784817,"amenity":"atm","name":"Punjab_National_Bank","name_hindi":"पंजाब नेशनल बैंक","address":"10, Raghuvanshi Colony , Marimata Square","opening_hours":"24/7","number_of_machines":3,"atm_guard":"no","cash_in_support":"yes","withdrawal_limit":25000,"ward_no":"009","ward_name":"VRINDAVAN"},{"latitude":22.71375898,"longitude":75.87449281,"amenity":"atm","name":"RBL Bank","name_hindi":"आर बी एल बैंक","address":"Madhu Milan Square","opening_hours":"24/7","number_of_machines":1,"atm_guard":"yes","cash_in_support":"no","withdrawal_limit":100000,"ward_no":"055","ward_name":"SAUTH TUKOGANJ"},{"latitude":22.70129667,"longitude":75.84166667,"amenity":"atm","name":"Saraswat Bank","name_hindi":"सारस्वत बैंक","address":"Decent Tower 7, 8 Sachinanad Nagar, Model Town Colony, Annapurna Road, Indore","opening_hours":"24/7","number_of_machines":1,"atm_guard":"yes","cash_in_support":"no","withdrawal_limit":15000,"ward_no":"072","ward_name":"LOKMANYA NAGAR"},{"latitude":22.7614079,"longitude":75.88705601,"amenity":"atm","name":"SBI","name_hindi":"एस बि आई","address":"Scheme no 78,Part 2,Near Durian Furniture, Vijay Nagar, Indore","opening_hours":"24/7","number_of_machines":2,"atm_guard":"no","cash_in_support":"no","withdrawal_limit":20000,"ward_no":"032","ward_name":"ATAL BIHARI VAJPEYI"},{"latitude":22.75998149,"longitude":75.8953606,"amenity":"atm","name":"SBI","name_hindi":"एस बि आई","address":"Scheme no 78, Slice-6, State Bank Of HRD, Vijay Nagar,Indore.","opening_hours":"Mo-Su 6:00-23:00","number_of_machines":1,"atm_guard":"yes","cash_in_support":"no","withdrawal_limit":20000,"ward_no":"032","ward_name":"ATAL BIHARI VAJPEYI"},{"latitude":22.75568903,"longitude":75.89497044,"amenity":"atm","name":"SBI","name_hindi":"एस बि आई","address":"2 Sneha Appartment,Scheme no 54, Vijay Nagar,Indore","opening_hours":"24/7","number_of_machines":1,"atm_guard":"yes","cash_in_support":"no","withdrawal_limit":20000,"ward_no":"029","ward_name":"DR. SHYAM PRASAD MUKHARJI"},{"latitude":22.75753902,"longitude":75.89771008,"amenity":"atm","name":"SBI","name_hindi":"एस बि आई","address":"Vasant Vihar Colony, AB road Branch, Near Satya Sai School, Indore","opening_hours":"24/7","number_of_machines":1,"atm_guard":"no","cash_in_support":"no","withdrawal_limit":20000,"ward_no":"031","ward_name":"MAHARAJA CHATRASAL"},{"latitude":22.7412515,"longitude":75.88206268,"amenity":"atm","name":"SBI","name_hindi":"एस बि आई","address":"165/12, Nanda Nagar, Patnipura,Indore","opening_hours":"24/7","number_of_machines":1,"atm_guard":"yes","cash_in_support":"no","withdrawal_limit":20000,"ward_no":"025","ward_name":"NANDA NAGAR"},{"latitude":22.74159136,"longitude":75.87119901,"amenity":"atm","name":"SBI","name_hindi":"एस बि आई","address":"61, Near Dr SK Sagar Clinic, Subhash Nagar Main Road, Indore","opening_hours":"24/7","number_of_machines":1,"atm_guard":"no","cash_in_support":"no","withdrawal_limit":20000,"ward_no":"024","ward_name":"SANT BALAJI ATH MAHARAJ"},{"latitude":22.74545858,"longitude":75.87171067,"amenity":"atm","name":"SBI","name_hindi":"एस बि आई","address":"Pardeshipura Square Main Branch, Pardeshipura, Indore","opening_hours":"24/7","number_of_machines":1,"atm_guard":"yes","cash_in_support":"yes","withdrawal_limit":20000,"ward_no":"023","ward_name":"SWARGIYA RAJESH JOSHI"},{"latitude":22.74667273,"longitude":75.87221102,"amenity":"atm","name":"SBI","name_hindi":"एस बि आई","address":"44 Tulsi Complex, Pardeshipura, Indore.","opening_hours":"24/7","number_of_machines":1,"atm_guard":"no","cash_in_support":"no","withdrawal_limit":20000,"ward_no":"023","ward_name":"SWARGIYA RAJESH JOSHI"},{"latitude":22.72720578,"longitude":75.89437125,"amenity":"atm","name":"SBI","name_hindi":"एस बि आई","address":"15, Anand Bazar","opening_hours":"24/7","number_of_machines":1,"atm_guard":"no","cash_in_support":"no","withdrawal_limit":20000,"ward_no":"043","ward_name":"SHRINAGAR"},{"latitude":22.72310812,"longitude":75.8965741,"amenity":"atm","name":"SBI","name_hindi":"एस बि आई","address":"380, Saket Nagar","opening_hours":"24/7","number_of_machines":1,"atm_guard":"yes","cash_in_support":"no","withdrawal_limit":20000,"ward_no":"042","ward_name":"SWAMI VIVEKANAND"},{"latitude":22.72189609,"longitude":75.89549283,"amenity":"atm","name":"SBI","name_hindi":"एस बि आई","address":"66, Patrakar Colony, Kanadiya Road","opening_hours":"24/7","number_of_machines":1,"atm_guard":"no","cash_in_support":"no","withdrawal_limit":20000,"ward_no":"042","ward_name":"SWAMI VIVEKANAND"},{"latitude":22.72323791,"longitude":75.8946994,"amenity":"atm","name":"SBI","name_hindi":"एस बि आई","address":"Near Naag Mandir, Patrakar Colony Square","opening_hours":"24/7","number_of_machines":3,"atm_guard":"no","cash_in_support":"yes","withdrawal_limit":20000,"ward_no":"043","ward_name":"SHRINAGAR"},{"latitude":22.71608165,"longitude":75.87336193,"amenity":"atm","name":"SBI","name_hindi":"एस बि आई","address":"Rnt Marg","opening_hours":"24/7","number_of_machines":3,"atm_guard":"yes","cash_in_support":"yes","withdrawal_limit":20000,"ward_no":"055","ward_name":"SAUTH TUKOGANJ"},{"latitude":22.71800182,"longitude":75.88178708,"amenity":"atm","name":"SBI","name_hindi":"एस बि आई","address":"156, Kanchan Bagh","opening_hours":"24/7","number_of_machines":1,"atm_guard":"yes","cash_in_support":"no","withdrawal_limit":20000,"ward_no":"055","ward_name":"SAUTH TUKOGANJ"},{"latitude":22.72013313,"longitude":75.8833322,"amenity":"atm","name":"SBI","name_hindi":"एस बि आई","address":"22/3, Kanchan Bhag","opening_hours":"24/7","number_of_machines":1,"atm_guard":"no","cash_in_support":"no","withdrawal_limit":20000,"ward_no":"055","ward_name":"SAUTH TUKOGANJ"},{"latitude":22.71983333,"longitude":75.87046333,"amenity":"atm","name":"SBI","name_hindi":"एस बि आई","address":"Sp Office, Regal Sq., Indore","opening_hours":"24/7","number_of_machines":2,"atm_guard":"yes","cash_in_support":"no","withdrawal_limit":25000,"ward_no":"055","ward_name":"SAUTH TUKOGANJ"},{"latitude":22.72034833,"longitude":75.87134833,"amenity":"atm","name":"SBI","name_hindi":"एस बि आई","address":"Near HP Fuel Station, Regal Sq., Indore","opening_hours":"24/7","number_of_machines":1,"atm_guard":"no","cash_in_support":"no","withdrawal_limit":25000,"ward_no":"047","ward_name":"SARDAR VALLABHBHAI"},{"latitude":22.71749167,"longitude":75.87273,"amenity":"atm","name":"SBI","name_hindi":"एस बि आई","address":"Shiv Vardhan Complex, RNT Marg Indore","opening_hours":"24/7","number_of_machines":1,"atm_guard":"yes","cash_in_support":"no","withdrawal_limit":25000,"ward_no":"055","ward_name":"SAUTH TUKOGANJ"},{"latitude":22.719075,"longitude":75.87713,"amenity":"atm","name":"SBI","name_hindi":"एस बि आई","address":"South Tikogunj, Indore","opening_hours":"24/7","number_of_machines":1,"atm_guard":"no","cash_in_support":"no","withdrawal_limit":25000,"ward_no":"055","ward_name":"SAUTH TUKOGANJ"},{"latitude":22.71640452,"longitude":75.8479682,"amenity":"atm","name":"SBI","name_hindi":"एस बि आई","address":"Hukun Chand Marg, Malhar Gang","opening_hours":"24/7","number_of_machines":2,"atm_guard":"yes","cash_in_support":"yes","withdrawal_limit":20000,"ward_no":"069","ward_name":"JAWAHAR MARG"},{"latitude":22.7093763,"longitude":75.84628419,"amenity":"atm","name":"SBI","name_hindi":"एस बि आई","address":"Mahu Naka, Infront Of Tilok Chaand School","opening_hours":"24/7","number_of_machines":1,"atm_guard":"no","cash_in_support":"no","withdrawal_limit":20000,"ward_no":"067","ward_name":"MAHARAJA HOLKAR"},{"latitude":22.70779421,"longitude":75.84162134,"amenity":"atm","name":"SBI","name_hindi":"एस बि आई","address":"Laal Bagh Road","opening_hours":"24/7","number_of_machines":2,"atm_guard":"yes","cash_in_support":"no","withdrawal_limit":20000,"ward_no":"071","ward_name":"DRAVID NAGAR"},{"latitude":22.70440893,"longitude":75.84254217,"amenity":"atm","name":"SBI","name_hindi":"एस बि आई","address":"Mahunaka Circle","opening_hours":"24/7","number_of_machines":2,"atm_guard":"no","cash_in_support":"no","withdrawal_limit":20000,"ward_no":"071","ward_name":"DRAVID NAGAR"},{"latitude":22.71535667,"longitude":75.84314167,"amenity":"atm","name":"SBI","name_hindi":"एस बि आई","address":"Jawahar Marg, Indore","opening_hours":"24/7","number_of_machines":2,"atm_guard":"no","cash_in_support":"no","withdrawal_limit":25000,"ward_no":"069","ward_name":"JAWAHAR MARG"},{"latitude":22.71642167,"longitude":75.84791333,"amenity":"atm","name":"SBI","name_hindi":"एस बि आई","address":"Hukumchand Marg, Indore","opening_hours":"24/7","number_of_machines":1,"atm_guard":"no","cash_in_support":"no","withdrawal_limit":25000,"ward_no":"069","ward_name":"JAWAHAR MARG"},{"latitude":22.746145,"longitude":75.861475,"amenity":"atm","name":"SBI","name_hindi":"एस बि आई","address":"Bhagirathpura","opening_hours":"24/7","number_of_machines":1,"atm_guard":"no","cash_in_support":"no","withdrawal_limit":20000,"ward_no":"011","ward_name":"BHAGIRATHPURA"},{"latitude":22.74712818,"longitude":75.86276033,"amenity":"atm","name":"SBI","name_hindi":"एस बि आई","address":"Bhagirathpura","opening_hours":"24/7","number_of_machines":1,"atm_guard":"no","cash_in_support":"no","withdrawal_limit":20000,"ward_no":"011","ward_name":"BHAGIRATHPURA"},{"latitude":22.733565,"longitude":75.91423667,"amenity":"atm","name":"SBI","name_hindi":"एस बि आई","address":"154,Khizrabad Colony, Khajarana","opening_hours":"24/7","number_of_machines":1,"atm_guard":"no","cash_in_support":"no","withdrawal_limit":20000,"ward_no":"039","ward_name":"NAHAR SHAHVALI"},{"latitude":22.73182167,"longitude":75.91388333,"amenity":"atm","name":"SBI","name_hindi":"एस बि आई","address":"Dilip Nagar Main Road Khajrana","opening_hours":"24/7","number_of_machines":1,"atm_guard":"no","cash_in_support":"no","withdrawal_limit":20000,"ward_no":"039","ward_name":"NAHAR SHAHVALI"},{"latitude":22.7985574,"longitude":75.91212513,"amenity":"atm","name":"SBI","name_hindi":"एस बि आई","address":"AB Road, Mangliya","opening_hours":"24/7","number_of_machines":1,"atm_guard":"no","cash_in_support":"no","withdrawal_limit":20000,"ward_no":"035","ward_name":"LASUDIYA MORI"},{"latitude":22.81938366,"longitude":75.9275361,"amenity":"atm","name":"SBI","name_hindi":"एस बि आई","address":"Mangliya","opening_hours":"24/7","number_of_machines":2,"atm_guard":"yes","cash_in_support":"yes","withdrawal_limit":2000},{"latitude":22.7517,"longitude":75.89098167,"amenity":"atm","name":"SBI ATM","name_hindi":"एस बी आई एटीएम","address":"Indian Oil Petrol Pump,Sayaji Square,Indore","opening_hours":"24/7","number_of_machines":1,"atm_guard":"no","cash_in_support":"no","withdrawal_limit":20000,"ward_no":"029","ward_name":"DR. SHYAM PRASAD MUKHARJI"},{"latitude":22.75071833,"longitude":75.89880667,"amenity":"atm","name":"SBI ATM","name_hindi":"एस बी आई एटीएम","address":"I P Fuel Station,Bhagyashree Nagar,Near Vijay Nagar Square,Indore","opening_hours":"24/7","number_of_machines":1,"atm_guard":"no","cash_in_support":"no","withdrawal_limit":20000,"ward_no":"031","ward_name":"MAHARAJA CHATRASAL"},{"latitude":22.76859587,"longitude":75.89277651,"amenity":"atm","name":"SBI ATM","name_hindi":"एस बी आई एटीएम","address":"1140 ,Main Road,Scheme no.114 ,Indore","opening_hours":"24/7","number_of_machines":1,"atm_guard":"yes","cash_in_support":"no","withdrawal_limit":20000,"ward_no":"034","ward_name":"SHAHID BHAGATSINGH"},{"latitude":22.748645,"longitude":75.87616667,"amenity":"atm","name":"SBI ATM","name_hindi":"एस बी आई एटीएम","address":"69/11, MR 9 Rd, Nanda Nagar, Indore","opening_hours":"24/7","number_of_machines":1,"atm_guard":"no","cash_in_support":"no","withdrawal_limit":20000,"ward_no":"025","ward_name":"NANDA NAGAR"},{"latitude":22.74621333,"longitude":75.88065333,"amenity":"atm","name":"SBI ATM","name_hindi":"एस बी आई एटीएम","address":"1242/11, MR 9 Rd, Majdur Chowk, Nanda Nagar, Indore","opening_hours":"24/7","number_of_machines":1,"atm_guard":"no","cash_in_support":"no","withdrawal_limit":20000,"ward_no":"027","ward_name":"PASHUPATI NATH"},{"latitude":22.74173333,"longitude":75.87786167,"amenity":"atm","name":"SBI ATM","name_hindi":"एस बी आई एटीएम","address":"Nanda Nagar Main Rd, Nanda Nagar, Indore","opening_hours":"24/7","number_of_machines":2,"atm_guard":"yes","cash_in_support":"no","withdrawal_limit":20000,"ward_no":"025","ward_name":"NANDA NAGAR"},{"latitude":22.73169823,"longitude":75.87487872,"amenity":"atm","name":"SBI ATM","name_hindi":"एस बी आई एटीएम","address":"UG-25, Silver Estate Y.N. Road","opening_hours":"24/7","number_of_machines":2,"atm_guard":"yes","cash_in_support":"no","withdrawal_limit":20000,"ward_no":"047","ward_name":"SARDAR VALLABHBHAI"},{"latitude":22.72799066,"longitude":75.88507027,"amenity":"atm","name":"SBI ATM","name_hindi":"एस बी आई एटीएम","address":"6/6, New Palasia, Indore","opening_hours":"24/7","number_of_machines":1,"atm_guard":"no","cash_in_support":"no","withdrawal_limit":20000,"ward_no":"043","ward_name":"SHRINAGAR"},{"latitude":22.73378591,"longitude":75.88223836,"amenity":"atm","name":"SBI ATM","name_hindi":"एस बी आई एटीएम","address":"48/9, Nehru Nagar, Atal Dwar Road","opening_hours":"24/7","number_of_machines":1,"atm_guard":"no","cash_in_support":"no","withdrawal_limit":20000,"ward_no":"026","ward_name":"JEEN MATA"},{"latitude":22.70983167,"longitude":75.85893167,"amenity":"atm","name":"SBI ATM","name_hindi":"एस बी आई एटीएम","address":"Pagnis Paga Main Road, Near 3 Number School, Juni Indore, Indore","opening_hours":"24/7","number_of_machines":1,"atm_guard":"no","cash_in_support":"no","withdrawal_limit":20000,"ward_no":"061","ward_name":"TATYA SARVATE"},{"latitude":22.70728333,"longitude":75.85948833,"amenity":"atm","name":"SBI ATM","name_hindi":"एस बी आई एटीएम","address":"Jabraan Colony Square, Palsikar Colony, Indore","opening_hours":"24/7","number_of_machines":3,"atm_guard":"yes","cash_in_support":"no","withdrawal_limit":20000,"ward_no":"061","ward_name":"TATYA SARVATE"},{"latitude":22.70612833,"longitude":75.85607333,"amenity":"atm","name":"SBI ATM","name_hindi":"एस बी आई एटीएम","address":"Manik Bagh Road Branch,Palsikar Colony, Indore","opening_hours":"24/7","number_of_machines":3,"atm_guard":"yes","cash_in_support":"yes","withdrawal_limit":20000,"ward_no":"066","ward_name":"SHAHID HEMU COLONY"},{"latitude":22.71197667,"longitude":75.84949667,"amenity":"atm","name":"SBI ATM","name_hindi":"एस बी आई एटीएम","address":"Chhatribagh Main Road, Indore","opening_hours":"24/7","number_of_machines":1,"atm_guard":"no","cash_in_support":"no","withdrawal_limit":20000,"ward_no":"067","ward_name":"MAHARAJA HOLKAR"},{"latitude":22.71764833,"longitude":75.85564167,"amenity":"atm","name":"SBI ATM","name_hindi":"एस बी आई एटीएम","address":"P.Y Road, Near Rajwada, Indore","opening_hours":"24/7","number_of_machines":1,"atm_guard":"yes","cash_in_support":"no","withdrawal_limit":20000,"ward_no":"059","ward_name":"HARSIDDHI"},{"latitude":22.71435167,"longitude":75.85541,"amenity":"atm","name":"SBI ATM","name_hindi":"एस बी आई एटीएम","address":"P.Y Road, Pandrinath, Indore","opening_hours":"24/7","number_of_machines":1,"atm_guard":"no","cash_in_support":"no","withdrawal_limit":20000,"ward_no":"059","ward_name":"HARSIDDHI"},{"latitude":22.71633167,"longitude":75.86091833,"amenity":"atm","name":"SBI ATM","name_hindi":"एस बी आई एटीएम","address":"North Toda, Near River Side Road,Indore","opening_hours":"24/7","number_of_machines":1,"atm_guard":"no","cash_in_support":"no","withdrawal_limit":20000,"ward_no":"060","ward_name":"RANIPURA"},{"latitude":22.716325,"longitude":75.86383667,"amenity":"atm","name":"SBI ATM","name_hindi":"एस बी आई एटीएम","address":"Siyaganj Main Road, Indore","opening_hours":"24/7","number_of_machines":1,"atm_guard":"no","cash_in_support":"no","withdrawal_limit":20000,"ward_no":"060","ward_name":"RANIPURA"},{"latitude":22.73083,"longitude":75.81644333,"amenity":"atm","name":"SBI ATM","name_hindi":"एस बी आई एटीएम","address":"Laxmi Nagar, Chhota Bangada Road, Indore","opening_hours":"24/7","number_of_machines":1,"atm_guard":"no","cash_in_support":"no","withdrawal_limit":20000,"ward_no":"014","ward_name":"ASHOK NAGAR"},{"latitude":22.71038667,"longitude":75.85754,"amenity":"atm","name":"SBI ATM","name_hindi":"एस बी आई एटीएम","address":"Near Pani Ki Tanki,Pagnis Paga Main Road, Indore","opening_hours":"24/7","number_of_machines":1,"atm_guard":"no","cash_in_support":"no","withdrawal_limit":20000,"ward_no":"061","ward_name":"TATYA SARVATE"},{"latitude":22.77446833,"longitude":75.90274833,"amenity":"atm","name":"SBI ATM","name_hindi":"एस बी आई एटीएम","address":"A B Road, Near Dewas Naka, Indore","opening_hours":"24/7","number_of_machines":1,"atm_guard":"no","cash_in_support":"no","withdrawal_limit":20000,"ward_no":"036","ward_name":"NIPANIYA"},{"latitude":22.72868667,"longitude":75.82512667,"amenity":"atm","name":"SBI ATM","name_hindi":"एस बी आई एटीएम","address":"60 Feet Road, Aerodrum Road, Indore","opening_hours":"24/7","number_of_machines":1,"atm_guard":"no","cash_in_support":"no","withdrawal_limit":20000,"ward_no":"004","ward_name":"SUKHDEV NAGAR"},{"latitude":22.69448833,"longitude":75.88059,"amenity":"atm","name":"SBI ATM","name_hindi":"एस बी आई एटीएम","address":"State Bank of India - S.S.I Sajan Nagar\n 160, Nemawar Road, Sajan Nagar, Kaushalyapuri, Indore","opening_hours":"24/7","number_of_machines":3,"atm_guard":"yes","cash_in_support":"yes","withdrawal_limit":20000,"ward_no":"064","ward_name":"CHITAVAD"},{"latitude":22.690375,"longitude":75.86670833,"amenity":"atm","name":"SBI ATM","name_hindi":"एस बी आई एटीएम","address":"75, Bhawarkua Main Road, Ahilya Puri, Indrapuri Colony, Bhanwar Kuwa, Indore","opening_hours":"24/7","number_of_machines":3,"atm_guard":"yes","cash_in_support":"no","withdrawal_limit":20000,"ward_no":"074","ward_name":"VISHNAPURI"},{"latitude":22.67939,"longitude":75.87687,"amenity":"atm","name":"SBI ATM","name_hindi":"एस बी आई एटीएम","address":"Indore-Icchapur Road, Khandwa Road, Davv Takshila Parisar, Indore","opening_hours":"Mo-Sa 10:30-16:30","number_of_machines":2,"atm_guard":"no","cash_in_support":"yes","withdrawal_limit":20000,"ward_no":"064","ward_name":"CHITAVAD"},{"latitude":22.75385,"longitude":75.89615,"amenity":"atm","name":"SBI BANK","name_hindi":"एस बी आई  बैंक एटिएम","address":"Hosing Board Colony,Foji Tower,Opposite Mangal City,Indore","opening_hours":"24/7","number_of_machines":3,"atm_guard":"no","cash_in_support":"no","withdrawal_limit":20000,"ward_no":"029","ward_name":"DR. SHYAM PRASAD MUKHARJI"},{"latitude":22.75248,"longitude":75.89024833,"amenity":"atm","name":"SBI Bank","name_hindi":"एस बी आई  बैंक एटिएम","address":"1st Floor, Hotel Park, Scheme no.54, Opposite Sayaji Hotel, Vijaynagar, Indore","opening_hours":"24/7","number_of_machines":2,"atm_guard":"yes","cash_in_support":"yes","withdrawal_limit":20000,"ward_no":"029","ward_name":"DR. SHYAM PRASAD MUKHARJI"},{"latitude":22.74909,"longitude":75.89486833,"amenity":"atm","name":"SBI Bank","name_hindi":"एस बी आई  बैंक एटिएम","address":"Rasoma Square, Near I BusStop, Vijay Nagar, Indore","opening_hours":"24/7","number_of_machines":1,"atm_guard":"no","cash_in_support":"no","withdrawal_limit":20000,"ward_no":"031","ward_name":"MAHARAJA CHATRASAL"},{"latitude":22.7522,"longitude":75.89686833,"amenity":"atm","name":"SBI Bank","name_hindi":"एस बी आई  बैंक एटिएम","address":"1st FloorBack Side of Mangal City Mall,Vijaynagar, Indore","opening_hours":"24/7","number_of_machines":1,"atm_guard":"no","cash_in_support":"no","withdrawal_limit":20000,"ward_no":"031","ward_name":"MAHARAJA CHATRASAL"},{"latitude":22.75401167,"longitude":75.90447,"amenity":"atm","name":"SBI Bank","name_hindi":"एस बी आई  बैंक एटिएम","address":"EB -247 , Ring Road , Opposite Bombay Hospital , Tulsi Nagar , Scheme Number 94 , Indore","opening_hours":"24/7","number_of_machines":1,"atm_guard":"yes","cash_in_support":"no","withdrawal_limit":40000,"ward_no":"037","ward_name":"SAI KRUPA"},{"latitude":22.75509392,"longitude":75.87712624,"amenity":"atm","name":"SBI Bank","name_hindi":"एस बी आई  बैंक एटिएम","address":"A-13,Sukhlia Main Road,Indore","opening_hours":"24/7","number_of_machines":2,"atm_guard":"yes","cash_in_support":"no","withdrawal_limit":20000,"ward_no":"022","ward_name":"PANDIT DINDAYAL UPADHYAY"},{"latitude":22.73173333,"longitude":75.872785,"amenity":"atm","name":"SBI Bank","name_hindi":"एस बी आई  बैंक एटिएम","address":"56,Near Suresh Namkeen,New Dewas Road, Indore","opening_hours":"24/7","number_of_machines":1,"atm_guard":"no","cash_in_support":"no","withdrawal_limit":20000,"ward_no":"047","ward_name":"SARDAR VALLABHBHAI"},{"latitude":22.734175,"longitude":75.88976167,"amenity":"atm","name":"SBI Bank","name_hindi":"एस बी आई  बैंक एटिएम","address":"UG-3, 9/1, LIG Square, Indore","opening_hours":"24/7","number_of_machines":3,"atm_guard":"no","cash_in_support":"no","withdrawal_limit":50000,"ward_no":"045","ward_name":"DR. BHIMRAO AMBEDAR"},{"latitude":22.73414167,"longitude":75.89007833,"amenity":"atm","name":"SBI Bank","name_hindi":"एस बी आई  बैंक एटिएम","address":"LIG Square, Near I Bus Stop, Indore","opening_hours":"24/7","number_of_machines":1,"atm_guard":"no","cash_in_support":"no","withdrawal_limit":20000,"ward_no":"045","ward_name":"DR. BHIMRAO AMBEDAR"},{"latitude":22.73902333,"longitude":75.88202,"amenity":"atm","name":"SBI Bank","name_hindi":"एस बी आई  बैंक एटिएम","address":"86/2, Nehru Nagar, Indore","opening_hours":"24/7","number_of_machines":2,"atm_guard":"no","cash_in_support":"no","withdrawal_limit":25000,"ward_no":"026","ward_name":"JEEN MATA"},{"latitude":22.73717833,"longitude":75.89086,"amenity":"atm","name":"SBI Bank","name_hindi":"एस बी आई  बैंक एटिएम","address":"DS 21, ShoppingComplex, Near LIG Square","opening_hours":"24/7","number_of_machines":1,"atm_guard":"no","cash_in_support":"no","withdrawal_limit":25000,"ward_no":"044","ward_name":"H.I.G."},{"latitude":22.71471867,"longitude":75.87102648,"amenity":"atm","name":"SBI Bank","name_hindi":"एस बी आई  बैंक एटिएम","address":"21/6, Choti Gwal Toli, Patle Chouraha","opening_hours":"24/7","number_of_machines":2,"atm_guard":"no","cash_in_support":"no","withdrawal_limit":20000,"ward_no":"055","ward_name":"SAUTH TUKOGANJ"},{"latitude":22.71023333,"longitude":75.875565,"amenity":"atm","name":"SBI Bank","name_hindi":"एस बी आई  बैंक एटिएम","address":"191, RNT Marg , Chhawni, Indore","opening_hours":"24/7","number_of_machines":1,"atm_guard":"yes","cash_in_support":"no","withdrawal_limit":20000,"ward_no":"055","ward_name":"SAUTH TUKOGANJ"},{"latitude":22.70205667,"longitude":75.83414833,"amenity":"atm","name":"SBI Bank","name_hindi":"एस बी आई  बैंक एटिएम","address":"1619-B Scheme no. 71, Gumasta Nagar, Nakoda Chowk, Indore","opening_hours":"24/7","number_of_machines":1,"atm_guard":"no","cash_in_support":"no","withdrawal_limit":20000,"ward_no":"083","ward_name":"GUSHMATA NAGAR"},{"latitude":22.7016,"longitude":75.83858,"amenity":"atm","name":"SBI Bank","name_hindi":"एस बी आई  बैंक एटिएम","address":"16, Sukhnivas Road, Usha Nagar, Sudama Nagar, Indore","opening_hours":"24/7","number_of_machines":1,"atm_guard":"yes","cash_in_support":"yes","withdrawal_limit":20000,"ward_no":"071","ward_name":"DRAVID NAGAR"},{"latitude":22.69583833,"longitude":75.83055,"amenity":"atm","name":"SBI Bank","name_hindi":"एस बी आई  बैंक एटिएम","address":"Ranjeet Hanuman Road, Near Phooti Kothi Square Gumasta Nagar, Sudama Nagar, Indore","opening_hours":"24/7","number_of_machines":2,"atm_guard":"yes","cash_in_support":"yes","withdrawal_limit":20000,"ward_no":"083","ward_name":"GUSHMATA NAGAR"},{"latitude":22.69465833,"longitude":75.838675,"amenity":"atm","name":"SBI Bank","name_hindi":"एस बी आई  बैंक एटिएम","address":"Roop Tower, Annapurna Road, Opposite Dusshera Maidan, Indore","opening_hours":"24/7","number_of_machines":3,"atm_guard":"yes","cash_in_support":"no","withdrawal_limit":20000,"ward_no":"071","ward_name":"DRAVID NAGAR"},{"latitude":22.69820667,"longitude":75.843795,"amenity":"atm","name":"SBI Bank","name_hindi":"एस बी आई  बैंक एटिएम","address":"Kesar Bagh Main Road, Opposite Lal Bagh Palace, Indore","opening_hours":"24/7","number_of_machines":2,"atm_guard":"no","cash_in_support":"yes","withdrawal_limit":20000,"ward_no":"072","ward_name":"LOKMANYA NAGAR"},{"latitude":22.691095,"longitude":75.86535,"amenity":"atm","name":"SBI Bank","name_hindi":"एस बी आई  बैंक एटिएम","address":"Ground Floor, Giriraj Tower, Bhawarkua, Indore","opening_hours":"24/7","number_of_machines":2,"atm_guard":"yes","cash_in_support":"yes","withdrawal_limit":20000,"ward_no":"074","ward_name":"VISHNAPURI"},{"latitude":22.69399833,"longitude":75.85498667,"amenity":"atm","name":"SBI Bank","name_hindi":"एस बी आई  बैंक एटिएम","address":"13, Manik Bagh Road, Palsikar Colony, Nandanvan Colony, Indore","opening_hours":"24/7","number_of_machines":1,"atm_guard":"yes","cash_in_support":"no","withdrawal_limit":20000,"ward_no":"073","ward_name":"LAXMANSINGH CHAUHAN"},{"latitude":22.75689667,"longitude":75.862465,"amenity":"atm","name":"SBI Bank","name_hindi":"एस बी आई  बैंक एटिएम","address":"21, Gori Nagar, Khatipura Main Road, Indore","opening_hours":"24/7","number_of_machines":1,"atm_guard":"no","cash_in_support":"no","withdrawal_limit":20000,"ward_no":"020","ward_name":"GAURI NAGAR"},{"latitude":22.76887667,"longitude":75.90060333,"amenity":"atm","name":"SBI Bank","name_hindi":"एस बी आई  बैंक एटिएम","address":"Scheme Number 114, AB Road, Dewas Naka, Indore","opening_hours":"24/7","number_of_machines":1,"atm_guard":"no","cash_in_support":"no","withdrawal_limit":20000,"ward_no":"034","ward_name":"SHAHID BHAGATSINGH"},{"latitude":22.76856833,"longitude":75.91340833,"amenity":"atm","name":"SBI Bank","name_hindi":"एस बी आई  बैंक एटिएम","address":"Village Pipliyakumar Near Bhawan Prominent School, Indore Bypass Road, Vrindavan Palace Colony, Nipania, Indore","opening_hours":"24/7","number_of_machines":1,"atm_guard":"no","cash_in_support":"no","withdrawal_limit":20000,"ward_no":"036","ward_name":"NIPANIYA"},{"latitude":22.727955,"longitude":75.83374333,"amenity":"atm","name":"SBI Bank","name_hindi":"एस बी आई  बैंक एटिएम","address":"Palhar Nagar Main Road, 60 Feet Road, Indore","opening_hours":"24/7","number_of_machines":1,"atm_guard":"no","cash_in_support":"no","withdrawal_limit":20000,"ward_no":"004","ward_name":"SUKHDEV NAGAR"},{"latitude":22.68371,"longitude":75.864,"amenity":"atm","name":"SBI Bank","name_hindi":"एस बी आई  बैंक एटिएम","address":"48, Pipliyarao (Verma Compound), Bholaram Ustad Marg","opening_hours":"24/7","number_of_machines":1,"atm_guard":"no","cash_in_support":"no","withdrawal_limit":20000,"ward_no":"074","ward_name":"VISHNAPURI"},{"latitude":22.68926833,"longitude":75.87012,"amenity":"atm","name":"SBI Bank","name_hindi":"एस बी आई  बैंक एटिएम","address":"Khandwa Road, DAVV Takshshila Parisar, Indore","opening_hours":"24/7","number_of_machines":1,"atm_guard":"yes","cash_in_support":"no","withdrawal_limit":20000,"ward_no":"074","ward_name":"VISHNAPURI"},{"latitude":22.70640833,"longitude":75.82142833,"amenity":"atm","name":"SBI Bank","name_hindi":"एस बी आई  बैंक एटिएम","address":"62/2, Dhar Road, Sirpur, Indore","opening_hours":"24/7","number_of_machines":1,"atm_guard":"no","cash_in_support":"no","withdrawal_limit":20000,"ward_no":"001","ward_name":"SIRPUR"},{"latitude":22.689745,"longitude":75.76993667,"amenity":"atm","name":"SBI Bank","name_hindi":"एस बी आई  बैंक एटिएम","address":"Navdapanth, Jawahar Tekri, Dhar Road, Indore","opening_hours":"24/7","number_of_machines":2,"atm_guard":"no","cash_in_support":"no","withdrawal_limit":20000},{"latitude":22.74273,"longitude":75.876085,"amenity":"atm","name":"SBI Bank ATM","name_hindi":"एसबीआई  बैंक एटीएम","address":"SBI Indore Main Branch, Near GPO, Nehru Stadium, Residency Area, Indore","opening_hours":"24/7","number_of_machines":6,"atm_guard":"yes","cash_in_support":"yes","withdrawal_limit":20000,"ward_no":"025","ward_name":"NANDA NAGAR"},{"latitude":22.75345,"longitude":75.886075,"amenity":"atm","name":"South Indian Bank ATM","name_hindi":"साउथ इंडियन बैंक एटीएम","address":"FF-27/28 Royal View Apartment,\n Scheme 54 ,Vijay Nagar,\n Indore","opening_hours":"24/7","number_of_machines":1,"atm_guard":"yes","cash_in_support":"no","withdrawal_limit":20000,"ward_no":"029","ward_name":"DR. SHYAM PRASAD MUKHARJI"},{"latitude":22.72596582,"longitude":75.88204223,"amenity":"atm","name":"Standard Chartered Bank","name_hindi":"स्टैण्डर्ड चार्टर्ड बैंक","address":"DM Towers ,21/1, Race Course Road, Janjeer wala Square, New Palasia, Indore","opening_hours":"24/7","number_of_machines":1,"atm_guard":"no","cash_in_support":"no","withdrawal_limit":50000,"ward_no":"047","ward_name":"SARDAR VALLABHBHAI"},{"latitude":22.75359167,"longitude":75.902915,"amenity":"atm","name":"State Bank Of India","name_hindi":"स्टेट बैंक ऑफ़ इंडिया","address":"Hotel Mangal Regency Building, Opposite To Prestige College, Indore","opening_hours":"24/7","number_of_machines":2,"atm_guard":"yes","cash_in_support":"no","withdrawal_limit":20000,"ward_no":"031","ward_name":"MAHARAJA CHATRASAL"},{"latitude":22.75390333,"longitude":75.90452333,"amenity":"atm","name":"State Bank Of India","name_hindi":"स्टेट बैंक ऑफ़ इंडिया","address":"250, Scheme No. 94, Indore","opening_hours":"24/7","number_of_machines":1,"atm_guard":"no","cash_in_support":"no","withdrawal_limit":20000,"ward_no":"037","ward_name":"SAI KRUPA"},{"latitude":22.75971558,"longitude":75.87724727,"amenity":"atm","name":"State Bank Of India","name_hindi":"स्टेट बैंक ऑफ़ इंडिया","address":"1078,Sector C,Sukhliya,Indore","opening_hours":"24/7","number_of_machines":2,"atm_guard":"no","cash_in_support":"no","withdrawal_limit":40000,"ward_no":"033","ward_name":"SUKHLIYA"},{"latitude":22.76614039,"longitude":75.89317717,"amenity":"atm","name":"State Bank Of India","name_hindi":"स्टेट बैंक ऑफ़ इंडिया","address":"522 Sector-A ,Slice 3 ,Scheme no.78 ,Indore","opening_hours":"24/7","number_of_machines":2,"atm_guard":"no","cash_in_support":"no","withdrawal_limit":20000,"ward_no":"034","ward_name":"SHAHID BHAGATSINGH"},{"latitude":22.73565666,"longitude":75.88365943,"amenity":"atm","name":"State Bank Of India","name_hindi":"स्टेट बैंक ऑफ़ इंडिया","address":"Atal Dwar Road, Nehru Nagar, Indore","opening_hours":"24/7","number_of_machines":2,"atm_guard":"yes","cash_in_support":"no","withdrawal_limit":20000,"ward_no":"026","ward_name":"JEEN MATA"},{"latitude":22.73661124,"longitude":75.88592615,"amenity":"atm","name":"State Bank Of India","name_hindi":"स्टेट बैंक ऑफ़ इंडिया","address":"Near M.I.G Thana, M.I.G Colony, Indore","opening_hours":"24/7","number_of_machines":2,"atm_guard":"yes","cash_in_support":"no","withdrawal_limit":20000,"ward_no":"044","ward_name":"H.I.G."},{"latitude":22.74354374,"longitude":75.88394282,"amenity":"atm","name":"State Bank Of India","name_hindi":"स्टेट बैंक ऑफ़ इंडिया","address":"Infront Of Astha Talkies, Nanda Nagar, Indore","opening_hours":"24/7","number_of_machines":1,"atm_guard":"no","cash_in_support":"no","withdrawal_limit":20000,"ward_no":"027","ward_name":"PASHUPATI NATH"},{"latitude":22.73122155,"longitude":75.90140849,"amenity":"atm","name":"State Bank of India","name_hindi":"स्टेट बैंक ऑफ़ इंडिया","address":"865/2, Khajrana,Ring Road Circle, Khajrana Road, Multani Colony","opening_hours":"24/7","number_of_machines":1,"atm_guard":"yes","cash_in_support":"no","withdrawal_limit":20000,"ward_no":"040","ward_name":"KHAJRANA GANESH"},{"latitude":22.72982456,"longitude":75.89790764,"amenity":"atm","name":"State Bank Of India","name_hindi":"स्टेट बैंक ऑफ़ इंडिया","address":"4, Chandralok Colony,Anushree Heritage, Khajrana Main Road, Indore","opening_hours":"24/7","number_of_machines":2,"atm_guard":"no","cash_in_support":"no","withdrawal_limit":20000,"ward_no":"042","ward_name":"SWAMI VIVEKANAND"},{"latitude":22.74397833,"longitude":75.89347,"amenity":"atm","name":"State Bank Of India","name_hindi":"स्टेट बैंक ऑफ़ इंडिया","address":"C21 Mall, Scheme No. 54, Agra Bombay Road, Vijay Nagar","opening_hours":"24/7","number_of_machines":1,"atm_guard":"no","cash_in_support":"no","withdrawal_limit":20000,"ward_no":"031","ward_name":"MAHARAJA CHATRASAL"},{"latitude":22.74661333,"longitude":75.89368667,"amenity":"atm","name":"State Bank of India","name_hindi":"स्टेट बैंक ऑफ़ इंडिया","address":"Scheme No.54, Sheetal Nagar, Near Rasoma Square","opening_hours":"24/7","number_of_machines":1,"atm_guard":"no","cash_in_support":"no","withdrawal_limit":20000,"ward_no":"029","ward_name":"DR. SHYAM PRASAD MUKHARJI"},{"latitude":22.74215167,"longitude":75.897975,"amenity":"atm","name":"State Bank of India","name_hindi":"स्टेट बैंक ऑफ़ इंडिया","address":"MR 9 Road, Anil Nagar, Near Prithviraj Hotel","opening_hours":"24/7","number_of_machines":2,"atm_guard":"no","cash_in_support":"no","withdrawal_limit":20000,"ward_no":"030","ward_name":"SANT RAVIDAS"},{"latitude":22.71455667,"longitude":75.89981,"amenity":"atm","name":"State Bank of India","name_hindi":"स्टेट बैंक ऑफ़ इंडिया","address":"16-C, Vandana Nagar Main Road, Vandana Nagar","opening_hours":"24/7","number_of_machines":1,"atm_guard":"no","cash_in_support":"no","withdrawal_limit":20000,"ward_no":"049","ward_name":"TILAKNAGAR"},{"latitude":22.71960833,"longitude":75.90057667,"amenity":"atm","name":"State Bank of India","name_hindi":"स्टेट बैंक ऑफ़ इंडिया","address":"433/10, Tilak Nagar Main Road, Sector A, Tilak Nagar","opening_hours":"24/7","number_of_machines":1,"atm_guard":"no","cash_in_support":"no","withdrawal_limit":20000,"ward_no":"049","ward_name":"TILAKNAGAR"},{"latitude":22.72694781,"longitude":75.8746202,"amenity":"atm","name":"State Bank Of India","name_hindi":"स्टेट बैंक ऑफ़ इंडिया","address":"25/3, Yeshwant Niwas Road, New Palasia, Indore","opening_hours":"24/7","number_of_machines":1,"atm_guard":"no","cash_in_support":"no","withdrawal_limit":20000,"ward_no":"047","ward_name":"SARDAR VALLABHBHAI"},{"latitude":22.723501,"longitude":75.87401107,"amenity":"atm","name":"State Bank Of India","name_hindi":"स्टेट बैंक ऑफ़ इंडिया","address":"5, Yeshwant Niwas Road, B Builders Colony, Shivaji Nagar, Indore","opening_hours":"24/7","number_of_machines":5,"atm_guard":"yes","cash_in_support":"yes","withdrawal_limit":20000,"ward_no":"047","ward_name":"SARDAR VALLABHBHAI"},{"latitude":22.72240926,"longitude":75.8818517,"amenity":"atm","name":"State Bank of India","name_hindi":"स्टेट बैंक ऑफ़ इंडिया","address":"Indraprasth Tower, 6, Mahatma Gandhi Road, South Tukoganj , Indore","opening_hours":"24/7","number_of_machines":2,"atm_guard":"yes","cash_in_support":"no","withdrawal_limit":20000,"ward_no":"055","ward_name":"SAUTH TUKOGANJ"},{"latitude":22.72345858,"longitude":75.89017927,"amenity":"atm","name":"State Bank Of India","name_hindi":"स्टेट बैंक ऑफ़ इंडिया","address":"24, Patrakar Colony, Ravindra Nagar, Indore","opening_hours":"24/7","number_of_machines":3,"atm_guard":"yes","cash_in_support":"yes","withdrawal_limit":20000,"ward_no":"043","ward_name":"SHRINAGAR"},{"latitude":22.72208603,"longitude":75.88567623,"amenity":"atm","name":"State Bank Of India","name_hindi":"स्टेट बैंक ऑफ़ इंडिया","address":"1, Agra Bombay Road, South Tukoganj, Indore","opening_hours":"24/7","number_of_machines":3,"atm_guard":"no","cash_in_support":"yes","withdrawal_limit":20000,"ward_no":"055","ward_name":"SAUTH TUKOGANJ"},{"latitude":22.72660977,"longitude":75.88014161,"amenity":"atm","name":"State Bank of India","name_hindi":"स्टेट बैंक ऑफ़ इंडिया","address":"G-3, Vidyapati, 17 Race Course Road, Janjeer Wala Square, Indorr","opening_hours":"24/7","number_of_machines":1,"atm_guard":"no","cash_in_support":"no","withdrawal_limit":20000,"ward_no":"047","ward_name":"SARDAR VALLABHBHAI"},{"latitude":22.71895833,"longitude":75.89701,"amenity":"atm","name":"State Bank of India","name_hindi":"स्टेट बैंक ऑफ़ इंडिया","address":"Tilak Nagar Main Road, नear community Hall","opening_hours":"24/7","number_of_machines":2,"atm_guard":"no","cash_in_support":"no","withdrawal_limit":20000,"ward_no":"049","ward_name":"TILAKNAGAR"},{"latitude":22.71493667,"longitude":75.89438667,"amenity":"atm","name":"State Bank of India","name_hindi":"स्टेट बैंक ऑफ़ इंडिया","address":"Geeta Nagar Square, Lalaram Nagar","opening_hours":"24/7","number_of_machines":2,"atm_guard":"yes","cash_in_support":"no","withdrawal_limit":20000,"ward_no":"048","ward_name":"GITA BHAVAN"},{"latitude":22.701195,"longitude":75.869395,"amenity":"atm","name":"State Bank of India","name_hindi":"स्टेट बैंक ऑफ़ इंडिया","address":"311, Sapna Sangeeta Road, Agarwal Nagar, Navlakha","opening_hours":"24/7","number_of_machines":1,"atm_guard":"yes","cash_in_support":"no","withdrawal_limit":20000,"ward_no":"063","ward_name":"NAVLAKHA"},{"latitude":22.69301333,"longitude":75.86761,"amenity":"atm","name":"State Bank of India","name_hindi":"स्टेट बैंक ऑफ़ इंडिया","address":"Scheme No.44, Bhawarkua Main Road, Bhavarkuan Square, Aditya Nagar, Vishnu Puri Colony","opening_hours":"24/7","number_of_machines":2,"atm_guard":"yes","cash_in_support":"no","withdrawal_limit":20000,"ward_no":"074","ward_name":"VISHNAPURI"},{"latitude":22.69711,"longitude":75.86509167,"amenity":"atm","name":"State Bank of India","name_hindi":"स्टेट बैंक ऑफ़ इंडिया","address":"1, Bhawarkuan Road, Sahid Bagat Singh Colony, Ashok Nagar, Navlakha, Tower Square, Khatiwala Tank, Transport Nagar","opening_hours":"24/7","number_of_machines":4,"atm_guard":"no","cash_in_support":"yes","withdrawal_limit":20000,"ward_no":"065","ward_name":"SANT KANWARRAM"},{"latitude":22.69544333,"longitude":75.866205,"amenity":"atm","name":"State Bank of India","name_hindi":"स्टेट बैंक ऑफ़ इंडिया","address":"19 Professor Colony Bhawarkuan Main Road, Tower Chouraha, Ashok Nagar","opening_hours":"24/7","number_of_machines":1,"atm_guard":"no","cash_in_support":"no","withdrawal_limit":20000,"ward_no":"074","ward_name":"VISHNAPURI"},{"latitude":22.69683,"longitude":75.86071167,"amenity":"atm","name":"State Bank of India","name_hindi":"स्टेट बैंक ऑफ़ इंडिया","address":"Khatiwala Tank, 194 Saifee Nagar Main Road, Sardar Sher Singh, Transport Nagar","opening_hours":"24/7","number_of_machines":1,"atm_guard":"yes","cash_in_support":"no","withdrawal_limit":20000,"ward_no":"065","ward_name":"SANT KANWARRAM"},{"latitude":22.70049667,"longitude":75.86868667,"amenity":"atm","name":"State Bank of India","name_hindi":"स्टेट बैंक ऑफ़ इंडिया","address":"94, Sapna Sangeeta Road, Manish Baag Colony","opening_hours":"24/7","number_of_machines":2,"atm_guard":"no","cash_in_support":"yes","withdrawal_limit":20000,"ward_no":"063","ward_name":"NAVLAKHA"},{"latitude":22.699745,"longitude":75.85291333,"amenity":"atm","name":"State Bank of India","name_hindi":"स्टेट बैंक ऑफ़ इंडिया","address":"139, Roopram Nagar, Prem Nagar","opening_hours":"24/7","number_of_machines":1,"atm_guard":"no","cash_in_support":"yes","withdrawal_limit":20000,"ward_no":"066","ward_name":"SHAHID HEMU COLONY"},{"latitude":22.71897846,"longitude":75.86484435,"amenity":"atm","name":"State Bank Of India","name_hindi":"स्टेट बैंक ऑफ़ इंडिया","address":"Palika Plaza, Mahatma Gandhi Road, MTH Compound, Indore","opening_hours":"24/7","number_of_machines":1,"atm_guard":"no","cash_in_support":"no","withdrawal_limit":20000,"ward_no":"057","ward_name":"DEVI AHILYABAI"},{"latitude":22.72149178,"longitude":75.86034683,"amenity":"atm","name":"State Bank Of India","name_hindi":"स्टेट बैंक ऑफ़ इंडिया","address":"Muncipal Corporation Campus, 1, Jail Road, IDA Market, Beside Nutan School, Nagar Nigam, Indore","opening_hours":"24/7","number_of_machines":2,"atm_guard":"no","cash_in_support":"yes","withdrawal_limit":20000,"ward_no":"057","ward_name":"DEVI AHILYABAI"},{"latitude":22.72424393,"longitude":75.86040703,"amenity":"atm","name":"State Bank Of India","name_hindi":"स्टेट बैंक ऑफ़ इंडिया","address":"186, Netaji Subhash Marg, Indore GPO, Indore","opening_hours":"24/7","number_of_machines":1,"atm_guard":"no","cash_in_support":"no","withdrawal_limit":20000,"ward_no":"057","ward_name":"DEVI AHILYABAI"},{"latitude":22.71763743,"longitude":75.85560994,"amenity":"atm","name":"State Bank Of India","name_hindi":"स्टेट बैंक ऑफ़ इंडिया","address":"1, Prince Yashwant Road, Rajwada, Maharaja Tukoji Rao Holker Cloth Market, Aada Bazar, Indore","opening_hours":"24/7","number_of_machines":3,"atm_guard":"no","cash_in_support":"yes","withdrawal_limit":20000,"ward_no":"059","ward_name":"HARSIDDHI"},{"latitude":22.72525415,"longitude":75.86254176,"amenity":"atm","name":"State Bank Of India","name_hindi":"स्टेट बैंक ऑफ़ इंडिया","address":"15, Jail Road, Nagar Nigam Market,Chikmanglur Square, Indore","opening_hours":"24/7","number_of_machines":2,"atm_guard":"yes","cash_in_support":"yes","withdrawal_limit":20000,"ward_no":"056","ward_name":"SNEHALATA GANJ"},{"latitude":22.72962065,"longitude":75.86343179,"amenity":"atm","name":"State Bank Of India","name_hindi":"स्टेट बैंक ऑफ़ इंडिया","address":"121, Devi Ahilya Marg, Near Agniban Press, Jail Road, Indore","opening_hours":"24/7","number_of_machines":3,"atm_guard":"yes","cash_in_support":"yes","withdrawal_limit":20000,"ward_no":"056","ward_name":"SNEHALATA GANJ"},{"latitude":22.72302822,"longitude":75.85756675,"amenity":"atm","name":"State Bank Of India","name_hindi":"स्टेट बैंक ऑफ़ इंडिया","address":"Netaji Subhash Marg, Rambag Square, Indore","opening_hours":"24/7","number_of_machines":1,"atm_guard":"no","cash_in_support":"no","withdrawal_limit":20000,"ward_no":"057","ward_name":"DEVI AHILYABAI"},{"latitude":22.71826002,"longitude":75.8614641,"amenity":"atm","name":"State Bank of India","name_hindi":"स्टेट बैंक ऑफ़ इंडिया","address":"125/1, Prakash Plaza, Ranipura Main Road, Sanjay Setu, Khatipura, Indore","opening_hours":"24/7","number_of_machines":2,"atm_guard":"no","cash_in_support":"no","withdrawal_limit":20000,"ward_no":"060","ward_name":"RANIPURA"},{"latitude":22.72649189,"longitude":75.85227856,"amenity":"atm","name":"State Bank Of India","name_hindi":"स्टेट बैंक ऑफ़ इंडिया","address":"Ujjain - Indore Road, Marathi Mohalla, Bakshi Colony, Indore","opening_hours":"24/7","number_of_machines":1,"atm_guard":"no","cash_in_support":"no","withdrawal_limit":20000,"ward_no":"058","ward_name":"IMLI BAZAR"},{"latitude":22.72576051,"longitude":75.86247013,"amenity":"atm","name":"State Bank of India","name_hindi":"स्टेट बैंक ऑफ़ इंडिया","address":"27, Devi Ahilya Marg, Jail Road, Indore","opening_hours":"24/7","number_of_machines":1,"atm_guard":"no","cash_in_support":"no","withdrawal_limit":20000,"ward_no":"057","ward_name":"DEVI AHILYABAI"},{"latitude":22.72267331,"longitude":75.84890195,"amenity":"atm","name":"State Bank of India","name_hindi":"स्टेट बैंक ऑफ़ इंडिया","address":"132, Netaji Subahash Marg, Neelkanth Square, Indore","opening_hours":"24/7","number_of_machines":1,"atm_guard":"no","cash_in_support":"no","withdrawal_limit":20000,"ward_no":"007","ward_name":"JANTA COLONY"},{"latitude":22.72117776,"longitude":75.82293397,"amenity":"atm","name":"State Bank Of India","name_hindi":"स्टेट बैंक ऑफ़ इंडिया","address":"217, Kalani Nagar, Main Sabzi Mandi Road","opening_hours":"24/7","number_of_machines":1,"atm_guard":"no","cash_in_support":"no","withdrawal_limit":20000,"ward_no":"003","ward_name":"KALANI NAGAR"},{"latitude":22.71806468,"longitude":75.82288619,"amenity":"atm","name":"State Bank Of India","name_hindi":"स्टेट बैंक ऑफ़ इंडिया","address":"Nagin Nagar Main Road, Kalani Nagar","opening_hours":"24/7","number_of_machines":1,"atm_guard":"no","cash_in_support":"no","withdrawal_limit":20000,"ward_no":"003","ward_name":"KALANI NAGAR"},{"latitude":22.72804581,"longitude":75.83388492,"amenity":"atm","name":"State bank Of India","name_hindi":"स्टेट बैंक ऑफ़ इंडिया","address":"60 Feet Airport Rd, Sector B, Palhar Nagar","opening_hours":"24/7","number_of_machines":1,"atm_guard":"no","cash_in_support":"no","withdrawal_limit":20000,"ward_no":"014","ward_name":"ASHOK NAGAR"},{"latitude":22.7268855,"longitude":75.8403954,"amenity":"atm","name":"State bank of India","name_hindi":"स्टेट बैंक ऑफ़ इंडिया","address":"VIP Road, Kila Maidan, Blind School Campus","opening_hours":"24/7","number_of_machines":1,"atm_guard":"no","cash_in_support":"no","withdrawal_limit":20000,"ward_no":"007","ward_name":"JANTA COLONY"},{"latitude":22.72290217,"longitude":75.84577155,"amenity":"atm","name":"State Bank Of India","name_hindi":"स्टेट बैंक ऑफ़ इंडिया","address":"Netaji Subhash Marg, Jinshi Square, Agrasen Nagar","opening_hours":"24/7","number_of_machines":1,"atm_guard":"no","cash_in_support":"no","withdrawal_limit":20000,"ward_no":"008","ward_name":"JUNA RISALA"},{"latitude":22.7258299,"longitude":75.82046186,"amenity":"atm","name":"State Bank of India","name_hindi":"स्टेट बैंक ऑफ़ इंडिया","address":"Aerodrome Road, Near Shree Vidya Dham, Indore.","opening_hours":"24/7","number_of_machines":3,"atm_guard":"no","cash_in_support":"yes","withdrawal_limit":20000,"ward_no":"004","ward_name":"SUKHDEV NAGAR"},{"latitude":22.72870118,"longitude":75.82511525,"amenity":"atm","name":"State Bank of India","name_hindi":"स्टेट बैंक ऑफ़ इंडिया","address":"28, Sukhdev Nagar, Indore.","opening_hours":"24/7","number_of_machines":1,"atm_guard":"no","cash_in_support":"no","withdrawal_limit":20000,"ward_no":"004","ward_name":"SUKHDEV NAGAR"},{"latitude":22.7241102,"longitude":75.82747516,"amenity":"atm","name":"State Bank of India","name_hindi":"स्टेट बैंक ऑफ़ इंडिया","address":"Aerodrome Road Shakti Nagar, Sadhna Nagar, Indore.","opening_hours":"24/7","number_of_machines":3,"atm_guard":"no","cash_in_support":"yes","withdrawal_limit":20000,"ward_no":"004","ward_name":"SUKHDEV NAGAR"},{"latitude":22.72301628,"longitude":75.83110944,"amenity":"atm","name":"State Bank of India","name_hindi":"स्टेट बैंक ऑफ़ इंडिया","address":"Near Mahavir Kripa Colony, APTC, Airport Road, Indore.","opening_hours":"24/7","number_of_machines":2,"atm_guard":"no","cash_in_support":"no","withdrawal_limit":20000,"ward_no":"007","ward_name":"JANTA COLONY"},{"latitude":22.72382869,"longitude":75.8460344,"amenity":"atm","name":"State Bank of India","name_hindi":"स्टेट बैंक ऑफ़ इंडिया","address":"Raamganj Jinsi, Shankarganj Square Main Road, Indore.","opening_hours":"24/7","number_of_machines":1,"atm_guard":"no","cash_in_support":"no","withdrawal_limit":20000,"ward_no":"007","ward_name":"JANTA COLONY"},{"latitude":22.72144557,"longitude":75.84776428,"amenity":"atm","name":"State Bank of India","name_hindi":"स्टेट बैंक ऑफ़ इंडिया","address":"40, Bawali Chowk, Malhar Paltan, Indore.","opening_hours":"24/7","number_of_machines":1,"atm_guard":"no","cash_in_support":"no","withdrawal_limit":20000,"ward_no":"008","ward_name":"JUNA RISALA"},{"latitude":22.71782553,"longitude":75.84190834,"amenity":"atm","name":"State Bank of India","name_hindi":"स्टेट बैंक ऑफ़ इंडिया","address":"Shanti Sagar Apt, Kailash Marg, Indore.","opening_hours":"24/7","number_of_machines":1,"atm_guard":"no","cash_in_support":"no","withdrawal_limit":20000,"ward_no":"069","ward_name":"JAWAHAR MARG"},{"latitude":22.71993594,"longitude":75.8444423,"amenity":"atm","name":"State Bank of India","name_hindi":"स्टेट बैंक ऑफ़ इंडिया","address":"MG Road, Malharganj, Indore,","opening_hours":"24/7","number_of_machines":1,"atm_guard":"no","cash_in_support":"no","withdrawal_limit":20000,"ward_no":"006","ward_name":"MALHARGANJ"},{"latitude":22.747395,"longitude":75.84177,"amenity":"atm","name":"State Bank of India","name_hindi":"स्टेट बैंक ऑफ़ इंडिया","address":"Kushwah Nagar Main Road, Banganga","opening_hours":"24/7","number_of_machines":1,"atm_guard":"no","cash_in_support":"no","withdrawal_limit":20000,"ward_no":"017","ward_name":"KUSHVAH NAGAR"},{"latitude":22.74718333,"longitude":75.84525833,"amenity":"atm","name":"State Bank of India","name_hindi":"स्टेट बैंक ऑफ़ इंडिया","address":"Raja Bagh Colony, Kushwah Nagar Main Road, Banganga","opening_hours":"24/7","number_of_machines":1,"atm_guard":"no","cash_in_support":"no","withdrawal_limit":20000,"ward_no":"012","ward_name":"GOVIND COLONY"},{"latitude":22.74053724,"longitude":75.83666143,"amenity":"atm","name":"State Bank Of India","name_hindi":"स्टेट बैंक ऑफ़ इंडिया","address":"Avantika Nagar, Scheme No. 51, Sangam Nagar","opening_hours":"24/7","number_of_machines":2,"atm_guard":"no","cash_in_support":"no","withdrawal_limit":20000,"ward_no":"013","ward_name":"SANGAM NAGAR"},{"latitude":22.7359608,"longitude":75.83720407,"amenity":"atm","name":"State Bank Of India","name_hindi":"स्टेट बैंक ऑफ़ इंडिया","address":"10, Rambali Nagar, Scheme No. 51","opening_hours":"24/7","number_of_machines":1,"atm_guard":"no","cash_in_support":"no","withdrawal_limit":20000,"ward_no":"013","ward_name":"SANGAM NAGAR"},{"latitude":22.73220646,"longitude":75.84109177,"amenity":"atm","name":"State Bank Of India","name_hindi":"स्टेट बैंक ऑफ़ इंडिया","address":"Laxmibai Nagar Branch, Industrial Area Laxmibai Nagar","opening_hours":"24/7","number_of_machines":2,"atm_guard":"no","cash_in_support":"no","withdrawal_limit":20000,"ward_no":"013","ward_name":"SANGAM NAGAR"},{"latitude":22.73513782,"longitude":75.83010184,"amenity":"atm","name":"State Bank Of India","name_hindi":"स्टेट बैंक ऑफ़ इंडिया","address":"Chhota Bangarda Rd, Smruti Nagar, Sanwariya Nagar","opening_hours":"24/7","number_of_machines":2,"atm_guard":"no","cash_in_support":"no","withdrawal_limit":20000,"ward_no":"014","ward_name":"ASHOK NAGAR"},{"latitude":22.72984059,"longitude":75.85719877,"amenity":"atm","name":"State Bank Of India","name_hindi":"स्टेट बैंक ऑफ़ इंडिया","address":"102, Tilak Path, Narayan Bagh","opening_hours":"24/7","number_of_machines":1,"atm_guard":"no","cash_in_support":"no","withdrawal_limit":20000,"ward_no":"057","ward_name":"DEVI AHILYABAI"},{"latitude":22.73264789,"longitude":75.85022025,"amenity":"atm","name":"State Bank Of India","name_hindi":"स्टेट बैंक ऑफ़ इंडिया","address":"Ujjain-Indore Road, Marimata Square","opening_hours":"24/7","number_of_machines":3,"atm_guard":"no","cash_in_support":"yes","withdrawal_limit":20000,"ward_no":"058","ward_name":"IMLI BAZAR"},{"latitude":22.73326971,"longitude":75.84818487,"amenity":"atm","name":"State Bank Of India","name_hindi":"स्टेट बैंक ऑफ़ इंडिया","address":"V.I.P. Road , Brahmbag Colony","opening_hours":"24/7","number_of_machines":1,"atm_guard":"no","cash_in_support":"no","withdrawal_limit":20000,"ward_no":"009","ward_name":"VRINDAVAN"},{"latitude":22.73997435,"longitude":75.84806224,"amenity":"atm","name":"State Bank Of India","name_hindi":"स्टेट बैंक ऑफ़ इंडिया","address":"Near 47, Kushwah Nagar, Kamla Nehru Nagar","opening_hours":"24/7","number_of_machines":1,"atm_guard":"no","cash_in_support":"no","withdrawal_limit":20000,"ward_no":"009","ward_name":"VRINDAVAN"},{"latitude":22.72961754,"longitude":75.86340666,"amenity":"atm","name":"State Bank Of India","name_hindi":"स्टेट बैंक ऑफ़ इंडिया","address":"Mill Area Branch, Near Agniband Press, Bhandari Mill","opening_hours":"24/7","number_of_machines":4,"atm_guard":"no","cash_in_support":"yes","withdrawal_limit":20000,"ward_no":"056","ward_name":"SNEHALATA GANJ"},{"latitude":22.73215748,"longitude":75.84640813,"amenity":"atm","name":"State Bank of India","name_hindi":"स्टेट बैंक ऑफ़ इंडिया","address":"15 V Vahini V.S. Bal, Kila Maidan Road, Sadar Bajar, Indore.","opening_hours":"24/7","number_of_machines":1,"atm_guard":"no","cash_in_support":"no","withdrawal_limit":20000,"ward_no":"009","ward_name":"VRINDAVAN"},{"latitude":22.73597538,"longitude":75.86257727,"amenity":"atm","name":"State Bank of India","name_hindi":"स्टेट बैंक ऑफ़ इंडिया","address":"Madhya Pradesh Pashchim Shetr Vidhyut Mandal, Near Vishisht College, Indore.","opening_hours":"24/7","number_of_machines":3,"atm_guard":"yes","cash_in_support":"yes","withdrawal_limit":20000,"ward_no":"057","ward_name":"DEVI AHILYABAI"},{"latitude":22.73459522,"longitude":75.85487606,"amenity":"atm","name":"State Bank of India","name_hindi":"स्टेट बैंक ऑफ़ इंडिया","address":"31, Chandrashekhar Vyas Road, Pologround Industrial Estate, Mari Mata Square, Indore.","opening_hours":"24/7","number_of_machines":1,"atm_guard":"no","cash_in_support":"no","withdrawal_limit":20000,"ward_no":"057","ward_name":"DEVI AHILYABAI"},{"latitude":22.73958455,"longitude":75.84988145,"amenity":"atm","name":"State Bank of India","name_hindi":"स्टेट बैंक ऑफ़ इंडिया","address":"Near Kamal Agency, Banganga Main Road, Indore.","opening_hours":"24/7","number_of_machines":1,"atm_guard":"no","cash_in_support":"no","withdrawal_limit":20000,"ward_no":"010","ward_name":"BANGANGA"},{"latitude":22.76249931,"longitude":75.92195794,"amenity":"atm","name":"State Bank Of India","name_hindi":"स्टेट बैंक ऑफ़ इंडिया","address":"89,Samar Park Colony, Nipania, Indore","opening_hours":"24/7","number_of_machines":3,"atm_guard":"yes","cash_in_support":"yes","withdrawal_limit":20000,"ward_no":"036","ward_name":"NIPANIYA"},{"latitude":22.76851653,"longitude":75.91332679,"amenity":"atm","name":"State Bank Of India","name_hindi":"स्टेट बैंक ऑफ़ इंडिया","address":"Village Pipliyakumar, Near Bhawan Prominent School, Indore Bypass Road, Vrindavan Palace Colony, Nipania, Indore","opening_hours":"24/7","number_of_machines":1,"atm_guard":"yes","cash_in_support":"no","withdrawal_limit":20000,"ward_no":"036","ward_name":"NIPANIYA"},{"latitude":22.74434667,"longitude":75.92954,"amenity":"atm","name":"State Bank of India","name_hindi":"स्टेट बैंक ऑफ़ इंडिया","address":"Scheme 134, County Walk Township, Scheme 134, Nipania","opening_hours":"24/7","number_of_machines":1,"atm_guard":"no","cash_in_support":"no","withdrawal_limit":20000,"ward_no":"039","ward_name":"NAHAR SHAHVALI"},{"latitude":22.74095225,"longitude":75.79221081,"amenity":"atm","name":"State Bank of India","name_hindi":"स्टेट बैंक ऑफ़ इंडिया","address":"27, Parasram Marg, Gandhi Nagar, Indore","opening_hours":"24/7","number_of_machines":1,"atm_guard":"no","cash_in_support":"no","withdrawal_limit":20000,"ward_no":"015","ward_name":"BIJASAN"},{"latitude":22.67932205,"longitude":75.87704542,"amenity":"atm","name":"State Bank of India","name_hindi":"स्टेट बैंक ऑफ़ इंडिया","address":"Indore-Icchapur Road, Khandwa Road, Davv Takshila Parisar, Indore","opening_hours":"24/7","number_of_machines":2,"atm_guard":"yes","cash_in_support":"no","withdrawal_limit":20000,"ward_no":"064","ward_name":"CHITAVAD"},{"latitude":22.68611387,"longitude":75.88844919,"amenity":"atm","name":"State Bank Of India","name_hindi":"स्टेट बैंक ऑफ़ इंडिया","address":"Nemawar Road, Palda Naka, Vijay Udhog Nagar","opening_hours":"24/7","number_of_machines":2,"atm_guard":"no","cash_in_support":"no","withdrawal_limit":20000,"ward_no":"064","ward_name":"CHITAVAD"},{"latitude":22.68985203,"longitude":75.89209238,"amenity":"atm","name":"State Bank Of India","name_hindi":"स्टेट बैंक ऑफ़ इंडिया","address":"Ring Road, Khati Mohalla, Musakhedi","opening_hours":"24/4","number_of_machines":2,"atm_guard":"no","cash_in_support":"no","withdrawal_limit":20000,"ward_no":"052","ward_name":"MUSAKHEDI"},{"latitude":22.68771683,"longitude":75.89749904,"amenity":"atm","name":"State Bank Of India","name_hindi":"स्टेट बैंक ऑफ़ इंडिया","address":"Palda Branch, Udhog Nagar Nemawar Road, Babul Nagar","opening_hours":"24/7","number_of_machines":2,"atm_guard":"yes","cash_in_support":"no","withdrawal_limit":20000,"ward_no":"075","ward_name":"PALDA"},{"latitude":22.77048523,"longitude":75.84821505,"amenity":"atm","name":"State bank of India","name_hindi":"स्टेट बैंक ऑफ़ इंडिया","address":"Sector- C, Industrial Area, Sanwer Road, Indore.","opening_hours":"24/7","number_of_machines":2,"atm_guard":"yes","cash_in_support":"yes","withdrawal_limit":20000,"ward_no":"019","ward_name":"VISHVAKARMA"},{"latitude":22.6873761,"longitude":75.90089975,"amenity":"atm","name":"State Bank Of India","name_hindi":"स्टेट बैंक ऑफ़ इंडिया","address":"Nemawar Road, Udhyog Nagar, Dinesh Nagar, Palda","opening_hours":"24/7","number_of_machines":1,"atm_guard":"no","cash_in_support":"no","withdrawal_limit":20000,"ward_no":"051","ward_name":"BHAGVATI NAGAR"},{"latitude":22.74093167,"longitude":75.89262167,"amenity":"atm","name":"State Bank Of India E-Corner","name_hindi":"स्टेट बैंक ऑफ इंडिया ई-कॉर्नर","address":"B-2, Agra Bombay Rd, LIG Colony, Near Hotel Shreemaya","opening_hours":"24/7","number_of_machines":4,"atm_guard":"no","cash_in_support":"yes","withdrawal_limit":20000,"ward_no":"030","ward_name":"SANT RAVIDAS"},{"latitude":22.7729,"longitude":75.90204667,"amenity":"atm","name":"Suryoday ATM","name_hindi":"सूर्योदय एटीएम","address":"Diamond Garge Petrol Pump, A B Road, Dewas Naka, Indore","opening_hours":"24/7","number_of_machines":1,"atm_guard":"no","cash_in_support":"no","withdrawal_limit":20000,"ward_no":"035","ward_name":"LASUDIYA MORI"},{"latitude":22.74003906,"longitude":75.84066689,"amenity":"atm","name":"Suryoday Bank","name_hindi":"सूर्योदय बैंक","address":"31, Ahilya Nagar, Police Thana Road","opening_hours":"24/7","number_of_machines":1,"atm_guard":"no","cash_in_support":"no","withdrawal_limit":20000,"ward_no":"013","ward_name":"SANGAM NAGAR"},{"latitude":22.73512,"longitude":75.88753333,"amenity":"atm","name":"SVC Bank","name_hindi":"एस वी सी बैंक","address":"C1, Aditya Inclave, HIG Colony, Indore","opening_hours":"24/7","number_of_machines":1,"atm_guard":"yes","cash_in_support":"no","withdrawal_limit":25000,"ward_no":"045","ward_name":"DR. BHIMRAO AMBEDAR"},{"latitude":22.69612833,"longitude":75.86582,"amenity":"atm","name":"SVC Bank","name_hindi":"एस वी सी बैंक","address":"7, Malwa Tower, Bhawarkuan, Ashok Nagar Main Road","opening_hours":"24/7","number_of_machines":1,"atm_guard":"yes","cash_in_support":"no","withdrawal_limit":25000,"ward_no":"065","ward_name":"SANT KANWARRAM"},{"latitude":22.71890937,"longitude":75.86539113,"amenity":"atm","name":"Syndicate Bank","name_hindi":"सिंडिकेट बैंक","address":"Raja Ram Mohan Roy Complex, M.T.H. Compound, Indore","opening_hours":"24/7","number_of_machines":2,"atm_guard":"no","cash_in_support":"yes","withdrawal_limit":20000,"ward_no":"057","ward_name":"DEVI AHILYABAI"},{"latitude":22.74273,"longitude":75.876085,"amenity":"atm","name":"Syndicate Bank ATM","name_hindi":"सिनडीकेट बैंक एटीएम","address":"No.31-1, Nanda Nagar Main Rd, Near Teen Puliya, Nanda Nagar, Indore","opening_hours":"24/7","number_of_machines":3,"atm_guard":"no","cash_in_support":"yes","withdrawal_limit":20000,"ward_no":"025","ward_name":"NANDA NAGAR"},{"latitude":22.77055162,"longitude":75.84779603,"amenity":"atm","name":"TATA Indicash","name_hindi":"#N/A","address":"414, Sector C, Narvar Square,Sanwer Road, Industrial Area","opening_hours":"24/7","number_of_machines":1,"atm_guard":"no","cash_in_support":"no","withdrawal_limit":20000,"ward_no":"019","ward_name":"VISHVAKARMA"},{"latitude":22.72581363,"longitude":75.87868099,"amenity":"atm","name":"TJSB Sahakari Bank limited","name_hindi":"टी जे एस बी सहकारी बैंक लिमिटेड","address":"Number 301, Darshan Mall, Race Course Road, Indore","opening_hours":"24/7","number_of_machines":1,"atm_guard":"yes","cash_in_support":"no","withdrawal_limit":25000,"ward_no":"047","ward_name":"SARDAR VALLABHBHAI"},{"latitude":22.71561833,"longitude":75.87553333,"amenity":"atm","name":"TMB","name_hindi":"टी एम बी","address":"Manav Tarde Centre, Madhumilan sq., Indore","opening_hours":"24/7","number_of_machines":1,"atm_guard":"no","cash_in_support":"no","withdrawal_limit":100000,"ward_no":"055","ward_name":"SAUTH TUKOGANJ"},{"latitude":22.73259833,"longitude":75.89080333,"amenity":"atm","name":"UCO Bank","name_hindi":"यूको बैंक","address":"19, Mayuri Apartment,Behind Lifeline Hospital,Anoop Nagar, Indore","opening_hours":"24/7","number_of_machines":1,"atm_guard":"no","cash_in_support":"no","withdrawal_limit":15000,"ward_no":"043","ward_name":"SHRINAGAR"},{"latitude":22.73631397,"longitude":75.88595632,"amenity":"atm","name":"UCO Bank","name_hindi":"यूको बैंक","address":"M.I.G Colony, Indore","opening_hours":"24/7","number_of_machines":2,"atm_guard":"no","cash_in_support":"no","withdrawal_limit":25000,"ward_no":"045","ward_name":"DR. BHIMRAO AMBEDAR"},{"latitude":22.744,"longitude":75.89334167,"amenity":"atm","name":"UCO Bank","name_hindi":"यूको बैंक","address":"C21 Mall, Scheme No.54, Agra Bombay Road, Vijay Nagar","opening_hours":"24/7","number_of_machines":1,"atm_guard":"no","cash_in_support":"no","withdrawal_limit":25000,"ward_no":"031","ward_name":"MAHARAJA CHATRASAL"},{"latitude":22.72581656,"longitude":75.89461475,"amenity":"atm","name":"UCO Bank","name_hindi":"यूको बैंक","address":"Anand Bazar branch, K.K. Bayas Colony, Saket square","opening_hours":"24/7","number_of_machines":1,"atm_guard":"no","cash_in_support":"no","withdrawal_limit":20000,"ward_no":"042","ward_name":"SWAMI VIVEKANAND"},{"latitude":22.709355,"longitude":75.89189167,"amenity":"atm","name":"UCO Bank","name_hindi":"यूको बैंक","address":"Krishi Nagar, Agriculture Road","opening_hours":"24/7","number_of_machines":1,"atm_guard":"no","cash_in_support":"no","withdrawal_limit":25000,"ward_no":"055","ward_name":"SAUTH TUKOGANJ"},{"latitude":22.7265881,"longitude":75.88426062,"amenity":"atm","name":"UCO Bank","name_hindi":"यूको बैंक","address":"63, Gold Stone Building, Mahatma Gandhi Road, Regal Square,Mahaveer Trust,Near Chhappan, New Palasia, Indore","opening_hours":"24/7","number_of_machines":1,"atm_guard":"no","cash_in_support":"no","withdrawal_limit":25000,"ward_no":"047","ward_name":"SARDAR VALLABHBHAI"},{"latitude":22.69809667,"longitude":75.86499333,"amenity":"atm","name":"UCO Bank","name_hindi":"यूको बैंक","address":"Sapna Sangeeta Road, Snehnagar, Tower Chouraha","opening_hours":"24/7","number_of_machines":1,"atm_guard":"no","cash_in_support":"no","withdrawal_limit":25000,"ward_no":"065","ward_name":"SANT KANWARRAM"},{"latitude":22.69597,"longitude":75.83506833,"amenity":"atm","name":"UCO Bank","name_hindi":"यूको बैंक","address":"612, Usha Nagar Extension, Narendra Tiwari Marg, Indore","opening_hours":"24/7","number_of_machines":1,"atm_guard":"no","cash_in_support":"no","withdrawal_limit":25000,"ward_no":"071","ward_name":"DRAVID NAGAR"},{"latitude":22.72362017,"longitude":75.82793662,"amenity":"atm","name":"UCO Bank","name_hindi":"यूको बैंक","address":"Below Sita Shree Residency, Ganga Colony, Airport Road","opening_hours":"24/7","number_of_machines":1,"atm_guard":"no","cash_in_support":"no","withdrawal_limit":20000,"ward_no":"004","ward_name":"SUKHDEV NAGAR"},{"latitude":22.76282258,"longitude":75.92391042,"amenity":"atm","name":"UCO Bank","name_hindi":"यूको बैंक","address":"36, Samar Park Colony ,Nipania Main Road, Nipania, Indore","opening_hours":"24/7","number_of_machines":1,"atm_guard":"no","cash_in_support":"no","withdrawal_limit":25000,"ward_no":"036","ward_name":"NIPANIYA"},{"latitude":22.74273,"longitude":75.876085,"amenity":"atm","name":"UCO Bank ATM","name_hindi":"यूको बैंक एटीएम","address":"22/2, Devas Kothi, Sanyogitaganj, Murai Mohalla, Chhawni, Indore","opening_hours":"24/7","number_of_machines":1,"atm_guard":"no","cash_in_support":"no","withdrawal_limit":50000,"ward_no":"025","ward_name":"NANDA NAGAR"},{"latitude":22.71634,"longitude":75.848565,"amenity":"atm","name":"UCO Bank ATM","name_hindi":"यूको बैंक एटीएम","address":"112, Itwari Bazar, Indore","opening_hours":"24/7","number_of_machines":1,"atm_guard":"no","cash_in_support":"no","withdrawal_limit":20000,"ward_no":"068","ward_name":"BAMBAI BAZAR"},{"latitude":22.71646667,"longitude":75.85512833,"amenity":"atm","name":"UCO Bank ATM","name_hindi":"यूको बैंक एटीएम","address":"Jawahar Marg Main Road, Indore","opening_hours":"24/7","number_of_machines":1,"atm_guard":"no","cash_in_support":"no","withdrawal_limit":20000,"ward_no":"059","ward_name":"HARSIDDHI"},{"latitude":22.75265333,"longitude":75.89027,"amenity":"atm","name":"Union Bank","name_hindi":"यूनियन बैंक","address":"1st Floor Hotel Park, Scheme no. 54, Opp Sayaji Hotel, VijayNagar, Indore","opening_hours":"24/7","number_of_machines":1,"atm_guard":"no","cash_in_support":"no","withdrawal_limit":15000,"ward_no":"029","ward_name":"DR. SHYAM PRASAD MUKHARJI"},{"latitude":22.72591697,"longitude":75.87890472,"amenity":"atm","name":"Union Bank","name_hindi":"यूनियन बैंक","address":"Near Holkar Stadium, Race Course Road, New Palasia , Indore","opening_hours":"24/7","number_of_machines":1,"atm_guard":"no","cash_in_support":"no","withdrawal_limit":25000,"ward_no":"047","ward_name":"SARDAR VALLABHBHAI"},{"latitude":22.72562635,"longitude":75.89280017,"amenity":"atm","name":"Union Bank","name_hindi":"यूनियन बैंक","address":"Navneet Darshan Building, Old Palasia, Greater Kailash Hospital Road, Indore","opening_hours":"24/7","number_of_machines":3,"atm_guard":"yes","cash_in_support":"yes","withdrawal_limit":20000,"ward_no":"043","ward_name":"SHRINAGAR"},{"latitude":22.718925,"longitude":75.886715,"amenity":"atm","name":"Union Bank","name_hindi":"यूनियन बैंक","address":"Near Geeta Bhawan Temple, Indore","opening_hours":"24/7","number_of_machines":4,"atm_guard":"yes","cash_in_support":"yes","withdrawal_limit":25000,"ward_no":"048","ward_name":"GITA BHAVAN"},{"latitude":22.72295964,"longitude":75.84827241,"amenity":"atm","name":"Union Bank","name_hindi":"यूनियन बैंक","address":"Netaji Subhash Marg, Choti Paltan Police Line, Arjun Paltan, Maharaja Tukoji Rao Holker Cloth Market, Indore","opening_hours":"24/7","number_of_machines":1,"atm_guard":"no","cash_in_support":"no","withdrawal_limit":25000,"ward_no":"007","ward_name":"JANTA COLONY"},{"latitude":22.71989389,"longitude":75.84440779,"amenity":"atm","name":"Union Bank","name_hindi":"यूनियन बैंक","address":"453, M.G. Road, Malhar Ganj, Indore","opening_hours":"24/7","number_of_machines":1,"atm_guard":"no","cash_in_support":"no","withdrawal_limit":25000,"ward_no":"006","ward_name":"MALHARGANJ"},{"latitude":22.69643333,"longitude":75.83918167,"amenity":"atm","name":"Union Bank","name_hindi":"यूनियन बैंक","address":"Bajaj Tower, 726, Annapurna Rd, Usha Nagar Extension, Usha Nagar, Sudama Nagar, Indore","opening_hours":"24/7","number_of_machines":1,"atm_guard":"yes","cash_in_support":"no","withdrawal_limit":25000,"ward_no":"071","ward_name":"DRAVID NAGAR"},{"latitude":22.69006,"longitude":75.86407,"amenity":"atm","name":"Union Bank","name_hindi":"यूनियन बैंक","address":"Vishnu Puri, Bhawarkua AB Road, Indore","opening_hours":"24/7","number_of_machines":2,"atm_guard":"yes","cash_in_support":"yes","withdrawal_limit":25000,"ward_no":"074","ward_name":"VISHNAPURI"},{"latitude":22.7221131,"longitude":75.83410185,"amenity":"atm","name":"Union Bank","name_hindi":"यूनियन बैंक","address":"19, Airport Road , Vidhyanchal Nagar","opening_hours":"24/7","number_of_machines":1,"atm_guard":"no","cash_in_support":"no","withdrawal_limit":20000,"ward_no":"006","ward_name":"MALHARGANJ"},{"latitude":22.75109839,"longitude":75.8492176,"amenity":"atm","name":"Union Bank","name_hindi":"यूनियन बैंक","address":"Barh Ganga Bridge","opening_hours":"24/7","number_of_machines":1,"atm_guard":"no","cash_in_support":"no","withdrawal_limit":25000,"ward_no":"018","ward_name":"SANT KABIR"},{"latitude":22.76447927,"longitude":75.92048519,"amenity":"atm","name":"Union Bank","name_hindi":"यूनियन बैंक","address":"SS Aagan,Deep Palace colony, Tulsi Nagar, Mahalakshmi Nagar, Indore","opening_hours":"24/7","number_of_machines":3,"atm_guard":"no","cash_in_support":"yes","withdrawal_limit":25000,"ward_no":"036","ward_name":"NIPANIYA"},{"latitude":22.73816237,"longitude":75.791901,"amenity":"atm","name":"Union Bank","name_hindi":"यूनियन बैंक","address":"Bahubali Nagar Main Road, Near Shaheed Mangal Pandey Dwar, Gandhi Nagar, Indore","opening_hours":"24/7","number_of_machines":1,"atm_guard":"no","cash_in_support":"no","withdrawal_limit":25000},{"latitude":22.79187,"longitude":75.847095,"amenity":"atm","name":"Union Bank","name_hindi":"यूनियन बैंक","address":"Sanwer Road, Luv Kush Square, Opposite Riddhi Siddhi Motors, Indore","opening_hours":"24/7","number_of_machines":1,"atm_guard":"no","cash_in_support":"no","withdrawal_limit":25000,"ward_no":"018","ward_name":"SANT KABIR"},{"latitude":22.76866472,"longitude":75.89260435,"amenity":"atm","name":"Union Bank ATM","name_hindi":"यूनियन बैंक ए टी एम","address":"1140,Main Road,Scheme no. 78,Indore","opening_hours":"Mo-Su 06:00-22:00","number_of_machines":4,"atm_guard":"yes","cash_in_support":"yes","withdrawal_limit":20000,"ward_no":"034","ward_name":"SHAHID BHAGATSINGH"},{"latitude":22.73181029,"longitude":75.8899327,"amenity":"atm","name":"Union Bank ATM","name_hindi":"यूनियन बैंक ए टी एम","address":"Fortuna Building ,Opposite CHL Hospital Anoop Nagar ,Indore","opening_hours":"24/7","number_of_machines":2,"atm_guard":"no","cash_in_support":"no","withdrawal_limit":20000,"ward_no":"043","ward_name":"SHRINAGAR"},{"latitude":22.74273,"longitude":75.876085,"amenity":"atm","name":"Union Bank ATM","name_hindi":"यूनियन बैंक ए टी एम","address":"Near Inspire, Murai Mohalla, 6/1, Chhawni Rd, Ushaganj, Jaora Compound, Indore","opening_hours":"24/7","number_of_machines":3,"atm_guard":"yes","cash_in_support":"yes","withdrawal_limit":25000,"ward_no":"025","ward_name":"NANDA NAGAR"},{"latitude":22.71447167,"longitude":75.84932667,"amenity":"atm","name":"Union Bank ATM","name_hindi":"यूनियन बैंक ए टी एम","address":"Narsingh Bazar, Chhatribagh Main Road, Indore","opening_hours":"Mo-Sa 09:00-17:00","number_of_machines":2,"atm_guard":"yes","cash_in_support":"yes","withdrawal_limit":20000,"ward_no":"069","ward_name":"JAWAHAR MARG"},{"latitude":22.72138496,"longitude":75.8974578,"amenity":"atm","name":"Union Bank of India","name_hindi":"यूनियन बैंक ऑफ इंडिया","address":"125, Kanadiya Road","opening_hours":"24/7","number_of_machines":1,"atm_guard":"no","cash_in_support":"no","withdrawal_limit":20000,"ward_no":"042","ward_name":"SWAMI VIVEKANAND"},{"latitude":22.69949667,"longitude":75.86679833,"amenity":"atm","name":"Union Bank of India","name_hindi":"यूनियन बैंक ऑफ इंडिया","address":"30, Snehnagar Main Road, Opposite Sapna Sangeeta, Sindhi Colony","opening_hours":"24/7","number_of_machines":4,"atm_guard":"yes","cash_in_support":"yes","withdrawal_limit":25000,"ward_no":"063","ward_name":"NAVLAKHA"},{"latitude":22.72587657,"longitude":75.86779664,"amenity":"atm","name":"Union Bank Of India","name_hindi":"यूनियन बैंक ऑफ इंडिया","address":"Mall Godam Road, Patthar Godowm Road, Snehlata Ganj, Main Road, Indore","opening_hours":"24/7","number_of_machines":3,"atm_guard":"yes","cash_in_support":"yes","withdrawal_limit":25000,"ward_no":"056","ward_name":"SNEHALATA GANJ"},{"latitude":22.72786392,"longitude":75.88501814,"amenity":"atm","name":"Union Bank of India ATM","name_hindi":"यूनियन बैंक ऑफ इंडिया ए टी एम","address":"107, West Business Center, New Palasiya","opening_hours":"24/7","number_of_machines":1,"atm_guard":"no","cash_in_support":"no","withdrawal_limit":20000,"ward_no":"043","ward_name":"SHRINAGAR"},{"latitude":22.697665,"longitude":75.85460333,"amenity":"atm","name":"United Bank of India","name_hindi":"यूनाईटेड बैंक ऑफ इंडिया","address":"Gulzar Colony, Manik Bagh Road","opening_hours":"24/7","number_of_machines":1,"atm_guard":"no","cash_in_support":"no","withdrawal_limit":25000,"ward_no":"073","ward_name":"LAXMANSINGH CHAUHAN"},{"latitude":22.75313333,"longitude":75.896555,"amenity":"atm","name":"Utkarsh Small Finance Bank","name_hindi":"उत्कर्ष स्माल फाइनेंस बैंक","address":"1st Floor, Mangal City Hotel, AB Road, Vijaynagar, Indore","opening_hours":"24/7","number_of_machines":1,"atm_guard":"yes","cash_in_support":"no","withdrawal_limit":10000,"ward_no":"031","ward_name":"MAHARAJA CHATRASAL"},{"latitude":22.75398667,"longitude":75.8838,"amenity":"atm","name":"Vijaya Bank","name_hindi":"विजया बैंक एटीएम","address":"Em-37,Vijaya Bank,\n Scheme 54,Vijay Nagar,Indore","opening_hours":"24/7","number_of_machines":1,"atm_guard":"no","cash_in_support":"no","withdrawal_limit":10000,"ward_no":"029","ward_name":"DR. SHYAM PRASAD MUKHARJI"},{"latitude":22.72957982,"longitude":75.89726753,"amenity":"atm","name":"Vijaya Bank","name_hindi":"विजया बैंक एटीएम","address":"201, Ashiyana Business Centre, Chandra lok Square, Indore","opening_hours":"24/7","number_of_machines":1,"atm_guard":"no","cash_in_support":"no","withdrawal_limit":50000,"ward_no":"042","ward_name":"SWAMI VIVEKANAND"},{"latitude":22.69920667,"longitude":75.866345,"amenity":"atm","name":"Vijaya Bank","name_hindi":"विजया बैंक एटीएम","address":"32, Sapna Sangeeta Road, Snehnagar","opening_hours":"24/7","number_of_machines":1,"atm_guard":"no","cash_in_support":"no","withdrawal_limit":50000,"ward_no":"063","ward_name":"NAVLAKHA"},{"latitude":22.752945,"longitude":75.89647167,"amenity":"atm","name":"Yes Bank","name_hindi":"येस बैंक","address":"1st floor Mangal City Hotel, AB Road, VijayNagar, Indore","opening_hours":"24/7","number_of_machines":1,"atm_guard":"no","cash_in_support":"yes","withdrawal_limit":15000,"ward_no":"031","ward_name":"MAHARAJA CHATRASAL"},{"latitude":22.72234608,"longitude":75.88026527,"amenity":"atm","name":"Yes Bank","name_hindi":"येस बैंक","address":"9/1/1,Suraj Tower, Mahatma Gandhi Road, Near Treasure Island, New Palasia","opening_hours":"Mo-fr 09:30-17:00","number_of_machines":2,"atm_guard":"yes","cash_in_support":"yes","withdrawal_limit":25000,"ward_no":"047","ward_name":"SARDAR VALLABHBHAI"},{"latitude":22.71929435,"longitude":75.84916579,"amenity":"atm","name":"Yes Bank","name_hindi":"येस बैंक","address":"R.M. Tower, Gorakunj Chauraha, M.T. Cloth Market, Indore","opening_hours":"24/7","number_of_machines":1,"atm_guard":"yes","cash_in_support":"no","withdrawal_limit":25000,"ward_no":"069","ward_name":"JAWAHAR MARG"},{"latitude":22.74553333,"longitude":75.89282167,"amenity":"atm","name":"Yono SBI","name_hindi":"योनो ऐस बी आई","address":"293, Satyaraj Complex, Agra Bombay Road, Scheme No.54","opening_hours":"24/7","number_of_machines":2,"atm_guard":"yes","cash_in_support":"yes","withdrawal_limit":20000,"ward_no":"029","ward_name":"DR. SHYAM PRASAD MUKHARJI"}]}