{"bus_stops":[{"latitude":22.75098,"longitude":75.89468,"amenity":"bus_stop","stops_info/name":"Vijyanagar Bus Stop","stops_info/connectivity":"local","stops_info/route_number":"17,M-25,12,5,4","ward_no":"29","ward_name":"DR. SHYAM PRASAD MUKHARJI"},{"latitude":22.75258,"longitude":75.88841,"amenity":"bus_stop","stops_info/name":"Meghdoot Garden","stops_info/connectivity":"local","stops_info/route_number":"14,5,4","ward_no":"28","ward_name":"MA TULJA BHAVANI"},{"latitude":22.75331,"longitude":75.88485,"amenity":"bus_stop","stops_info/name":"Fortune Landmark","stops_info/connectivity":"local","stops_info/route_number":"4,5,17","ward_no":"28","ward_name":"MA TULJA BHAVANI"},{"latitude":22.7545,"longitude":75.88084,"amenity":"bus_stop","stops_info/name":"Bharat Mata Stop","stops_info/connectivity":"local","ward_no":"29","ward_name":"DR. SHYAM PRASAD MUKHARJI"},{"latitude":22.75288,"longitude":75.88801,"amenity":"bus_stop","stops_info/name":"Meghdoot Garden","stops_info/connectivity":"local","stops_info/route_number":"4,5,17","ward_no":"29","ward_name":"DR. SHYAM PRASAD MUKHARJI"},{"latitude":22.75146,"longitude":75.89468,"amenity":"bus_stop","stops_info/name":"Vijyanagar Police Station","stops_info/connectivity":"local","ward_no":"29","ward_name":"DR. SHYAM PRASAD MUKHARJI"},{"latitude":22.76614,"longitude":75.90029,"amenity":"bus_stop","stops_info/name":"Scheme No. 78 I bus stop","stops_info/connectivity":"local","ward_no":"31","ward_name":"MAHARAJA CHATRASAL"},{"latitude":22.7624,"longitude":75.89908,"amenity":"bus_stop","stops_info/name":"Shalimar Township I bus","stops_info/connectivity":"local","ward_no":"31","ward_name":"MAHARAJA CHATRASAL"},{"latitude":22.75534,"longitude":75.89628,"amenity":"bus_stop","stops_info/name":"Satya Sai Square","stops_info/connectivity":"local","stops_info/route_number":"18,23,24","ward_no":"29","ward_name":"DR. SHYAM PRASAD MUKHARJI"},{"latitude":22.73453,"longitude":75.89022,"amenity":"bus_stop","stops_info/name":"LIG I Bus Stop","stops_info/connectivity":"local","ward_no":"45","ward_name":"DR. BHIMRAO AMBEDAR"},{"latitude":22.73731,"longitude":75.89108,"amenity":"bus_stop","stops_info/name":"Press Complex I Bus Stop","stops_info/connectivity":"local","ward_no":"44","ward_name":"H.I.G."},{"latitude":22.72916,"longitude":75.88878,"amenity":"bus_stop","stops_info/name":"Industry House I bus Stop","stops_info/connectivity":"local","ward_no":"43","ward_name":"SHRINAGAR"},{"latitude":22.72487,"longitude":75.88716,"amenity":"bus_stop","stops_info/name":"Palasia I Bus Stop","stops_info/connectivity":"local","ward_no":"48","ward_name":"GITA BHAVAN"},{"latitude":22.74934,"longitude":75.89484,"amenity":"bus_stop","stops_info/name":"I bus Stop Vijay Nagar","stops_info/connectivity":"local","ward_no":"29","ward_name":"DR. SHYAM PRASAD MUKHARJI"},{"latitude":22.75186,"longitude":75.89128,"amenity":"bus_stop","stops_info/name":"Sayaji Petrol Pump","stops_info/connectivity":"local","stops_info/route_number":"14,5,4","ward_no":"29","ward_name":"DR. SHYAM PRASAD MUKHARJI"},{"latitude":22.75537,"longitude":75.87819,"amenity":"bus_stop","stops_info/name":"Bapat Square","stops_info/connectivity":"local","stops_info/route_number":"4,5,17","ward_no":"22","ward_name":"PANDIT DINDAYAL UPADHYAY"},{"latitude":22.75218,"longitude":75.89104,"amenity":"bus_stop","stops_info/name":"Sayaji VijayNagar","stops_info/connectivity":"local","stops_info/route_number":"10,31,66","ward_no":"29","ward_name":"DR. SHYAM PRASAD MUKHARJI"},{"latitude":22.75469,"longitude":75.89634,"amenity":"bus_stop","stops_info/name":"Satya Sai Ibus Stop","stops_info/connectivity":"local","ward_no":"29","ward_name":"DR. SHYAM PRASAD MUKHARJI"},{"latitude":22.77061,"longitude":75.90162,"amenity":"bus_stop","stops_info/name":"Niranjanpur Ibus Stop","stops_info/connectivity":"local","ward_no":"31","ward_name":"MAHARAJA CHATRASAL"},{"latitude":22.74343,"longitude":75.89334,"amenity":"bus_stop","stops_info/name":"MR 9 Ibus Stop","stops_info/connectivity":"local","ward_no":"44","ward_name":"H.I.G."},{"latitude":22.72673,"longitude":75.88058,"amenity":"bus_stop","stops_info/name":"Janjeervala Square Stop","stops_info/connectivity":"local","stops_info/route_number":13,"ward_no":"47","ward_name":"SARDAR VALLABHBHAI"},{"latitude":22.75317,"longitude":75.90427,"amenity":"bus_stop","stops_info/name":"Bombay Hospital Bus Stoo","stops_info/connectivity":"local","ward_no":"37","ward_name":"SAI KRUPA"},{"latitude":22.77133,"longitude":75.90153,"amenity":"bus_stop","stops_info/name":"Niranjanpur Chauraha Bus Stop","stops_info/connectivity":"local","ward_no":"34","ward_name":"SHAHID BHAGATSINGH"},{"latitude":22.74857,"longitude":75.90353,"amenity":"bus_stop","stops_info/name":"Malviya Petrol Pump Bus Stop","stops_info/connectivity":"local","stops_info/route_number":"5,M-31","ward_no":"37","ward_name":"SAI KRUPA"},{"latitude":22.7454,"longitude":75.90308,"amenity":"bus_stop","stops_info/name":"Near Velocity Bus Stop","stops_info/connectivity":"local","ward_no":"37","ward_name":"SAI KRUPA"},{"latitude":22.73975,"longitude":75.90237,"amenity":"bus_stop","stops_info/name":"Robot Square Stop","stops_info/connectivity":"local","ward_no":"37","ward_name":"SAI KRUPA"},{"latitude":22.73222,"longitude":75.90197,"amenity":"bus_stop","stops_info/name":"Khajrana Square Bus Stop","stops_info/connectivity":"local","ward_no":"42","ward_name":"SWAMI VIVEKANAND"},{"latitude":22.72311,"longitude":75.89334,"amenity":"bus_stop","stops_info/name":"City Bus Stop-Patrakar Choraha","stops_info/connectivity":"local","stops_info/route_number":9,"ward_no":"42","ward_name":"SWAMI VIVEKANAND"},{"latitude":22.7177,"longitude":75.87964,"amenity":"bus_stop","stops_info/name":"City Bus Stop-Opposite Dhakkan wala Kua School","stops_info/connectivity":"local","ward_no":"55","ward_name":"SAUTH TUKOGANJ"},{"latitude":22.71762,"longitude":75.87967,"amenity":"bus_stop","stops_info/name":"City Bus Stop-Near DhakkanWala Kua School","stops_info/connectivity":"local","ward_no":"55","ward_name":"SAUTH TUKOGANJ"},{"latitude":22.72109,"longitude":75.87617,"amenity":"bus_stop","stops_info/name":"City Bus Stop-Near Samrat Hotel","stops_info/connectivity":"local","ward_no":"55","ward_name":"SAUTH TUKOGANJ"},{"latitude":22.72025,"longitude":75.87221,"amenity":"bus_stop","stops_info/name":"City Bus Stop-Opposite Pakiza","stops_info/connectivity":"local","ward_no":"55","ward_name":"SAUTH TUKOGANJ"},{"latitude":22.7175,"longitude":75.87261,"amenity":"bus_stop","stops_info/name":"City Bus Stop-Near University(R.N.T)","stops_info/connectivity":"local","ward_no":"55","ward_name":"SAUTH TUKOGANJ"},{"latitude":22.69195,"longitude":75.86796,"amenity":"bus_stop","stops_info/name":"Bhanwarkua","stops_info/connectivity":"local","stops_info/route_number":"M-19 M-32","ward_no":"74","ward_name":"VISHNAPURI"},{"latitude":22.69186,"longitude":75.86829,"amenity":"bus_stop","stops_info/name":"Bhanwarkua bus stop","stops_info/connectivity":"local","stops_info/route_number":"5, M-4, M-19, M-32,","ward_no":"64","ward_name":"CHITAVAD"},{"latitude":22.68873,"longitude":75.87076,"amenity":"bus_stop","stops_info/name":"DAVV Bus Stop","stops_info/connectivity":"local","stops_info/route_number":"M-19, M-32","ward_no":"64","ward_name":"CHITAVAD"},{"latitude":22.686,"longitude":75.87296,"amenity":"bus_stop","stops_info/name":"IT Park","stops_info/connectivity":"local","stops_info/route_number":"M-19, M-32","ward_no":"64","ward_name":"CHITAVAD"},{"latitude":22.68583,"longitude":75.87288,"amenity":"bus_stop","stops_info/name":"IT Park Bus Stop","stops_info/connectivity":"local","stops_info/route_number":"5, M-19, M32, M-6","ward_no":"74","ward_name":"VISHNAPURI"},{"latitude":22.68912,"longitude":75.88427,"amenity":"bus_stop","stops_info/name":"3 Imli","stops_info/connectivity":"local","stops_info/route_number":5,"ward_no":"64","ward_name":"CHITAVAD"},{"latitude":22.69296,"longitude":75.90014,"amenity":"bus_stop","stops_info/name":"Musakhedi Chauraha","stops_info/connectivity":"interstate","ward_no":"54","ward_name":"RESIDENCY"},{"latitude":22.66843,"longitude":75.882,"amenity":"bus_stop","stops_info/name":"Limbodi","stops_info/connectivity":"intercity","ward_no":"77","ward_name":"BILAWALI"},{"latitude":22.69499,"longitude":75.87183,"amenity":"bus_stop","stops_info/name":"BRTS Holkar/GACC College","stops_info/connectivity":"local","ward_no":"65","ward_name":"SANT KANWARRAM"},{"latitude":22.69188,"longitude":75.86686,"amenity":"bus_stop","stops_info/name":"BRTS bhanwarkua","stops_info/connectivity":"local","ward_no":"74","ward_name":"VISHNAPURI"},{"latitude":22.68939,"longitude":75.86417,"amenity":"bus_stop","stops_info/name":"BRTS Vishnupuri","stops_info/connectivity":"local","ward_no":"74","ward_name":"VISHNAPURI"},{"latitude":22.68653,"longitude":75.86135,"amenity":"bus_stop","stops_info/name":"BRTS Mata Gujri College","stops_info/connectivity":"local","ward_no":"74","ward_name":"VISHNAPURI"},{"latitude":22.72281,"longitude":75.87392,"amenity":"bus_stop","stops_info/name":"Y N Road Bus Stop","stops_info/connectivity":"local","ward_no":"47","ward_name":"SARDAR VALLABHBHAI"},{"latitude":22.72517,"longitude":75.87422,"amenity":"bus_stop","stops_info/name":"SGSITS Square Bus Stop","stops_info/connectivity":"local","ward_no":"47","ward_name":"SARDAR VALLABHBHAI"},{"latitude":22.72519,"longitude":75.87436,"amenity":"bus_stop","stops_info/name":"SGSITS Bus Stop","stops_info/connectivity":"local","ward_no":"47","ward_name":"SARDAR VALLABHBHAI"},{"latitude":22.72504,"longitude":75.87516,"amenity":"bus_stop","stops_info/name":"Lantern Square Bus Stop","stops_info/connectivity":"local","ward_no":"47","ward_name":"SARDAR VALLABHBHAI"},{"latitude":22.726,"longitude":75.87947,"amenity":"bus_stop","stops_info/name":"Janjeerwala Square Bus Stop","stops_info/connectivity":"local","ward_no":"47","ward_name":"SARDAR VALLABHBHAI"},{"latitude":22.72499,"longitude":75.8753,"amenity":"bus_stop","stops_info/name":"Latern Square Bus Stop","stops_info/connectivity":"local","ward_no":"47","ward_name":"SARDAR VALLABHBHAI"},{"latitude":22.72561,"longitude":75.88812,"amenity":"bus_stop","stops_info/name":"City Bus Stop Palasia","stops_info/connectivity":"local","ward_no":"43","ward_name":"SHRINAGAR"},{"latitude":22.72484,"longitude":75.88703,"amenity":"bus_stop","stops_info/name":"AICTSL Palasia","stops_info/connectivity":"local","ward_no":"43","ward_name":"SHRINAGAR"},{"latitude":22.71904,"longitude":75.88447,"amenity":"bus_stop","stops_info/name":"AICTSL Geeta Bhawan","stops_info/connectivity":"local","ward_no":"48","ward_name":"GITA BHAVAN"},{"latitude":22.71451,"longitude":75.88377,"amenity":"bus_stop","stops_info/name":"AICTSL MGM Medical College","stops_info/connectivity":"local","ward_no":"48","ward_name":"GITA BHAVAN"},{"latitude":22.7142,"longitude":75.88418,"amenity":"bus_stop","stops_info/name":"Atal Indore City Transport","stops_info/connectivity":"interstate","ward_no":"48","ward_name":"GITA BHAVAN"},{"latitude":22.70762,"longitude":75.9004,"amenity":"bus_stop","stops_info/name":"Gram Piplyahana Bus Stop","stops_info/connectivity":"local","ward_no":"50","ward_name":"BRAJESHVARI"},{"latitude":22.71097,"longitude":75.8811,"amenity":"bus_stop","stops_info/name":"M Y Tempo Stand Bus Stop","stops_info/connectivity":"local","ward_no":"55","ward_name":"SAUTH TUKOGANJ"},{"latitude":22.71125,"longitude":75.88205,"amenity":"bus_stop","stops_info/name":"AICTSL Shivaji Vatika","stops_info/connectivity":"local","ward_no":"55","ward_name":"SAUTH TUKOGANJ"},{"latitude":22.71226,"longitude":75.88088,"amenity":"bus_stop","stops_info/name":"M Y bus stop","stops_info/connectivity":"local","ward_no":"55","ward_name":"SAUTH TUKOGANJ"},{"latitude":22.71359,"longitude":75.87713,"amenity":"bus_stop","stops_info/name":"M Y bus Stop","stops_info/connectivity":"local","ward_no":"55","ward_name":"SAUTH TUKOGANJ"},{"latitude":22.71308,"longitude":75.87858,"amenity":"bus_stop","stops_info/name":"M Y Gate Bus Stop","stops_info/connectivity":"local","ward_no":"55","ward_name":"SAUTH TUKOGANJ"},{"latitude":22.71232,"longitude":75.88083,"amenity":"bus_stop","stops_info/name":"M Y Square Bus Stop","stops_info/connectivity":"local","ward_no":"55","ward_name":"SAUTH TUKOGANJ"},{"latitude":22.72354,"longitude":75.88549,"amenity":"bus_stop","stops_info/name":"Bus Stop Opposite 56 Dukan","stops_info/connectivity":"local","ward_no":"55","ward_name":"SAUTH TUKOGANJ"},{"latitude":22.72361,"longitude":75.88505,"amenity":"bus_stop","stops_info/name":"Bus Stop 56 Dukan","stops_info/connectivity":"local","ward_no":"47","ward_name":"SARDAR VALLABHBHAI"},{"latitude":22.7248,"longitude":75.88694,"amenity":"bus_stop","stops_info/name":"AICTSL palasia","stops_info/connectivity":"local","ward_no":"43","ward_name":"SHRINAGAR"}]}