{"dentists":[{"poi":"22.75712103 75.90883899 493.0 4.5509996","latitude":22.75712103,"longitude":75.90883899,"altittude":493,"amenity":"dental_clinic","operator":"private","name":"Dr. Rashmi Dental Clinic","name_hindi":"#N/A","address":"R-01, Mahalakshmi Nagar, Indore","mobile":9754007077,"opening_hours":"Mo-Sa 11:00-14:00 ; 18:00-20:30","personnel_count":1,"rate_list":"no","ward_no":"036","ward_name":"NIPANIYA"},{"poi":"22.75555668 75.90742461 504.0 4.5509996","latitude":22.75555668,"longitude":75.90742461,"altittude":504,"amenity":"dental_clinic","operator":"private","name":"Pc Dental Clinic","name_hindi":"#N/A","address":"51-A Mahalakshmi Nagar Indore","mobile":9644068334,"opening_hours":"Mo-Sa 09:00-13:30 ; 18:00-21:00","personnel_count":1,"rate_list":"no","ward_no":"037","ward_name":"SAI KRUPA"},{"poi":"22.75260303 75.89063215 481.9630126953125 4.288","latitude":22.75260303,"longitude":75.89063215,"altittude":481.9630127,"amenity":"dental_clinic","operator":"private","name":"Care Dental Clinic & Implant Center","name_hindi":"#N/A","address":"Royal Gallery, Vijay Nagar","mobile":9827022331,"opening_hours":"Mo-Sa 16:30-20:30","personnel_count":2,"rate_list":"no","ward_no":"029","ward_name":"DR. SHYAM PRASAD MUKHARJI"},{"poi":"22.76941359 75.8796419 486.35882568359375 4.288","latitude":22.76941359,"longitude":75.8796419,"altittude":486.3588257,"amenity":"dental_clinic","operator":"private","name":"Atharv Dental Clinic","name_hindi":"#N/A","address":"88-C Kabid Khedi","mobile":9893999897,"opening_hours":"Mo-Fr 11:00-14:00; 18:30-21:00","personnel_count":1,"rate_list":"no","ward_no":"033","ward_name":"SUKHLIYA"},{"poi":"22.75664898 75.88874113 489.0 4.5509996","latitude":22.75664898,"longitude":75.88874113,"altittude":489,"amenity":"dental_clinic","operator":"private","name":"Dental Clinic","name_hindi":"डेंटल क्लीनिक","address":"Flat 102,Ankur Avenue,Vijay Nagar,Indore","phone":7315024250,"opening_hours":"Mo-Sa 10:00-13:00;17:00-20:30","personnel_count":5,"rate_list":"no","ward_no":"029","ward_name":"DR. SHYAM PRASAD MUKHARJI"},{"poi":"22.75641233 75.88928072 499.0 4.5509996","latitude":22.75641233,"longitude":75.88928072,"altittude":499,"amenity":"dental_clinic","operator":"private","name":"Surana Dental Clinic","name_hindi":"#N/A","address":"Gf-07, First Floor, Above Indian Bank, Scheme No.54, Vijay Nagar, Indore","phone":7312571793,"mobile":9425921793,"opening_hours":"Mo-Sa 10:00-13:00;14:00-20:00","personnel_count":4,"rate_list":"no","ward_no":"029","ward_name":"DR. SHYAM PRASAD MUKHARJI"},{"poi":"22.75688942 75.88931095 491.0 4.5509996","latitude":22.75688942,"longitude":75.88931095,"altittude":491,"amenity":"dental_clinic","operator":"private","name":"Perfect Dental Solutions","name_hindi":"#N/A","address":"295 Bg Scheme No. 54,Vijay Nagar,Indore","mobile":7771877730,"opening_hours":"Mo-Sa 10:00-14:00;17:30-20:30","personnel_count":4,"rate_list":"no","ward_no":"029","ward_name":"DR. SHYAM PRASAD MUKHARJI"},{"poi":"22.75581822 75.89209776 480.0 4.5509996","latitude":22.75581822,"longitude":75.89209776,"altittude":480,"amenity":"dental_clinic","operator":"private","name":"Muskaan Dental & Orthodontic Clinic","name_hindi":"#N/A","address":"Ag 152,Main 54 No Road,Vijay Nagar,Indore","mobile":9827231679,"opening_hours":"Mo-Sa 10:30-13:00;17:00;-20:30","personnel_count":5,"rate_list":"no","ward_no":"029","ward_name":"DR. SHYAM PRASAD MUKHARJI"},{"poi":"22.75712303 75.89824816 489.0 4.5509996","latitude":22.75712303,"longitude":75.89824816,"altittude":489,"amenity":"dental_clinic","operator":"private","name":"Dental Perfection","name_hindi":"#N/A","address":"A-9, Basant Vihar, A.B. Road, Bh. Satya Sai School, Indore","phone":7313554808,"mobile":9926280808,"opening_hours":"Mo-Sa 17:00-21:00","personnel_count":6,"rate_list":"no","ward_no":"031","ward_name":"MAHARAJA CHATRASAL"},{"poi":"22.7543721 75.90567014 521.0 4.5509996","latitude":22.7543721,"longitude":75.90567014,"altittude":521,"amenity":"dental_clinic","operator":"private","name":"Shubham Dental Clinic","name_hindi":"#N/A","address":"Plot No 159, Amardarshan Apartment, Chikitsak Nagar Road, Vijay Nagar, Indore( Opp. Bombay Hospital)","mobile":9826927632,"opening_hours":"Su-Sa 10:00-13:00; 17:00-21:00","personnel_count":2,"rate_list":"no","ward_no":"037","ward_name":"SAI KRUPA"},{"poi":"22.75377302 75.90795247 509.0 4.5509996","latitude":22.75377302,"longitude":75.90795247,"altittude":509,"amenity":"dental_clinic","operator":"private","name":"Dr. Prena Raje Batham","name_hindi":"#N/A","address":"House # I/43, L.I.G. Colony, R.S.S. Nagar, Indore. Indore","phone":918827203786,"opening_hours":"05:30 PM - 08:30 PM","personnel_count":3,"rate_list":"no","ward_no":"037","ward_name":"SAI KRUPA"},{"poi":"22.7538777 75.90827285 471.0 5.0","latitude":22.7538777,"longitude":75.90827285,"altittude":471,"amenity":"dental_clinic","operator":"private","name":"Dr.Arti Rai Dental Clinic","name_hindi":"#N/A","address":"Mahalaxmi Nagar","mobile":9755813311,"opening_hours":"Su-Sa 10:00-13:00; 17:00-20:00","personnel_count":1,"rate_list":"no","ward_no":"037","ward_name":"SAI KRUPA"},{"poi":"22.74155398 75.90017649 488.0 4.5509996","latitude":22.74155398,"longitude":75.90017649,"altittude":488,"amenity":"dental_clinic","operator":"private","name":"Ayushmaan Dental Clinic","name_hindi":"आयुष्मान डेंटल क्लीनिक","address":"118, H S Tower, Doctors Chamber, Shradhhashree Colony, Barfani Dham","mobile":9039690496,"opening_hours":"Sa-Su 10:00-14:30; 17:00-21:00","personnel_count":3,"rate_list":"no","ward_no":"030","ward_name":"SANT RAVIDAS"},{"poi":"22.74250319 75.89458268 508.0 4.5509996","latitude":22.74250319,"longitude":75.89458268,"altittude":508,"amenity":"dental_clinic","operator":"private","name":"Esthetics Dental Clinic","name_hindi":"एस्थेटिक्स डेंटल क्लीनिक","address":"27-A, Normal Section, Chandra Nagar, Mr-9","mobile":9669042047,"opening_hours":"Sa-Su 11:00-14:00;17:00-21:00","personnel_count":2,"rate_list":"no","ward_no":"044","ward_name":"H.I.G."},{"poi":"22.730715583333335 75.8981515 507.756 8.0","latitude":22.73071558,"longitude":75.8981515,"altittude":507.756,"amenity":"dental_clinic","operator":"private","name":"Hari Geet Dental Clinic","name_hindi":"हरि गीत डेंटल क्लिनिक","address":"57, Shri Nagar Extension, Near Suniket Appartment","mobile":9770907205,"opening_hours":"Ma-Sa 10:00-14:00; Mo-Sa 16:00-20:00","personnel_count":4,"rate_list":"no","ward_no":"043","ward_name":"SHRINAGAR"},{"poi":"22.73039344 75.89704705 482.0 4.5509996","latitude":22.73039344,"longitude":75.89704705,"altittude":482,"amenity":"dental_clinic","operator":"private","name":"India Dental & Surgical Solution","name_hindi":"इंडिया डेंटल & सर्जिकल सलूशन","address":"Flat No. 102,Ambika Regency 44,Shree Nagar Extension,Indore","mobile":8770049788,"opening_hours":"Mo-Fr 10:00-19:00","personnel_count":3,"rate_list":"no","ward_no":"043","ward_name":"SHRINAGAR"},{"poi":"22.73066146 75.89887376 481.0 4.5509996","latitude":22.73066146,"longitude":75.89887376,"altittude":481,"amenity":"dental_clinic","operator":"private","name":"Dr. Chauhan'S Dental Clinic","name_hindi":"डॉ चौहान डेंटल क्लिनिक","address":"Suniket Apartment, Khajrana Main Rd, Shree Nagar Ext, Colony, Indore","phone":7314007070,"opening_hours":"Mo-Sa 10:00-13:00;16:30:-20:30","personnel_count":3,"rate_list":"no","ward_no":"043","ward_name":"SHRINAGAR"},{"poi":"22.72853332 75.89706482 524.0 4.5509996","latitude":22.72853332,"longitude":75.89706482,"altittude":524,"amenity":"dental_clinic","operator":"private","name":"Dento Surgical Center","name_hindi":"डेंट सर्जिकल सेन्टर","address":"35 Kalpana Lok Colony,Indore","mobile":9826056487,"opening_hours":"Mo-Sa 10:00-11:00;17:00-20:00","personnel_count":5,"rate_list":"no","ward_no":"042","ward_name":"SWAMI VIVEKANAND"},{"poi":"22.72673649 75.90053425 509.0 4.5509996","latitude":22.72673649,"longitude":75.90053425,"altittude":509,"amenity":"dental_clinic","operator":"private","name":"Kusum Dental Clinic","name_hindi":"कुसुम डेंटल कलनिक","address":"66,Manish Puri Colony,Near Sheatel Nagar,Indore","mobile":9893383468,"opening_hours":"Mo-Fr 10:00-13:00;17:00-20:00","personnel_count":2,"rate_list":"no","ward_no":"042","ward_name":"SWAMI VIVEKANAND"},{"poi":"22.72625861 75.90353688 519.0 4.5509996","latitude":22.72625861,"longitude":75.90353688,"altittude":519,"amenity":"dental_clinic","operator":"private","name":"Multispeciality Dental Clinic","name_hindi":"मल्टीस्पेशलिटी डेंटल कलनिक","address":"A-50 Paliwal Nagar,Indore","mobile":8554974275,"opening_hours":"Mo-Sa 17:00-21:00","personnel_count":2,"rate_list":"no","ward_no":"042","ward_name":"SWAMI VIVEKANAND"},{"poi":"22.72833532 75.89487125 512.0 4.5509996","latitude":22.72833532,"longitude":75.89487125,"altittude":512,"amenity":"dental_clinic","operator":"private","name":"Gambhir Dental Clinic","name_hindi":"गंभीर डेंटल क्लिनिक","address":"Ground Floor,Ronak Towar,Anand Bazar,Indore","mobile":9827067994,"opening_hours":"Mo-Fr 10:00-12:00;19:00-21:00","personnel_count":2,"rate_list":"no","ward_no":"043","ward_name":"SHRINAGAR"},{"poi":"22.72853784 75.89570569 479.0 6.068","latitude":22.72853784,"longitude":75.89570569,"altittude":479,"amenity":"dental_clinic","operator":"private","name":"Ideal Dental Care","name_hindi":"आइडियल डेंटल केअर","address":"19, Baikunth Dham, Khajrana Main Road,Indore","phone":7314274561,"opening_hours":"Mo-Sa 10:00-20:00","personnel_count":13,"rate_list":"no","ward_no":"042","ward_name":"SWAMI VIVEKANAND"},{"poi":"22.73193867 75.88783346 490.0 5.0","latitude":22.73193867,"longitude":75.88783346,"altittude":490,"amenity":"dental_clinic","operator":"private","name":"Patni Family Dental Clinic","name_hindi":"पाटनी फैमिली डेंटल क्लिनिक","address":"A-46 Mig Colony","opening_hours":"Mo-Fr 19:00-21:00\n Su 10:00-13:00","personnel_count":2,"rate_list":"no","ward_no":"045","ward_name":"DR. BHIMRAO AMBEDAR"},{"poi":"22.73510806 75.89785273 488.0 4.5509996","latitude":22.73510806,"longitude":75.89785273,"altittude":488,"amenity":"dental_clinic","operator":"private","name":"Parshva Dental","name_hindi":"पार्श्व डेंटल","address":"E-52, Anurag Nagar, Indore","mobile":9406883679,"opening_hours":"Mo-Sa 10:00-12:00","personnel_count":1,"rate_list":"no","ward_no":"030","ward_name":"SANT RAVIDAS"},{"poi":"22.7390073 75.88085768 479.0 3.0","latitude":22.7390073,"longitude":75.88085768,"altittude":479,"amenity":"dental_clinic","operator":"private","name":"Dentist","name_hindi":"दंत चिकित्सक","address":"Patnipura","mobile":9977783283,"opening_hours":"Mo-Fr 10:00-15:00;18:00-21:00","personnel_count":3,"rate_list":"no","ward_no":"026","ward_name":"JEEN MATA"},{"poi":"22.73902569 75.88076119 475.0 5.0","latitude":22.73902569,"longitude":75.88076119,"altittude":475,"amenity":"dental_clinic","operator":"private","name":"Doctor Wancha Dental Clinic","name_hindi":"\nडॉक्टर वंचा डेंटल क्लीनिक","address":"206, 2Nd Floor,Western Business Center, Above Union Bank Of India,, 1/6 New Palasia, Opposite Cakes & More, Indore","mobile":"098260 21997","opening_hours":"Mo-Fr 10:00-15:00;18:00-21:00","personnel_count":2,"rate_list":"no","ward_no":"026","ward_name":"JEEN MATA"},{"poi":"22.73918226 75.88057642 499.0 5.0","latitude":22.73918226,"longitude":75.88057642,"altittude":499,"amenity":"dental_clinic","operator":"private","name":"Dr Arpit Chopra Dental Clinic","name_hindi":"डॉ अर्पित चोपड़ा डेंटल क्लिनिक","address":"Patnipura Square ,Indore","mobile":9425329457,"opening_hours":"Mo-Sa 10:30-14:00;17:00-21:00","personnel_count":3,"rate_list":"no","ward_no":"026","ward_name":"JEEN MATA"},{"poi":"22.72775423 75.89458156 511.0 4.5509996","latitude":22.72775423,"longitude":75.89458156,"altittude":511,"amenity":"dental_clinic","operator":"private","name":"Complete Dental Solution","name_hindi":"कम्पलीट डेंटल सलूशन","address":"Regal Towar,45 Baikunth Dham Colony,Indore","mobile":9827271337,"opening_hours":"Mo-Sa 11:00-14:00;17:00-21:00","personnel_count":1,"rate_list":"no","ward_no":"043","ward_name":"SHRINAGAR"},{"poi":"22.73582577 75.88372105 486.0 5.0","latitude":22.73582577,"longitude":75.88372105,"altittude":486,"amenity":"dental_clinic","operator":"private","name":"The Dental World","name_hindi":"#N/A","address":"Nehru Nagar","mobile":7247567408,"opening_hours":"Mo-fr 10:00-14:00;16:00-21:00","personnel_count":2,"rate_list":"no","ward_no":"026","ward_name":"JEEN MATA"},{"poi":"22.74977923 75.8744811 482.0 4.5509996","latitude":22.74977923,"longitude":75.8744811,"altittude":482,"amenity":"dental_clinic","operator":"private","name":"Chhabra Dental Clinic","name_hindi":"छाबरा डेंटल क्लिनिक","address":"5,Karasdev Nagar,Indore","mobile":7828876007,"opening_hours":"Mo-Su 10:00-14:00;18:00-21:00","personnel_count":2,"rate_list":"no","ward_no":"027","ward_name":"PASHUPATI NATH"},{"poi":"22.74341743 75.87575493 500.0 4.5509996","latitude":22.74341743,"longitude":75.87575493,"altittude":500,"amenity":"dental_clinic","operator":"private","name":"Elegance Dental Clinic","name_hindi":"एलेगेंस डेंटल क्लिनिक","address":"67/2,Nanda Nagar,Indore","mobile":9009822818,"opening_hours":"Mo-Sa 11:00-13:30;17:30-20:30","personnel_count":2,"rate_list":"no","ward_no":"025","ward_name":"NANDA NAGAR"},{"poi":"22.74283907 75.87542976 492.0 4.5509996","latitude":22.74283907,"longitude":75.87542976,"altittude":492,"amenity":"dental_clinic","operator":"private","name":"Chopra Dental Clinic","name_hindi":"चोपड़ा डेंटल क्लिनिक","address":"Nanda Nagar Main Road,Indore","mobile":9425053654,"opening_hours":"Mo-Sa 10:00-14:00;18:00-22:00","personnel_count":2,"rate_list":"no","ward_no":"025","ward_name":"NANDA NAGAR"},{"poi":"22.74382443 75.87381932 485.0 4.5509996","latitude":22.74382443,"longitude":75.87381932,"altittude":485,"amenity":"dental_clinic","operator":"private","name":"Sharma Dental Clinic","name_hindi":"शर्मा डेंटल क्लिनिक","address":"1/1 ,Teen Pulia Square, Nanda Nagar Main Road,Indore","mobile":9926924399,"opening_hours":"Mo-Sa 10:00-14:00;18:00-21:00","personnel_count":2,"rate_list":"no","ward_no":"024","ward_name":"SANT BALAJI ATH MAHARAJ"},{"poi":"22.74659729 75.872523 479.0 4.5509996","latitude":22.74659729,"longitude":75.872523,"altittude":479,"amenity":"dental_clinic","operator":"private","name":"Cbc Dental Clinic","name_hindi":"सी.बी.सी. डेंटल हॉस्पिटल","address":"108/2,Pardesipura,Indore","mobile":9826263946,"opening_hours":"Mo-Sa 10:30-14:30;18:30-21:30","personnel_count":2,"rate_list":"no","ward_no":"023","ward_name":"SWARGIYA RAJESH JOSHI"},{"poi":"22.74671813 75.87221627 490.0 6.068","latitude":22.74671813,"longitude":75.87221627,"altittude":490,"amenity":"dental_clinic","operator":"private","name":"Dental Hospital","name_hindi":"दाँतों का अस्पताल","address":"44/1,Pardesipura Tulsi Complex,Indore","mobile":9406615965,"opening_hours":"Mo-Sa 10:30-14:30;17:30-21:00","personnel_count":2,"rate_list":"no","ward_no":"023","ward_name":"SWARGIYA RAJESH JOSHI"},{"poi":"22.7394262 75.88074648 500.7694091796875 9.648001","latitude":22.7394262,"longitude":75.88074648,"altittude":500.7694092,"amenity":"dental_clinic","operator":"private","name":"Dev Dental And Smile Clinic","name_hindi":"देव दंत और मुस्कान क्लिनिक","address":"Patnipura Main Road","mobile":9630696800,"opening_hours":"Mo-Sa 10:00-13:30;17:30-21:00","personnel_count":2,"rate_list":"no","ward_no":"026","ward_name":"JEEN MATA"},{"poi":"22.7389231 75.88247361 497.74462890625 3.216","latitude":22.7389231,"longitude":75.88247361,"altittude":497.7446289,"amenity":"dental_clinic","operator":"private","name":"Maa Narmada Dental Clinic","name_hindi":"माँ नर्मदा डेंटल क्लिनिक","address":"Jagjivan Ram Nagar","mobile":7869023119,"opening_hours":"11:00-14:00;17:30-21:30","personnel_count":1,"rate_list":"no","ward_no":"044","ward_name":"H.I.G."},{"poi":"22.73175666666667 75.87523166666666 533.4 5.6","latitude":22.73175667,"longitude":75.87523167,"altittude":533.4,"amenity":"dental_clinic","operator":"private","name":"Dr Asmita Hawaldar","name_hindi":"ङा अस्मिता हवलदार","address":"19/1, Silver Estate Apartment Y N Road Indore","phone":7314030755,"mobile":9893975958,"opening_hours":"Mo-Sa10:30-14:00; 17:30-20:30","personnel_count":1,"rate_list":"no","ward_no":"047","ward_name":"SARDAR VALLABHBHAI"},{"poi":"22.73829522 75.88310658 494.3497314453125 3.216","latitude":22.73829522,"longitude":75.88310658,"altittude":494.3497314,"amenity":"dental_clinic","operator":"private","name":"Dental Braces","name_hindi":"चिकित्सकीय ब्रेस क्लीनिक","address":"Nehru Nagar Indore","mobile":9669604142,"personnel_count":2,"rate_list":"no","ward_no":"026","ward_name":"JEEN MATA"},{"poi":"22.733408333333333 75.87599166666668 486.9 2.5","latitude":22.73340833,"longitude":75.87599167,"altittude":486.9,"amenity":"dental_clinic","operator":"private","name":"Dr Jyotsna Wadia","name_hindi":"ङा ज्योत्सना वाङिया","address":"In Front Of Chanakya Complex Malwa Mill Square Indore","mobile":7566804313,"opening_hours":"Mo-Sa10:30-13:00 ; 17:30-21:30","personnel_count":2,"rate_list":"no","ward_no":"047","ward_name":"SARDAR VALLABHBHAI"},{"poi":"22.73811767 75.88785147 490.6243896484375 3.216","latitude":22.73811767,"longitude":75.88785147,"altittude":490.6243896,"amenity":"dental_clinic","operator":"private","name":"Tejas Polyclinic","name_hindi":"तेजस पॉलीक्लिनिक","address":"Mig Colony ,Indore","personnel_count":2,"rate_list":"no","ward_no":"045","ward_name":"DR. BHIMRAO AMBEDAR"},{"poi":"22.73212313 75.88801999 499.0 4.5509996","latitude":22.73212313,"longitude":75.88801999,"altittude":499,"amenity":"dental_clinic","operator":"private","name":"Dental & Oroficial Health Centre","name_hindi":"डेंटल & ओरोफिशल हेल्थ सेन्टर","address":"A46 Mig Colony,Indore","mobile":9302341122,"opening_hours":"Mo-Fr 19:00-21:00","personnel_count":1,"rate_list":"no","ward_no":"045","ward_name":"DR. BHIMRAO AMBEDAR"},{"poi":"22.7276499 75.88755748 507.0 5.0","latitude":22.7276499,"longitude":75.88755748,"altittude":507,"amenity":"dental_clinic","operator":"private","name":"Rajeshwari Multispeciality Dental Clinic","name_hindi":"राजेश्वरी मल्टीस्पेशलिटी डेंटल क्लीनिक","address":"Industry House","mobile":9229223035,"opening_hours":"Mon-Sat 17:00-20:30","personnel_count":6,"rate_list":"no","ward_no":"045","ward_name":"DR. BHIMRAO AMBEDAR"},{"poi":"22.72758928 75.88490206 505.0 7.0","latitude":22.72758928,"longitude":75.88490206,"altittude":505,"amenity":"dental_clinic","operator":"private","name":"Dental Excellence Clinic And Implant Centre","name_hindi":"डेंटल एक्सीलेंस क्लीनिक एंड इंप्लांट सेंटर","address":"New Palasiya Road","mobile":9229221015,"opening_hours":"Mon-Sat 11:00-16:00","personnel_count":3,"rate_list":"no","ward_no":"043","ward_name":"SHRINAGAR"},{"poi":"22.73683396 75.9002454 499.0 4.5509996","latitude":22.73683396,"longitude":75.9002454,"altittude":499,"amenity":"dental_clinic","operator":"private","name":"Dental Clinic","name_hindi":"डेंटल क्लीनिक","address":"290, Swarn Bagh Colony, Indore","mobile":9993136216,"opening_hours":"Mo-Sa 10:00-14:00 ; 17:00-21:00","personnel_count":0,"rate_list":"no","ward_no":"037","ward_name":"SAI KRUPA"},{"poi":"22.72713892 75.88337217 506.0 8.0","latitude":22.72713892,"longitude":75.88337217,"altittude":506,"amenity":"dental_clinic","operator":"private","name":"Smile Indore Dental Solutions","name_hindi":"स्माइल इंदौर डेंटल सॉल्यूशंस","address":"The Magnate Building","mobile":9827036881,"opening_hours":"Mon-Sat 10:00-20:00","personnel_count":2,"rate_list":"no","ward_no":"043","ward_name":"SHRINAGAR"},{"poi":"22.72699294 75.88324845 495.0 4.0","latitude":22.72699294,"longitude":75.88324845,"altittude":495,"amenity":"dental_clinic","operator":"private","name":"Shrayas Multispeciality Dental Clinic","name_hindi":"श्रेया मल्टीस्पेशलिटी डेंटल क्लीनिक","address":"Near Corporate Bank, New Palasiya","phone":7314700343,"mobile":9826034340,"opening_hours":"Mon-Sat 12:00-16:00","personnel_count":3,"rate_list":"no","ward_no":"047","ward_name":"SARDAR VALLABHBHAI"},{"poi":"22.72681653 75.88228537 490.0 10.0","latitude":22.72681653,"longitude":75.88228537,"altittude":490,"amenity":"dental_clinic","operator":"private","name":"The Dentist","name_hindi":"द डेंटिस्ट","address":"New Palasiya","phone":7312543132,"mobile":9425066462,"opening_hours":"Mon-Sat 10:00-19:00","personnel_count":4,"rate_list":"no","ward_no":"047","ward_name":"SARDAR VALLABHBHAI"},{"poi":"22.73909833333333 75.88069333333333 551.9 2.4","latitude":22.73909833,"longitude":75.88069333,"altittude":551.9,"amenity":"dental_clinic","operator":"private","name":"Dr Wachha Dental Clinic","name_hindi":"ङा वाछा ङेन्ट्ल क्लिनीक\n","address":"Patnipura Kanhaiya Lal Ki Chaal","mobile":9977783283,"opening_hours":"Mo-Sa 10:00-15:00; 18:00-21:00","personnel_count":2,"rate_list":"no","ward_no":"026","ward_name":"JEEN MATA"},{"poi":"22.74156285 75.90020747 498.6636962890625 4.288","latitude":22.74156285,"longitude":75.90020747,"altittude":498.6636963,"amenity":"dental_clinic","operator":"private","name":"Ayushman Dental Clinic","name_hindi":"आयुष्मान डेंटल क्लिनिक","address":"118 H S Tower Barfani Dham Indore","mobile":9300619220,"opening_hours":"Mo-Sa 10:30-14:30;17:30-21:00 ; Su 11:00-13:00","personnel_count":0,"rate_list":"no","ward_no":"030","ward_name":"SANT RAVIDAS"},{"poi":"22.71666022 75.89593803 521.5969848632812 4.288","latitude":22.71666022,"longitude":75.89593803,"altittude":521.5969849,"amenity":"dental_clinic","operator":"private","name":"Dental Planet","name_hindi":"दंत चिकित्सा ग्रह","address":"45- A Bakthawar Ram Nagar , Near Tilak Nagar , Indore","mobile":9301665066,"opening_hours":"Mo-fr 11:00-20: 30;sa-su 11:00-13:00","personnel_count":4,"rate_list":"no","ward_no":"049","ward_name":"TILAKNAGAR"},{"poi":"22.7162509 75.89644786 535.14990234375 4.288","latitude":22.7162509,"longitude":75.89644786,"altittude":535.1499023,"amenity":"dental_clinic","operator":"private","name":"Dr.Dipali Rathore","name_hindi":"#N/A","address":"C-106, Bakhtawar Ram Nagar, Indore","mobile":9926699647,"opening_hours":"Mo-fr 11:00-13:00","personnel_count":3,"rate_list":"no","ward_no":"049","ward_name":"TILAKNAGAR"},{"poi":"22.71467057 75.89896582 487.4647216796875 4.288","latitude":22.71467057,"longitude":75.89896582,"altittude":487.4647217,"amenity":"dental_clinic","operator":"private","name":"Sanjeevani Dental Care","name_hindi":"संजीवनी डेंटल केयर","address":"11, Vinoba Nagar,Tilak Nagar Main Road,Indore","phone":7312499604,"opening_hours":"Mo-Fr 10:00-13:00","personnel_count":2,"rate_list":"no","ward_no":"049","ward_name":"TILAKNAGAR"},{"poi":"22.70736986 75.87809619 499.0 4.5509996","latitude":22.70736986,"longitude":75.87809619,"altittude":499,"amenity":"dental_clinic","operator":"private","name":"Happy 32 Dental Clinic","name_hindi":"हैप्पी 32 डेंटल क्लिनिक","address":"1/1 Parsi Mohalla,Suraj Compound Indore","mobile":9424503173,"opening_hours":"Mo-Fr 10:30:14:00;5:30-20:30","personnel_count":1,"rate_list":"no","ward_no":"063","ward_name":"NAVLAKHA"},{"poi":"22.70733527 75.87758299 486.0 4.5509996","latitude":22.70733527,"longitude":75.87758299,"altittude":486,"amenity":"dental_clinic","operator":"private","name":"Dental Cosmos","name_hindi":"डेंटल कॉसमॉस","address":"G-4 Amit Apartments,1/1 Parsai Mohalla,Indore","mobile":9977244144,"opening_hours":"Mo-Sa 10:30-14:00;18:00-20:30","personnel_count":1,"rate_list":"no","ward_no":"063","ward_name":"NAVLAKHA"},{"poi":"22.70796675 75.87616037 489.0 4.5509996","latitude":22.70796675,"longitude":75.87616037,"altittude":489,"amenity":"dental_clinic","operator":"private","name":"Dr. Sourabh Saxena","name_hindi":" डर सौरभ सक्सेना","address":"25 Parsi Mohalla,Chhawni Square,Indore","mobile":8989461141,"opening_hours":"Mo-Sa 10:00-14::30;17:00-20:30;Su 11:00-14:00","personnel_count":2,"rate_list":"no","ward_no":"063","ward_name":"NAVLAKHA"},{"poi":"22.71130924 75.8802707 482.0 6.068","latitude":22.71130924,"longitude":75.8802707,"altittude":482,"amenity":"dental_clinic","operator":"private","name":"Shail Dental & Surgical","name_hindi":"शैल डेंटल एंड सर्जिकल","address":"Lg Urvashi Compound,3 Jowra Compound,Indore","phone":7314020777,"opening_hours":"Mo-Sa 10:30-20:30","personnel_count":4,"rate_list":"no","ward_no":"055","ward_name":"SAUTH TUKOGANJ"},{"poi":"22.71127703 75.88040569 498.0 4.5509996","latitude":22.71127703,"longitude":75.88040569,"altittude":498,"amenity":"dental_clinic","operator":"private","name":"Dr. Brijesh Mangal","name_hindi":"डॉ बृजेश मंगल","address":"Lg-21 Urvashi Compound,3Jawra Compound,Indore","mobile":9826245827,"opening_hours":"Mo-Sa 10:00-20:00","personnel_count":3,"rate_list":"no","ward_no":"055","ward_name":"SAUTH TUKOGANJ"},{"poi":"22.71891022 75.89718291 502.0 5.0","latitude":22.71891022,"longitude":75.89718291,"altittude":502,"amenity":"dental_clinic","operator":"private","name":"Kulkarni Dental Clinic","name_hindi":"कुलकर्णी डेंटल क्लिनिक","address":"205,Tilak Nagar,Main Road,Indore","mobile":9993291547,"opening_hours":"Mo-Sa 9:00-11:00;17:00-21:00\n Su 12:00-14:00","personnel_count":2,"rate_list":"no","ward_no":"049","ward_name":"TILAKNAGAR"},{"poi":"22.71934648 75.89579597 530.0 5.0","latitude":22.71934648,"longitude":75.89579597,"altittude":530,"amenity":"dental_clinic","operator":"private","name":"Dr Tushar Dighe","name_hindi":"डॉ तुषार दिघे","address":"108,Tilak Nagar","mobile":8602703568,"opening_hours":"Mo-Su 9:30-13:00","personnel_count":1,"rate_list":"no","ward_no":"049","ward_name":"TILAKNAGAR"},{"poi":"22.71948366 75.90076514 518.0 5.0","latitude":22.71948366,"longitude":75.90076514,"altittude":518,"amenity":"dental_clinic","operator":"private","name":"Chaitanya Dental Clinic","name_hindi":"चैतन्य डेंटल क्लिनिक","address":"G-1 Avanti Apartment\n 146,Mahavir Nagar,Indore","mobile":9826565844,"opening_hours":"Mo-Sa 10:00-13:00;17:00-21:00\n Su 10:00-13:00","personnel_count":3,"rate_list":"no","ward_no":"049","ward_name":"TILAKNAGAR"},{"poi":"22.71479231 75.90030602 511.0 4.0","latitude":22.71479231,"longitude":75.90030602,"altittude":511,"amenity":"dental_clinic","operator":"private","name":"Dr P Mittal","name_hindi":"डॉ पी मित्तल","address":"29-B Vandana Nagar","mobile":9926640030,"opening_hours":"Mo-Sa 9:30-11:00;19:30-20:30","personnel_count":1,"rate_list":"no","ward_no":"049","ward_name":"TILAKNAGAR"},{"poi":"22.71823735 75.8998812 513.0 5.0","latitude":22.71823735,"longitude":75.8998812,"altittude":513,"amenity":"dental_clinic","operator":"private","name":"Dr Pramod Jain","name_hindi":"डॉ प्रमोद जैन","address":"Tilak Nagar,Indore","phone":7314035251,"mobile":9926620626,"opening_hours":"Mo-Sa 10:00-13:00;17:00-21:00","personnel_count":1,"rate_list":"no","ward_no":"049","ward_name":"TILAKNAGAR"},{"poi":"22.71497949 75.89409622 522.0 5.0","latitude":22.71497949,"longitude":75.89409622,"altittude":522,"amenity":"dental_clinic","operator":"private","name":"Dr Rakhi Bharat","name_hindi":"डॉ राखी भरत","address":"Sahaj Tower,Geeta Nagar,Indore","opening_hours":"Mo-Sa 19:30-21:00","personnel_count":1,"rate_list":"no","ward_no":"048","ward_name":"GITA BHAVAN"},{"poi":"22.71482445 75.89371674 496.0 5.0","latitude":22.71482445,"longitude":75.89371674,"altittude":496,"amenity":"dental_clinic","operator":"private","name":"Platinum Dental Care","name_hindi":"प्लैटिनम डेंटल केअर","address":"113-114,Geeta Nagar,Main Road,Indore","mobile":9977602323,"opening_hours":"Mo-Sa 10:00-14:00;17:00-21:00","personnel_count":1,"rate_list":"no","ward_no":"048","ward_name":"GITA BHAVAN"},{"poi":"22.712363 75.88975176 500.0 4.5509996","latitude":22.712363,"longitude":75.88975176,"altittude":500,"amenity":"dental_clinic","operator":"private","name":"St. Patrick'S Dental Clinic","name_hindi":"पेट्रिकस डेंटल क्लीनिक","address":"7/1, Boundary Road, Near St Paul H.S School, Indore","phone":7312492017,"opening_hours":"Mo-Sa 08:00-13:00 ; 15:30-18:00","personnel_count":0,"rate_list":"no","ward_no":"048","ward_name":"GITA BHAVAN"},{"poi":"22.71839421 75.88351758 505.0 6.0","latitude":22.71839421,"longitude":75.88351758,"altittude":505,"amenity":"dental_clinic","operator":"private","name":"Chauhan'S Ent And Dental Clinic","name_hindi":"चौहान ई एन टी एंड डेंटल क्लीनिक","address":"Geeta Bhawan Square, Above Veg Bites","mobile":9425065064,"opening_hours":"Mo-Su 09:30-16:30","personnel_count":5,"rate_list":"no","ward_no":"055","ward_name":"SAUTH TUKOGANJ"},{"poi":"22.71876952 75.88665809 508.0 5.0","latitude":22.71876952,"longitude":75.88665809,"altittude":508,"amenity":"dental_clinic","operator":"private","name":"Dental Implant And Laser Centre","name_hindi":"डेंटल इंप्लांट एंड लेजर सेंटर","address":"Opp Dil Pasand Heights, G B Road","opening_hours":"Mo-Sa 10:00-20:30","personnel_count":5,"rate_list":"no","ward_no":"048","ward_name":"GITA BHAVAN"},{"poi":"22.7186817 75.88681162 521.0 5.0","latitude":22.7186817,"longitude":75.88681162,"altittude":521,"amenity":"dental_clinic","operator":"private","name":"The Retreat Clinic","name_hindi":"द रिट्रीट क्लीनिक","address":"Opp Dil Pasand Heights, Geeta Bhawan","phone":7312492032,"opening_hours":"Mo-Su 18:00-20:30","personnel_count":6,"rate_list":"no","ward_no":"048","ward_name":"GITA BHAVAN"},{"poi":"22.71648022 75.88497315 502.0 5.0","latitude":22.71648022,"longitude":75.88497315,"altittude":502,"amenity":"dental_clinic","operator":"private","name":"D Dental Clinic","name_hindi":"द डेंटल क्लीनिक","address":"Opp Race Institute, Geeta Bhawan","mobile":9039089978,"opening_hours":"Mo-Sa 18:00-21:00","personnel_count":6,"rate_list":"no","ward_no":"048","ward_name":"GITA BHAVAN"},{"poi":"22.72660226 75.87951458 503.338623046875 8.576","latitude":22.72660226,"longitude":75.87951458,"altittude":503.338623,"amenity":"dental_clinic","operator":"private","name":"Dr Sumit Jain","name_hindi":"डॉ। सुमित जैन","address":"Mourya Centre Race Course Road","mobile":9826054001,"opening_hours":"Mo-Sa 11:00-13:30;17:00-20:30","personnel_count":2,"rate_list":"no","ward_no":"047","ward_name":"SARDAR VALLABHBHAI"},{"poi":"22.72386107 75.87429717 515.7724609375 3.216","latitude":22.72386107,"longitude":75.87429717,"altittude":515.7724609,"amenity":"dental_clinic","operator":"private","name":"The Shining 32","name_hindi":"द शाइनिंग 32","address":"104, First Floor Starlit Tower, Near Lantern Square, Yeshwant Niwas Rd, Indore, Madhya Pradesh 452003","phone":"086021 79039","opening_hours":"Mo-su10:00-14:00 ;16:00 -21:00","personnel_count":2,"rate_list":"no","ward_no":"047","ward_name":"SARDAR VALLABHBHAI"},{"poi":"22.72384538 75.87428614 517.603759765625 3.216","latitude":22.72384538,"longitude":75.87428614,"altittude":517.6037598,"amenity":"dental_clinic","operator":"private","name":"Dr Sohini Jain","name_hindi":"#N/A","address":"104 First Floor,Starlit Tower Indore,Yeshwant Road,Indore","phone":9425023610,"mobile":9425023610,"opening_hours":"Mo-sa 11:00-13:00; 17:00-21:00","personnel_count":2,"rate_list":"no","ward_no":"047","ward_name":"SARDAR VALLABHBHAI"},{"poi":"22.71839099 75.88351829 511.0 4.288","latitude":22.71839099,"longitude":75.88351829,"altittude":511,"amenity":"dental_clinic","operator":"private","name":"Dr. Sumit Hardiya","name_hindi":"डॉ सुमित हार्डिया","address":"Geeta Bhavan Chauraha,Indore","phone":9827215402,"opening_hours":"Mo-Sa 10:00-1400; Mo-Sa 17:00-20:00","personnel_count":4,"rate_list":"no","ward_no":"055","ward_name":"SAUTH TUKOGANJ"},{"poi":"22.71161297 75.87566388 499.0 10.0","latitude":22.71161297,"longitude":75.87566388,"altittude":499,"amenity":"dental_clinic","operator":"private","name":"Doctor Verma Dental Clinic","name_hindi":"डॉक्टर वर्मा डेंटल क्लीनिक","address":"102 Riddhi Siddhi Tower Rnt Marg Indore","mobile":8878851001,"opening_hours":"Mo-Sa 11:00-14:00;16:00-21:00","personnel_count":2,"rate_list":"no","ward_no":"055","ward_name":"SAUTH TUKOGANJ"},{"poi":"22.71023109 75.87806367 503.0 5.0","latitude":22.71023109,"longitude":75.87806367,"altittude":503,"amenity":"dental_clinic","operator":"private","name":"Dr Sadana Dental Clinic","name_hindi":"डॉ। साधना डेंटल क्लिनिक","address":"G-2 Geetanjali Apartment ,Indore","mobile":9926514656,"opening_hours":"Mo-Sa 10:30-14:30;17:30-21:30; Sa 11:00-14:00","personnel_count":2,"rate_list":"no","ward_no":"055","ward_name":"SAUTH TUKOGANJ"},{"poi":"22.71217915 75.88038856 514.0 5.0","latitude":22.71217915,"longitude":75.88038856,"altittude":514,"amenity":"dental_clinic","operator":"private","name":"Ashirwad Dental Clinic","name_hindi":"आशिरवाद दंत चिकित्सा क्लिनिक","address":"45/A Jawara Compound ,Indore","mobile":9893708283,"opening_hours":"Mo-Sa 10:00-14:00;18:00-21:00","personnel_count":2,"rate_list":"no","ward_no":"055","ward_name":"SAUTH TUKOGANJ"},{"poi":"22.70996574 75.87722574 497.0 5.0","latitude":22.70996574,"longitude":75.87722574,"altittude":497,"amenity":"dental_clinic","operator":"private","name":"Smile Dental Clinic","name_hindi":"स्माइल डेंटल क्लीनिक","address":"17/1 Yshaganji Chavani,Indore","mobile":9826092665,"opening_hours":"Mo-Sa 11:00-14:00;17:00-21:00","personnel_count":3,"rate_list":"no","ward_no":"055","ward_name":"SAUTH TUKOGANJ"},{"poi":"22.72269224 75.89314444 501.0 4.5509996","latitude":22.72269224,"longitude":75.89314444,"altittude":501,"amenity":"dental_clinic","operator":"private","name":"Aliza Poly Clinic","name_hindi":"अलीजा पाली क्लिनिक","address":"105,Ravindra Nagar,Old Parasia,Indore","phone":7314956054,"opening_hours":"Mo-Sa 10:00-21:00","personnel_count":3,"rate_list":"no","ward_no":"042","ward_name":"SWAMI VIVEKANAND"},{"poi":"22.72060451 75.89532985 499.0 4.5509996","latitude":22.72060451,"longitude":75.89532985,"altittude":499,"amenity":"dental_clinic","operator":"private","name":"Sanjeevani Dental Care","name_hindi":"संजीवनी डेंटल केयर","address":"11,Tilak Nagar Main Road,Indore","phone":7312499604,"opening_hours":"Mo-Sa 10:00-14:00;17:30-20:30","personnel_count":3,"rate_list":"no","ward_no":"042","ward_name":"SWAMI VIVEKANAND"},{"poi":"22.72557813 75.89274552 514.9305419921875 4.288","latitude":22.72557813,"longitude":75.89274552,"altittude":514.930542,"amenity":"dental_clinic","operator":"private","name":"Dental Clinic","name_hindi":"डेंटल क्लीनिक","address":"101,Anmol Tower ,Indore","phone":7312566175,"mobile":9826185879,"opening_hours":"Mo-Sa 10:00-14:00; 17:00-21:00","personnel_count":2,"rate_list":"no","ward_no":"043","ward_name":"SHRINAGAR"},{"poi":"22.72643485 75.89431781 508.46624755859375 4.288","latitude":22.72643485,"longitude":75.89431781,"altittude":508.4662476,"amenity":"dental_clinic","operator":"private","name":"Dental Clinic","name_hindi":"डेंटल क्लीनिक","address":"Shiromani Apartment,Indore","phone":7312563604,"opening_hours":"Mo-Sa 09:00-14:00","personnel_count":1,"rate_list":"no","ward_no":"043","ward_name":"SHRINAGAR"},{"poi":"22.72578449 75.89446269 527.0 4.5509996","latitude":22.72578449,"longitude":75.89446269,"altittude":527,"amenity":"dental_clinic","operator":"private","name":"Best Smile Dental Care","name_hindi":"बेस्ट स्माइल डेंटल केअर","address":"204,Twin Star,Saket Square,Indore","mobile":6260313706,"opening_hours":"Mo-Sa 10:00-21:00","personnel_count":2,"rate_list":"no","ward_no":"043","ward_name":"SHRINAGAR"},{"poi":"22.72602426 75.8944341 512.0 4.5509996","latitude":22.72602426,"longitude":75.8944341,"altittude":512,"amenity":"dental_clinic","operator":"private","name":"Smile Curve Dental Clinic","name_hindi":"स्माइल कर्व डेंटल क्लिनिक","address":"Geetanjali Apartments,Anand Bazar,Indore","mobile":9826024989,"opening_hours":"Mo-Fr 10:00-14:00-17:00-19:00","personnel_count":2,"rate_list":"no","ward_no":"043","ward_name":"SHRINAGAR"},{"poi":"22.72638351 75.89434335 497.0 4.5509996","latitude":22.72638351,"longitude":75.89434335,"altittude":497,"amenity":"dental_clinic","operator":"private","name":"Dental Clinic","name_hindi":"डेंटल क्लीनिक","address":"101,Sukh Dham,Indore","phone":7312563356,"opening_hours":"Mo-Sa 10:00-13:00;17:00-19:00","personnel_count":3,"rate_list":"no","ward_no":"043","ward_name":"SHRINAGAR"},{"poi":"22.72563235 75.89124257 500.5389404296875 3.216","latitude":22.72563235,"longitude":75.89124257,"altittude":500.5389404,"amenity":"dental_clinic","operator":"private","name":"Family Dental Care Clinic","name_hindi":"फैमिली डेंटल केअर क्लिनिक","address":"101/A , Labaik Regency Building,Old Palasia","mobile":9589091091,"opening_hours":"Mo-Sa 10:00-13:00;17:30-21:00","personnel_count":2,"rate_list":"no","ward_no":"043","ward_name":"SHRINAGAR"},{"poi":"22.72314045 75.88213337 506.7733154296875 3.216","latitude":22.72314045,"longitude":75.88213337,"altittude":506.7733154,"amenity":"dental_clinic","operator":"private","name":"Aarogyam Orthodontic And Dental Clinic","name_hindi":"आरोग्यम ऑर्थोडॉन्तिक एंड डेंटल क्लिनिक","address":"Bansi Plaza, Mahatma Gandhi Rd, Opp. Jaipur Jewels, New Palasia, Indore","mobile":9425065713,"personnel_count":2,"rate_list":"no","ward_no":"047","ward_name":"SARDAR VALLABHBHAI"},{"poi":"22.72627212 75.8815906 509.081787109375 3.216","latitude":22.72627212,"longitude":75.8815906,"altittude":509.0817871,"amenity":"dental_clinic","operator":"private","name":"Dr Tripathi Dental Clinic","name_hindi":"डॉ त्रिपाठी डेंटल क्लिनिक","address":"202, Silver Arc Plaza,Janjeervala Square","mobile":9893429920,"personnel_count":3,"rate_list":"no","ward_no":"047","ward_name":"SARDAR VALLABHBHAI"},{"poi":"22.72308942 75.89289988 496.410888671875 3.216","latitude":22.72308942,"longitude":75.89289988,"altittude":496.4108887,"amenity":"dental_clinic","operator":"private","name":"Pearl Dental Clinic","name_hindi":"पर्ल डेंटल क्लीनिक","address":"Shop No.3,Gayatri Mandir Complex,Ravindra Nagar","mobile":9926400077,"opening_hours":"Mo-Sa 10:00-14:00; 17:00-21:00","personnel_count":2,"rate_list":"no","ward_no":"042","ward_name":"SWAMI VIVEKANAND"},{"poi":"22.72259572 75.8948733 498.3763427734375 4.288","latitude":22.72259572,"longitude":75.8948733,"altittude":498.3763428,"amenity":"dental_clinic","operator":"private","name":"Shree Dental Clinic","name_hindi":"श्री डेंटल क्लिनिक","address":"36,Patrakar Colony,Indore","mobile":9752591114,"opening_hours":"Mo-Sa 11:00-14:00;18:00-21:00 Su 11:00-14;00","personnel_count":1,"rate_list":"no","ward_no":"042","ward_name":"SWAMI VIVEKANAND"},{"poi":"22.72209997 75.8949487 493.93402099609375 4.288","latitude":22.72209997,"longitude":75.8949487,"altittude":493.934021,"amenity":"dental_clinic","operator":"private","name":"Dental Smile","name_hindi":"डेंटल स्माइल","address":"Gram Kanadia Main Road,Indore","mobile":9407156799,"opening_hours":"Mo-Sa 10:30-15:00","personnel_count":1,"rate_list":"no","ward_no":"042","ward_name":"SWAMI VIVEKANAND"},{"poi":"22.72573613 75.89385961 503.234619140625 4.288","latitude":22.72573613,"longitude":75.89385961,"altittude":503.2346191,"amenity":"dental_clinic","operator":"private","name":"Perfect Smile","name_hindi":"परफेक्ट स्माइल","address":"Classic Crown,Indore","phone":7312566066,"opening_hours":"Mo-Sa 10:00-13:00; 17:00-21:00","personnel_count":1,"rate_list":"no","ward_no":"043","ward_name":"SHRINAGAR"},{"poi":"22.723842286504805 75.87428687140346 502.0 5.0","latitude":22.72384229,"longitude":75.87428687,"altittude":502,"amenity":"dental_clinic","operator":"private","name":"Dr Rakhi Porwal","name_hindi":"डॉक्टर राखी पोरवाल","address":"2Nd Floor, Starlit Tower, Indore","mobile":7748818883,"opening_hours":"mo-sa 11:00-15:00","personnel_count":2,"rate_list":"no","ward_no":"047","ward_name":"SARDAR VALLABHBHAI"},{"poi":"22.722767223604023 75.8741551078856 503.0 6.0","latitude":22.72276722,"longitude":75.87415511,"altittude":503,"amenity":"dental_clinic","operator":"private","name":"Iconic Dental Care","name_hindi":"आईकॉनिक डेंटल केयर","address":"106, First Floor, Royal Diamond, Y.N Road, Indore","phone":7314096703,"mobile":9425920733,"personnel_count":2,"rate_list":"no","ward_no":"047","ward_name":"SARDAR VALLABHBHAI"},{"poi":"22.72550299 75.89488462 504.22314453125 4.288","latitude":22.72550299,"longitude":75.89488462,"altittude":504.2231445,"amenity":"dental_clinic","operator":"private","name":"Speciality Dental Care","name_hindi":"स्पेशलिटी डेंटल केयर","address":"Amardarshan,Saket Square","mobile":9893090616,"opening_hours":"Mo-Sa 10:00-17:00","personnel_count":2,"rate_list":"no","ward_no":"043","ward_name":"SHRINAGAR"},{"poi":"22.72126105 75.89843245 506.43487548828125 9.648001","latitude":22.72126105,"longitude":75.89843245,"altittude":506.4348755,"amenity":"dental_clinic","operator":"private","name":"Varad Dental Clinic","name_hindi":"वरद दंत चिकित्सालय","address":"Kanadia Main Road,Indore","mobile":9826680219,"opening_hours":"Mo-Sa 11:00-14:00;17:00-20:00 ;Su 11:00-14:00","personnel_count":2,"rate_list":"no","ward_no":"042","ward_name":"SWAMI VIVEKANAND"},{"poi":"22.72101087 75.90083782 508.5992431640625 3.216","latitude":22.72101087,"longitude":75.90083782,"altittude":508.5992432,"amenity":"dental_clinic","operator":"private","name":"Shufla Dental Clinic","name_hindi":"सूफला दंत चिकित्सा क्लिनिक","address":"100 Aashirwad Complex 1St Floor Near Sigma Diagnostic,Gulmohar Colony Bangali Square Indore","mobile":9827528541,"opening_hours":"10:00-14:00;17:00-20:00","personnel_count":3,"rate_list":"no","ward_no":"042","ward_name":"SWAMI VIVEKANAND"},{"poi":"22.72084591 75.90151689 509.08038330078125 3.216","latitude":22.72084591,"longitude":75.90151689,"altittude":509.0803833,"amenity":"dental_clinic","operator":"private","name":"Jain Dental Clinic","name_hindi":"जैन दंत चिकित्सा क्लिनिक","address":"Ashirwad Complex Main Road,Indore","mobile":9424456154,"opening_hours":"10:30-21:00","personnel_count":3,"rate_list":"no","ward_no":"042","ward_name":"SWAMI VIVEKANAND"},{"poi":"22.7209092 75.90170524 511.62322998046875 3.216","latitude":22.7209092,"longitude":75.90170524,"altittude":511.62323,"amenity":"dental_clinic","operator":"private","name":"Unique Dental Clinic","name_hindi":"अद्वितीय दंत चिकित्सा क्लिनिक","address":"Ashirwad Complex Kanadia Main Road,Indore","mobile":9893422518,"opening_hours":"10:30-14:00;17:00-21:00","personnel_count":3,"rate_list":"no","ward_no":"042","ward_name":"SWAMI VIVEKANAND"},{"poi":"22.72673843 75.90062697 497.0 4.5509996","latitude":22.72673843,"longitude":75.90062697,"altittude":497,"amenity":"dental_clinic","operator":"private","name":"Dental Clinic","name_hindi":"डेंटल क्लीनिक","address":"66,Manish Puri,Indore","mobile":9893383468,"opening_hours":"Mo-Sa 10:00-13:00;17:00-20:00","personnel_count":2,"rate_list":"no","ward_no":"042","ward_name":"SWAMI VIVEKANAND"},{"poi":"22.72735733 75.90023542 493.0 4.5509996","latitude":22.72735733,"longitude":75.90023542,"altittude":493,"amenity":"dental_clinic","operator":"private","name":"Prime Dental Clinic","name_hindi":"प्राइम डेंटल क्लिनिक","address":"39,40,Manishpuri,Saket,Indore","phone":7312703609,"opening_hours":"Mo-Sa 18:00-20:00","personnel_count":2,"rate_list":"no","ward_no":"042","ward_name":"SWAMI VIVEKANAND"},{"poi":"22.72309234 75.89707629 490.935791015625 3.216","latitude":22.72309234,"longitude":75.89707629,"altittude":490.935791,"amenity":"dental_clinic","operator":"private","name":"Tongya'sDental Clinic","name_hindi":"#N/A","address":"341 Saket","mobile":9826650575,"opening_hours":"Mo-Sa 09:30-14:00; 17:30-20:30","personnel_count":3,"rate_list":"no","ward_no":"042","ward_name":"SWAMI VIVEKANAND"},{"poi":"22.72236323 75.8519401 494.0 4.5509996","latitude":22.72236323,"longitude":75.8519401,"altittude":494,"amenity":"dental_clinic","operator":"private","name":"Dental Clinic","name_hindi":"डेंटल क्लीनिक","address":"143, Near Smarti Talkies, Subhash Nagar, Indore","mobile":9827070009,"opening_hours":"Sa-Su 18:00-21:00","personnel_count":2,"rate_list":"no","ward_no":"058","ward_name":"IMLI BAZAR"},{"poi":"22.72113217 75.85432125 491.0 4.5509996","latitude":22.72113217,"longitude":75.85432125,"altittude":491,"amenity":"dental_clinic","operator":"private","name":"Dr. Gola'sDental Clinic","name_hindi":"#N/A","address":"B1, Kushal Complex, Imli Bazaar","mobile":9074972500,"opening_hours":"Sa-Su 10:00-13:00;17:00-21:00","personnel_count":2,"rate_list":"no","ward_no":"058","ward_name":"IMLI BAZAR"},{"poi":"22.72410855 75.85709592 486.0 4.5509996","latitude":22.72410855,"longitude":75.85709592,"altittude":486,"amenity":"dental_clinic","operator":"private","name":"Dental Care","name_hindi":"डेंटल केयर","address":"Building No.78, Tilak Path, Rambagh, Indore","mobile":9584387675,"opening_hours":"Mo-Sa 10:30-14:00;18:00-21:00; Su 10:30-14:00","personnel_count":3,"rate_list":"no","ward_no":"057","ward_name":"DEVI AHILYABAI"},{"poi":"22.69001026 75.86428211 513.0 6.068","latitude":22.69001026,"longitude":75.86428211,"altittude":513,"amenity":"dental_clinic","operator":"private","name":"Dr. G.S. Chabbra","name_hindi":"डॉ. जी. एस. छाबड़ा","address":"Deepshikha Apartments,Vishnu Puri,Indore","mobile":7770855550,"opening_hours":"Mo-Sa 10:00-14:00;17:00-21:00","personnel_count":2,"rate_list":"no","ward_no":"074","ward_name":"VISHNAPURI"},{"poi":"22.69000283 75.86366989 513.0 6.068","latitude":22.69000283,"longitude":75.86366989,"altittude":513,"amenity":"dental_clinic","operator":"private","name":"Dr Bhatia Dental Clinic","name_hindi":"डॉ. भाटिया डेंटल क्लिनिक","address":"Shiv Om Apartments,Vishnu Puri,Indore","mobile":9826214298,"opening_hours":"Mo-Sa 10:30-13:30;17:00-21:00","personnel_count":2,"rate_list":"no","ward_no":"074","ward_name":"VISHNAPURI"},{"poi":"22.69069453 75.86626122 514.0 4.5509996","latitude":22.69069453,"longitude":75.86626122,"altittude":514,"amenity":"dental_clinic","operator":"private","name":"Aishwarya Dental Clinic","name_hindi":"ऐश्वर्या डेंटल क्लिनिक","address":"20-C,Laxmi Plaza Complex,Indra Puri, Indore","phone":7312362621,"opening_hours":"Mo-Sa 10:30-13:00;17:30-20:00","personnel_count":2,"rate_list":"no","ward_no":"074","ward_name":"VISHNAPURI"},{"poi":"22.6989324 75.86617422 507.0 4.5509996","latitude":22.6989324,"longitude":75.86617422,"altittude":507,"amenity":"dental_clinic","operator":"private","name":"Saraswati Poly Dental Clinic","name_hindi":"सरस्वती पाली डेंटल क्लिनिक","address":"Sneh Nagar,Sapna Sangeeta Main Road,Indore","mobile":9424888850,"opening_hours":"Mo-Sa 10:00-14:00;17:00-21:00","personnel_count":2,"rate_list":"no","ward_no":"063","ward_name":"NAVLAKHA"},{"poi":"22.72066434 75.85497093 506.8072509765625 4.288","latitude":22.72066434,"longitude":75.85497093,"altittude":506.807251,"amenity":"dental_clinic","operator":"private","name":"Sv Dental Clinic","name_hindi":"एसवी दंत चिकित्सा क्लिनिक","address":"Imli Bazar Indore","mobile":9039473131,"opening_hours":"10:00-20:00","personnel_count":4,"rate_list":"no","ward_no":"058","ward_name":"IMLI BAZAR"},{"poi":"22.71894196 75.85229771 479.37103271484375 10.72","latitude":22.71894196,"longitude":75.85229771,"altittude":479.3710327,"amenity":"dental_clinic","operator":"private","name":"Verma Dental Clinic","name_hindi":"वर्मा डेंटल क्लीनिक","address":"210 Khajuri Bazar Main Road Indore","opening_hours":"17:00-20:00","personnel_count":2,"rate_list":"no","ward_no":"058","ward_name":"IMLI BAZAR"},{"poi":"22.72318885 75.8576808 493.5419921875 9.648001","latitude":22.72318885,"longitude":75.8576808,"altittude":493.5419922,"amenity":"dental_clinic","operator":"private","name":"Dental Care World","name_hindi":"डेंटल केयर वर्ल्ड","address":"Rambagh Indore","phone":7312536006,"opening_hours":"10:00-13:000;18:00-20:30","personnel_count":2,"rate_list":"no","ward_no":"057","ward_name":"DEVI AHILYABAI"},{"poi":"22.71519534 75.8490405 476.0 5.0","latitude":22.71519534,"longitude":75.8490405,"altittude":476,"amenity":"dental_clinic","operator":"private","name":"Dr.Rakesh Kumar","name_hindi":"डॉ.राकेश कुमार","address":"Lodhipura No.1,Indore","mobile":9826288651,"opening_hours":43670,"personnel_count":2,"rate_list":"no","ward_no":"069","ward_name":"JAWAHAR MARG"},{"poi":"22.72495099 75.86306854 502.0626220703125 3.216","latitude":22.72495099,"longitude":75.86306854,"altittude":502.0626221,"amenity":"dental_clinic","operator":"private","name":"Shree Dental Clinic","name_hindi":"श्री डेंटल क्लिनिक","address":"186 Naya Pura Main Road","mobile":8461923112,"opening_hours":"10:30-14:00;17:00-21:00","personnel_count":2,"rate_list":"no","ward_no":"056","ward_name":"SNEHALATA GANJ"},{"poi":"22.71962486 75.84667249 497.0 3.0","latitude":22.71962486,"longitude":75.84667249,"altittude":497,"amenity":"dental_clinic","operator":"private","name":"City Dental Clinic","name_hindi":"सिटी डेंटल क्लिनिक","address":"Mg Road,Malharganj Tori Corner,Indore","mobile":9425312777,"opening_hours":"Mo-Sa 17:00-22:00\n Su 10:00-14:00","personnel_count":1,"rate_list":"no","ward_no":"069","ward_name":"JAWAHAR MARG"},{"poi":"22.71886732 75.85296744 504.0 5.0","latitude":22.71886732,"longitude":75.85296744,"altittude":504,"amenity":"dental_clinic","operator":"private","name":"Dr.Arvin Krishnan Gola","name_hindi":"डॉ.अर्विन कृष्णन गोला","address":"Mg Road,Khajuri Bazaar,Indore","mobile":9754795998,"opening_hours":"Mo-Sa 9:00-16:00","personnel_count":1,"rate_list":"no","ward_no":"058","ward_name":"IMLI BAZAR"},{"poi":"22.71885188 75.85297315 510.0 5.0","latitude":22.71885188,"longitude":75.85297315,"altittude":510,"amenity":"dental_clinic","operator":"private","name":"Deep Chand Gola","name_hindi":"डीप चंद गोला","address":"Mg Road,Khajuri Bazaar,Indore","mobile":9406666520,"opening_hours":"Mo-Sa 9:00-20:00\n Su 11:00-14:00","personnel_count":1,"rate_list":"no","ward_no":"058","ward_name":"IMLI BAZAR"},{"poi":"22.69469952 75.83857584 501.0 4.5509996","latitude":22.69469952,"longitude":75.83857584,"altittude":501,"amenity":"dental_clinic","operator":"private","name":"Little Smiles","name_hindi":"लिटिल स्माइल्स","address":"Roop Tiwari,Annapurna Road,Indore","phone":7312797478,"opening_hours":"Mo-Sa 17:30-20:30","personnel_count":3,"rate_list":"no","ward_no":"071","ward_name":"DRAVID NAGAR"},{"poi":"22.69664657 75.83934694 514.0 4.5509996","latitude":22.69664657,"longitude":75.83934694,"altittude":514,"amenity":"dental_clinic","operator":"private","name":"Shri Shri Dental Clinic","name_hindi":"#N/A","address":"484 Bank Colony,Sudama Nagar,Indore","opening_hours":"Mo-Sa 10:00-14:00;18:00-22:00","personnel_count":3,"rate_list":"no","ward_no":"072","ward_name":"LOKMANYA NAGAR"},{"poi":"22.69613384 75.84638519 509.0 4.5509996","latitude":22.69613384,"longitude":75.84638519,"altittude":509,"amenity":"dental_clinic","operator":"private","name":"Sparsh Dental Clinic","name_hindi":"#N/A","address":"6-A Lokmanya Nagar,Indore","mobile":9893011122,"opening_hours":"Mo-Sa 9:30-13:00;17:00-20:00","personnel_count":1,"rate_list":"no","ward_no":"072","ward_name":"LOKMANYA NAGAR"},{"poi":"22.68945355 75.84365419 526.0 4.5509996","latitude":22.68945355,"longitude":75.84365419,"altittude":526,"amenity":"dental_clinic","operator":"private","name":"Dhanvantari Dental Clinic","name_hindi":"धन्वंतरि डेंटल क्लिनिक","address":"Tulsi Plaza 11 Vinay Nagar,Indore","mobile":9893491106,"opening_hours":"Mo-Sa 10:30-12:30;17:30-20:30","personnel_count":1,"rate_list":"no","ward_no":"072","ward_name":"LOKMANYA NAGAR"},{"poi":"22.69400401 75.84399619 490.0 4.5509996","latitude":22.69400401,"longitude":75.84399619,"altittude":490,"amenity":"dental_clinic","operator":"private","name":"Basant Dental Care","name_hindi":"बसंत डेंटल केअर","address":"4 Indralok Colony Rto Road,Indore","mobile":9755658393,"opening_hours":"Mo-Sa 9:00-11:00-18:00-20:00","personnel_count":3,"rate_list":"no","ward_no":"072","ward_name":"LOKMANYA NAGAR"},{"poi":"22.69514138 75.83628413 507.0 4.5509996","latitude":22.69514138,"longitude":75.83628413,"altittude":507,"amenity":"dental_clinic","operator":"private","name":"Narayanam Dental Clinic","name_hindi":"नारायणं डेंटल क्लिनिक","address":"75,Bank Colony,Indore","mobile":9826329000,"opening_hours":"Mo-Fr 17:30-21:30","personnel_count":4,"rate_list":"no","ward_no":"071","ward_name":"DRAVID NAGAR"},{"poi":"22.69768987 75.83342992 496.0 4.5509996","latitude":22.69768987,"longitude":75.83342992,"altittude":496,"amenity":"dental_clinic","operator":"private","name":"Atre'S Dental Clinic","name_hindi":"अत्रे डेंटल क्लिनिक","address":"315 Usha Nagar Extension,Indore","phone":7314087489,"opening_hours":"Mo-Sa 10:00-14:00;18:00-21:00","personnel_count":2,"rate_list":"no","ward_no":"071","ward_name":"DRAVID NAGAR"},{"poi":"22.69459468 75.83491715 504.0 4.5509996","latitude":22.69459468,"longitude":75.83491715,"altittude":504,"amenity":"dental_clinic","operator":"private","name":"Ganesha Dental Clinic","name_hindi":"गणेश डेंटल क्लिनिक","address":"775 Sudama Nagar,Indore","mobile":9826666945,"opening_hours":"Mo-Fr 13:00-17:00","personnel_count":1,"rate_list":"no","ward_no":"083","ward_name":"GUSHMATA NAGAR"},{"poi":"22.6989001 75.86780282 517.0 6.068","latitude":22.6989001,"longitude":75.86780282,"altittude":517,"amenity":"dental_clinic","operator":"private","name":"Divya Dental Clinic","name_hindi":"दिव्या डेंटल क्लीनिक","address":"138/47, New Agrawal Nagar,Indore","phone":7314085528,"opening_hours":"Mo-Su 10:30-13:30 ; 17:30-19:30","personnel_count":2,"rate_list":"no","ward_no":"063","ward_name":"NAVLAKHA"},{"poi":"22.69851703 75.86719592 505.0 4.5509996","latitude":22.69851703,"longitude":75.86719592,"altittude":505,"amenity":"dental_clinic","operator":"private","name":"Dental Imagica","name_hindi":"डेंटल इमैजिका","address":"71, Anand Nagar, Indore","mobile":8989154767,"opening_hours":"Mo-Sa 10:00-14:00 ; 17:00-20:30 ; Su 11:00- 14:00","personnel_count":1,"rate_list":"no","ward_no":"063","ward_name":"NAVLAKHA"},{"poi":"22.69811159 75.86601642 483.0 4.5509996","latitude":22.69811159,"longitude":75.86601642,"altittude":483,"amenity":"dental_clinic","operator":"private","name":"Dr. Desai","name_hindi":"डॉ देसाई","address":"Anand Nagar,Indore","mobile":9713907140,"opening_hours":"Mo-Sa 10:00-14:00 ; 17:00-21:00","personnel_count":1,"rate_list":"no","ward_no":"065","ward_name":"SANT KANWARRAM"},{"poi":"22.69396745 75.85907732 516.0 4.5509996","latitude":22.69396745,"longitude":75.85907732,"altittude":516,"amenity":"dental_clinic","operator":"private","name":"Advance Dental Care","name_hindi":"एडवांस डेंटल केयर","address":"20, Sneh Vihar Colony","personnel_count":1,"rate_list":"no","ward_no":"074","ward_name":"VISHNAPURI"},{"poi":"22.724541001953185 75.82560863345861 504.0 5.0","latitude":22.724541,"longitude":75.82560863,"altittude":504,"amenity":"dental_clinic","operator":"private","name":"Dr S K Khatri","name_hindi":" डॉक्टर एस के खत्री","address":"Near Krishna Apartment Shikshak Nagar Indore","mobile":9926052982,"opening_hours":"mo-sa 09:30-12:30 ; 17:00-21:00","personnel_count":2,"rate_list":"no","ward_no":"004","ward_name":"SUKHDEV NAGAR"},{"poi":"22.728144424036145 75.83208130672574 487.0 5.0","latitude":22.72814442,"longitude":75.83208131,"altittude":487,"amenity":"dental_clinic","operator":"private","name":"Dr Kanchan Litoria","name_hindi":"डॉ कंचन लिटोरिया","address":"58, Sahi Nagar, AirportRoad, Indore","opening_hours":"mo-sa 11:00-13:00; 08:00-21:00","personnel_count":2,"rate_list":"no","ward_no":"004","ward_name":"SUKHDEV NAGAR"},{"poi":"22.72158311214298 75.83709452301264 475.0 5.0","latitude":22.72158311,"longitude":75.83709452,"altittude":475,"amenity":"dental_clinic","operator":"private","name":"Riddhiman Dental Clinic","name_hindi":" रिद्धिमान डेंटल क्लिनिक","address":"19/3, Mahavir Nagar, Aerodrum Road Indore","mobile":9009000054,"opening_hours":"mo-sa 18:00-21:30","personnel_count":5,"rate_list":"no","ward_no":"007","ward_name":"JANTA COLONY"},{"poi":"22.72021007258445 75.84760987199843 505.0 6.0","latitude":22.72021007,"longitude":75.84760987,"altittude":505,"amenity":"dental_clinic","operator":"private","name":"Perfect 32 Dental Clinic And Implant Centre","name_hindi":"पर्फेक्ट 32 डेंटल क्लिनिक एंड इंप्लांट सेंटर","address":"Malharganj, Laxmi Building, Indore","mobile":7746053339,"opening_hours":"mo-sa 11:00-14:30; 18:00-21:00; su 11:00-14:00","personnel_count":2,"rate_list":"no","ward_no":"008","ward_name":"JUNA RISALA"},{"poi":"22.71918331 75.851756 504.2568359375 4.288","latitude":22.71918331,"longitude":75.851756,"altittude":504.2568359,"amenity":"dental_clinic","operator":"private","name":"Shri Ram Dental Hall","name_hindi":"श्री राम डेंटल हॉल","address":"Shri Balaji Tower, Ug-25, Mahatma Gandhi Rd, Khajuri Bazar, Indore","phone":"0731 405 4154","opening_hours":"Mo-Sa 10:00-19:00","personnel_count":1,"rate_list":"no","ward_no":"058","ward_name":"IMLI BAZAR"},{"poi":"22.71905595 75.85324141 513.3753051757812 3.216","latitude":22.71905595,"longitude":75.85324141,"altittude":513.3753052,"amenity":"dental_clinic","operator":"private","name":"Verma Dental Clinic","name_hindi":"वर्मा डेंटल क्लीनिक","address":"210 Mgm Khajuri Bazar","phone":"0731 254 6707","opening_hours":"Mo-Sa 19:00-21:00","personnel_count":2,"rate_list":"no","ward_no":"058","ward_name":"IMLI BAZAR"},{"poi":"22.72462833333333 75.825235 554.3 0.9","latitude":22.72462833,"longitude":75.825235,"altittude":554.3,"amenity":"dental_clinic","operator":"private","name":"Well Care Dental Hospital","name_hindi":"वेल केयर ङेंटल हॉस्पिटल","address":"Shikshak Nagar Airport Road Indore","mobile":9926777225,"opening_hours":"Mo-Sa09:00-14:00;16:00-22:00","personnel_count":1,"rate_list":"no","ward_no":"004","ward_name":"SUKHDEV NAGAR"},{"poi":"22.724421666666665 75.82718333333334 562.4 1.0","latitude":22.72442167,"longitude":75.82718333,"altittude":562.4,"amenity":"dental_clinic","operator":"private","name":"Dr Vinod Raghuvanshi","name_hindi":"ङा विनोद रघुवंशी","address":"Sharddha Nagar ,Airport Road","mobile":9302373021,"opening_hours":"Mo-Sa10:00-14:00;17:00-21:00","personnel_count":0,"rate_list":"no","ward_no":"004","ward_name":"SUKHDEV NAGAR"},{"poi":"22.71957166666667 75.84670166666666 556.7 1.5","latitude":22.71957167,"longitude":75.84670167,"altittude":556.7,"amenity":"dental_clinic","operator":"private","name":"City Dental Clinic","name_hindi":"सिटी डेंटल क्लिनिक","address":"511 Mg Road Tori Corner,Indore","mobile":9754795777,"opening_hours":"Mo-Sa17:00-22:00","personnel_count":2,"rate_list":"no","ward_no":"069","ward_name":"JAWAHAR MARG"},{"poi":"22.69925412 75.85210718 509.0 7.585","latitude":22.69925412,"longitude":75.85210718,"altittude":509,"amenity":"dental_clinic","operator":"private","name":"Muskan Dental & Orthodontic Clinic","name_hindi":"मुस्कान डेंटल एंड ऑर्थोडोंटिक क्लिनिक","address":"1- Triveni Complex, Manik Bagh Brigde, Indore","mobile":9827231699,"opening_hours":"Mo-Sa 11:30-14:30 ; 18:00- 21:00","personnel_count":1,"rate_list":"no","ward_no":"066","ward_name":"SHAHID HEMU COLONY"},{"poi":"22.6979141 75.85525897 503.0 4.5509996","latitude":22.6979141,"longitude":75.85525897,"altittude":503,"amenity":"dental_clinic","operator":"private","name":"Shah Dental Clinic","name_hindi":"शाह डेंटल क्लिनिक","address":"223, Khatiwala Tank, Indore","mobile":7693073559,"opening_hours":"Mo-Sa 10:00-13:00 ; 17:00-20:30","personnel_count":1,"rate_list":"no","ward_no":"073","ward_name":"LAXMANSINGH CHAUHAN"},{"poi":"22.71545577 75.84511584 494.476318359375 3.216","latitude":22.71545577,"longitude":75.84511584,"altittude":494.4763184,"amenity":"dental_clinic","operator":"private","name":"Dental Care Clinic","name_hindi":"डेंटल केअर क्लिनिक","address":"Jawahar Marg,Indore","opening_hours":"Mo-Sa 10:30-13:00;18:00-20:00","personnel_count":3,"rate_list":"no","ward_no":"069","ward_name":"JAWAHAR MARG"},{"poi":"22.71569424 75.84399434 500.6748046875 3.216","latitude":22.71569424,"longitude":75.84399434,"altittude":500.6748047,"amenity":"dental_clinic","operator":"private","name":"Apoorva Dental Clinic","name_hindi":"अपूर्व डेंटल क्लिनिक","address":"218,Kohinur Tower,Jawahar Marg","opening_hours":"Mo-Sa 11:00-14:00;18:00-21:00","personnel_count":2,"rate_list":"no","ward_no":"069","ward_name":"JAWAHAR MARG"},{"poi":"22.6990925 75.86686742 500.232421875 4.288","latitude":22.6990925,"longitude":75.86686742,"altittude":500.2324219,"amenity":"dental_clinic","operator":"private","name":"Care And Cure Dental Clinic","name_hindi":"केयर एंड क्योर डेंटल क्लिनिक","address":"1St Floor, Prince Plaza, Near Inox Sapna Snageeta,, Indore,","phone":7312467642,"opening_hours":"Mo-Fr 13:00-20:00","personnel_count":2,"rate_list":"no","ward_no":"063","ward_name":"NAVLAKHA"},{"poi":"22.71553358 75.84282183 511.0 5.0","latitude":22.71553358,"longitude":75.84282183,"altittude":511,"amenity":"dental_clinic","operator":"private","name":"Pearl Dental Clinic","name_hindi":"पर्ल डेंटल क्लीनिक","address":"218, Rajmollah Street","mobile":8602655259,"opening_hours":"Mo-Sa 10:00-13:00","personnel_count":3,"rate_list":"no","ward_no":"069","ward_name":"JAWAHAR MARG"},{"poi":"22.69567456 75.83888714 507.0 3.0","latitude":22.69567456,"longitude":75.83888714,"altittude":507,"amenity":"dental_clinic","operator":"private","name":"Star Dental Clinic","name_hindi":"स्टार डेंटल क्लिनिक","address":"Annapurna Road,Indore","mobile":7748811405,"opening_hours":"Mo-Sa 10:30-20:00","personnel_count":3,"rate_list":"no","ward_no":"071","ward_name":"DRAVID NAGAR"},{"poi":"22.69625961 75.83890567 496.0 5.0","latitude":22.69625961,"longitude":75.83890567,"altittude":496,"amenity":"dental_clinic","operator":"private","name":"Dr Seema Kulkarni Clinic","name_hindi":"डॉ। सीमा कुलकर्णी क्लिनिक","address":"724, Annapurna Rd, Usha Nagar, Indore","mobile":9425055789,"opening_hours":"Mo-Fr 12:00-13:30;19:30-21:30","personnel_count":1,"rate_list":"no","ward_no":"071","ward_name":"DRAVID NAGAR"},{"poi":"22.69647505 75.8390053 497.0 5.0","latitude":22.69647505,"longitude":75.8390053,"altittude":497,"amenity":"dental_clinic","operator":"private","name":"Dr Megha Jain","name_hindi":"डॉ। मेघा जैन","address":"Bajaj Tower Usha Nagar,Indore","mobile":9977777640,"opening_hours":"Mo-Sa 10:30-14:30;17:30-21:00","personnel_count":1,"rate_list":"no","ward_no":"071","ward_name":"DRAVID NAGAR"},{"poi":"22.69236696 75.83800413 499.0 9.0","latitude":22.69236696,"longitude":75.83800413,"altittude":499,"amenity":"dental_clinic","operator":"private","name":"Shri Ram Dental Clinics","name_hindi":"श्री राम दंत चिकित्सालय","address":"Usha Nagar Main Road","mobile":9981665590,"opening_hours":43670,"personnel_count":2,"rate_list":"no","ward_no":"071","ward_name":"DRAVID NAGAR"},{"poi":"22.6950951 75.83636402 518.0 5.0","latitude":22.6950951,"longitude":75.83636402,"altittude":518,"amenity":"dental_clinic","operator":"private","name":"Anpurna Dental Clinic","name_hindi":"अन्नपूर्णा दंत चिकित्सा क्लिनिक","address":"621-A Bank Colony Usha Nagar Extension,Indore","mobile":9827227488,"opening_hours":"Mo-Su 11:00-14:00;18:00-21:00","personnel_count":3,"rate_list":"no","ward_no":"071","ward_name":"DRAVID NAGAR"},{"poi":"22.69659175 75.83437324 492.0 5.0","latitude":22.69659175,"longitude":75.83437324,"altittude":492,"amenity":"dental_clinic","operator":"private","name":"Yuvika Dental Care","name_hindi":"युविका डेंटल केयर","address":"92-A Naren Tiwari Sudama Nagar","mobile":7987553983,"opening_hours":"Mo-Sa 10:00-13:00;17:30-21:00","personnel_count":1,"rate_list":"no","ward_no":"071","ward_name":"DRAVID NAGAR"},{"poi":"22.69616412 75.83227838 511.0 5.0","latitude":22.69616412,"longitude":75.83227838,"altittude":511,"amenity":"dental_clinic","operator":"private","name":"Dr Hora Dental Clinic","name_hindi":"डॉ। होरा डेंटल क्लिनिक","address":"568 Sudama Nagar Indore","mobile":9926029294,"opening_hours":"Mo-fr 10:00-14:00;18:00-21:00","personnel_count":2,"rate_list":"no","ward_no":"083","ward_name":"GUSHMATA NAGAR"},{"poi":"22.723023333333337 75.84613333333333 545.2 1.0","latitude":22.72302333,"longitude":75.84613333,"altittude":545.2,"amenity":"dental_clinic","operator":"private","name":"Dr Antush Mittal","name_hindi":"ङा अंतुश मित्तल","address":"113, Netaji Subhash Marg, Jinsi Square","mobile":9691140020,"opening_hours":"Mo-Sa17:00-21:30","personnel_count":1,"rate_list":"no","ward_no":"008","ward_name":"JUNA RISALA"},{"poi":"22.72020166666667 75.84278833333333 548.8 1.3","latitude":22.72020167,"longitude":75.84278833,"altittude":548.8,"amenity":"dental_clinic","operator":"private","name":"Badlani Multi Speciality Dental Clinic","name_hindi":"बदलानि मल्टी इस्पेशलिटी ङेंटल क्लिनिक","address":"383, Mg Road","mobile":9685006850,"opening_hours":"Mo-Sa11:30-14:30","personnel_count":1,"rate_list":"no","ward_no":"006","ward_name":"MALHARGANJ"},{"poi":"22.722236666666664 75.83720666666666 553.7 1.0","latitude":22.72223667,"longitude":75.83720667,"altittude":553.7,"amenity":"dental_clinic","operator":"private","name":"Dr Ankita Mishra","name_hindi":"ङा अंकिता मिश्रा","address":"Mahavir Bagh, Agresan Nagar, Airport Road","opening_hours":"Mo-Sa10:00-13:00","personnel_count":1,"rate_list":"no","ward_no":"007","ward_name":"JANTA COLONY"},{"poi":"22.70256519 75.83992342 495.0 4.5509996","latitude":22.70256519,"longitude":75.83992342,"altittude":495,"amenity":"dental_clinic","operator":"private","name":"Carv's","name_hindi":"#N/A","address":"8 Sector A Usha Nagar Extension,Indore","mobile":9827272302,"opening_hours":"Mo-Sa 10:00-14:00;18:00-21:30","personnel_count":1,"rate_list":"no","ward_no":"071","ward_name":"DRAVID NAGAR"},{"poi":"22.69844413 75.83437493 496.0 4.5509996","latitude":22.69844413,"longitude":75.83437493,"altittude":496,"amenity":"dental_clinic","operator":"private","name":"Dr. Somani'S Dental Clinic","name_hindi":"डॉ सोमानी डेंटल क्लिनिक","address":"308 Usha Nagar Extension,Indore","mobile":9893179799,"opening_hours":"Mo-Sa 10:00-14:00","personnel_count":1,"rate_list":"no","ward_no":"071","ward_name":"DRAVID NAGAR"},{"poi":"22.69665583 75.83244237 513.0 4.5509996","latitude":22.69665583,"longitude":75.83244237,"altittude":513,"amenity":"dental_clinic","operator":"private","name":"Sabu Dental Clinic","name_hindi":"साबू डेंटल क्लिनिक","address":"24-25 Arihant Apartment Sethi Gate,Indore","mobile":9827212566,"opening_hours":"Mo-Sa 11:00-15:00","personnel_count":1,"rate_list":"no","ward_no":"083","ward_name":"GUSHMATA NAGAR"},{"poi":"22.69921457 75.85267319 494.0 4.5509996","latitude":22.69921457,"longitude":75.85267319,"altittude":494,"amenity":"dental_clinic","operator":"private","name":"Dental And Orthodontic Center","name_hindi":"डेंटल एंड ऑर्थोडोंतिक सेन्टर","address":"Rajmahal Colony Indore","phone":9827036881,"opening_hours":"Mo-Sa 11:00-12:00 ; 16:00-20:00","personnel_count":1,"rate_list":"no","ward_no":"066","ward_name":"SHAHID HEMU COLONY"},{"poi":"22.70767148 75.82522605 506.0 5.0","latitude":22.70767148,"longitude":75.82522605,"altittude":506,"amenity":"dental_clinic","operator":"private","name":"Daant Ka Dawakhana","name_hindi":"दांत का दवाखाना","address":"Dhar Road,Indore","mobile":9926777225,"opening_hours":"Mo-Sa 10:00-20:00","personnel_count":6,"rate_list":"no","ward_no":"002","ward_name":"CHANDAN NAGAR"},{"poi":"22.71653418 75.85660327 497.9625244140625 3.216","latitude":22.71653418,"longitude":75.85660327,"altittude":497.9625244,"amenity":"dental_clinic","operator":"private","name":"Daat Ka Davakhana","name_hindi":"दात का दवाखाना","address":"96 Jawahar Marg,Indore","phone":7312342227,"opening_hours":"Mo-Sa 11:00-14:30","personnel_count":2,"rate_list":"no","ward_no":"059","ward_name":"HARSIDDHI"},{"poi":"22.69389817 75.82868083 495.0 5.0","latitude":22.69389817,"longitude":75.82868083,"altittude":495,"amenity":"dental_clinic","operator":"private","name":"Dr Sk Khatri Clinic","name_hindi":"डॉ। एसके खत्री क्लिनिक","address":"Phooti Kothi,Indore","mobile":9981155373,"opening_hours":"Mo-Sa 9:00-13:00;17:00-21:00","personnel_count":2,"rate_list":"no","ward_no":"083","ward_name":"GUSHMATA NAGAR"},{"poi":"22.69882311 75.83081594 508.0 9.0","latitude":22.69882311,"longitude":75.83081594,"altittude":508,"amenity":"dental_clinic","operator":"private","name":"Nidan Dental Clinic","name_hindi":"निदां दंत चिकित्सालय","address":"172 Gumasta Nagar","mobile":9826331130,"opening_hours":"Mo-Sa 11:00-19:00","personnel_count":1,"rate_list":"no","ward_no":"083","ward_name":"GUSHMATA NAGAR"},{"poi":"22.69732677 75.83267566 512.0 5.0","latitude":22.69732677,"longitude":75.83267566,"altittude":512,"amenity":"dental_clinic","operator":"private","name":"Nilay Dental Clinic","name_hindi":"निलय दंत चिकित्सा क्लिनिक","address":"Gumasta Nagar,Indore","mobile":9424583633,"opening_hours":"Mo-Sa 17:00-21:00","personnel_count":2,"rate_list":"no","ward_no":"083","ward_name":"GUSHMATA NAGAR"},{"poi":"22.7018316 75.83749565 516.0 5.0","latitude":22.7018316,"longitude":75.83749565,"altittude":516,"amenity":"dental_clinic","operator":"private","name":"Kalaa Dental Clinic","name_hindi":"काला दंत चिकित्सालय","address":"67 Dravid Nagar,Indore","mobile":9669738586,"opening_hours":"Mo-Sa 10:00-14:00;17:30-21:30","personnel_count":2,"rate_list":"no","ward_no":"071","ward_name":"DRAVID NAGAR"},{"poi":"22.69799268 75.85552623 493.0 4.5509996","latitude":22.69799268,"longitude":75.85552623,"altittude":493,"amenity":"dental_clinic","operator":"private","name":"Najmi Dental Clinic","name_hindi":"नाजमी डेंटल क्लिनिक","address":"G-2 226,Classic Arch,Khatiwala Tank,Indore","mobile":9893440922,"opening_hours":"Mo-Sa 09:00-12:00;18:00-21:00","personnel_count":2,"rate_list":"no","ward_no":"065","ward_name":"SANT KANWARRAM"},{"poi":"22.69798215 75.85619829 514.0 4.5509996","latitude":22.69798215,"longitude":75.85619829,"altittude":514,"amenity":"dental_clinic","operator":"private","name":"Hakimi Dental Clinic","name_hindi":"हकीमी डेंटल क्लिनिक","address":"230,Gharonda Apartments, Khatiwala Tank,Indore","mobile":9926929898,"opening_hours":"Mo-Sa 09:00-13:00;16:30-20:30","personnel_count":2,"rate_list":"no","ward_no":"065","ward_name":"SANT KANWARRAM"},{"poi":"22.6995404 75.85858987 508.0 4.5509996","latitude":22.6995404,"longitude":75.85858987,"altittude":508,"amenity":"dental_clinic","operator":"private","name":"Kapadia Dental Clinic","name_hindi":"कपाड़िया डेंटल क्लिनिक","address":"302-M,Khatiwala Tank,Indore","mobile":8827577552,"opening_hours":"Mo-Sa 10:00-13:00;17:00-21:00","personnel_count":2,"rate_list":"no","ward_no":"065","ward_name":"SANT KANWARRAM"},{"poi":"22.69538381 75.85320373 495.0 4.5509996","latitude":22.69538381,"longitude":75.85320373,"altittude":495,"amenity":"dental_clinic","operator":"private","name":"Hashmi Dental Clinic","name_hindi":"हाशमी डेंटल क्लिनिक","address":"16/2,Shyam Nagar,Manikbagh Road,Indore","mobile":8109047517,"opening_hours":"Mo-Sa 10:00-13:00;17:00-21:00","personnel_count":2,"rate_list":"no","ward_no":"073","ward_name":"LAXMANSINGH CHAUHAN"},{"poi":"22.69782 75.85957852 496.67437744140625 4.288","latitude":22.69782,"longitude":75.85957852,"altittude":496.6743774,"amenity":"dental_clinic","operator":"private","name":"Shree Dental Clinic","name_hindi":"श्री डेंटल क्लिनिक","address":"484, Bank Colony, Sudama Nagar, Indore","mobile":9229457271,"opening_hours":"Mo-Fr 9: 00-14: 00","personnel_count":2,"rate_list":"no","ward_no":"073","ward_name":"LAXMANSINGH CHAUHAN"},{"poi":"22.71708455 75.85564195 507.719970703125 3.216","latitude":22.71708455,"longitude":75.85564195,"altittude":507.7199707,"amenity":"dental_clinic","operator":"private","name":"Dr Ashok L Batheja","name_hindi":"डॉ अशोक एल बाथेजा","address":"Yashwant Road Indore","phone":731253347,"opening_hours":"12:30-14:30;18:30-21:00","personnel_count":2,"rate_list":"no","ward_no":"059","ward_name":"HARSIDDHI"},{"poi":"22.71399423 75.85595969 492.0 9.0","latitude":22.71399423,"longitude":75.85595969,"altittude":492,"amenity":"dental_clinic","operator":"private","name":"Dental Clinic","name_hindi":"डेंटल क्लीनिक","address":"45,Prince Yashwant Road,Pandrinath Choraha,Indore","mobile":9826066750,"opening_hours":"Mo-Sa 11:30-13:00","personnel_count":1,"rate_list":"no","ward_no":"059","ward_name":"HARSIDDHI"},{"poi":"22.70813309 75.85608417 500.0 5.0","latitude":22.70813309,"longitude":75.85608417,"altittude":500,"amenity":"dental_clinic","operator":"private","name":"Aarti Dental Clinic","name_hindi":"आरती डेंटल क्लिनिक","address":"Bargal Complex,Palsikar Choraha,Indore","mobile":8878806183,"opening_hours":"Mo-Sa 11:00-13:00;17:30-20:30","personnel_count":2,"rate_list":"no","ward_no":"061","ward_name":"TATYA SARVATE"},{"poi":"22.70793627 75.85172451 505.0 4.0","latitude":22.70793627,"longitude":75.85172451,"altittude":505,"amenity":"dental_clinic","operator":"private","name":"Airen'S Dental Clinic","name_hindi":"ऐरेन्स डेंटल क्लिनिक","address":"10,Jairampur Colony,Indore","mobile":9009000079,"opening_hours":"Mo-Sa 11:00-14:00;18:00-21:00","personnel_count":1,"rate_list":"no","ward_no":"067","ward_name":"MAHARAJA HOLKAR"},{"poi":"22.71537833 75.84953857 496.45025634765625 4.288","latitude":22.71537833,"longitude":75.84953857,"altittude":496.4502563,"amenity":"dental_clinic","operator":"private","name":"Dr Ashwin Kumar","name_hindi":"डॉ अश्विन कुमार","address":"Jawahar Marg,Indore","mobile":9425053406,"opening_hours":"10:00-22:00","personnel_count":2,"rate_list":"no","ward_no":"068","ward_name":"BAMBAI BAZAR"},{"poi":"22.71598338 75.85142599 498.8131103515625 4.288","latitude":22.71598338,"longitude":75.85142599,"altittude":498.8131104,"amenity":"dental_clinic","operator":"private","name":"Daat Ka Davakhana","name_hindi":"दात का दवाखाना","address":"Bajaj Khana Chouk,Indore","mobile":9926640030,"opening_hours":"Mo-Sa 13:30-16:00","personnel_count":1,"rate_list":"no","ward_no":"069","ward_name":"JAWAHAR MARG"},{"poi":"22.71344878 75.8566482 499.29931640625 4.288","latitude":22.71344878,"longitude":75.8566482,"altittude":499.2993164,"amenity":"dental_clinic","operator":"private","name":"Dental Clinic","name_hindi":"डेंटल क्लीनिक","address":"Padhrinath Road,Indore","mobile":9039622698,"personnel_count":3,"rate_list":"no","ward_no":"059","ward_name":"HARSIDDHI"},{"poi":"22.70955915 75.85070156 493.5516357421875 3.216","latitude":22.70955915,"longitude":75.85070156,"altittude":493.5516357,"amenity":"dental_clinic","operator":"private","name":"Jai Jhalelal Sai Dharmarth Clinic","name_hindi":"जय झलेलाल साई धर्मार्थ क्लिनिक","address":"8 Sai Baba Mandir, Futi Kothi Road, Chhatribagh, Indore - 452007, Near Dwarkapuri","phone":7312341790,"opening_hours":"Mo-Sa 09:00-12:00","personnel_count":3,"rate_list":"no","ward_no":"067","ward_name":"MAHARAJA HOLKAR"},{"poi":"22.68160638 75.8345054 500.0 4.0","latitude":22.68160638,"longitude":75.8345054,"altittude":500,"amenity":"dental_clinic","operator":"private","name":"Vishesh Dental Clinic","name_hindi":"विशेष डेंटल क्लीनिक","address":"112/A, Vaishali Nagar","mobile":9926776961,"opening_hours":"Mo-Sa 10:00-13:30","personnel_count":4,"rate_list":"no","ward_no":"080","ward_name":"DR. RAJENDRA PRASAD"},{"poi":"22.68799996 75.83679365 507.0 10.0","latitude":22.68799996,"longitude":75.83679365,"altittude":507,"amenity":"dental_clinic","operator":"private","name":"Daant Ka Dawakhana","name_hindi":"दांत का दवाखाना","address":"8/A, Bhawanipuri Colony","mobile":9399672170,"opening_hours":"Mo-Sa 08:00-19:30","personnel_count":5,"rate_list":"no","ward_no":"081","ward_name":"ANNAPURNA"},{"poi":"22.68092434 75.84326487 507.0 9.0","latitude":22.68092434,"longitude":75.84326487,"altittude":507,"amenity":"dental_clinic","operator":"private","name":"Dental Clinic","name_hindi":"डेंटल क्लीनिक","address":"Sch No 103, Bindu Apartment","mobile":9893717144,"opening_hours":"Mo-Sa 09:30-20:00","personnel_count":5,"rate_list":"no","ward_no":"078","ward_name":"CHOITHRAM"},{"poi":"22.68097751 75.83553015 499.5489501953125 4.288","latitude":22.68097751,"longitude":75.83553015,"altittude":499.5489502,"amenity":"dental_clinic","operator":"private","name":"Dr Subash Sonkesariya","name_hindi":"डॉ सुभाष सोंकेसरिया","address":"Silver Oaks Colony","mobile":9425347418,"opening_hours":"Mo-Sa 12:00-14:00; 17:00-21:00","personnel_count":1,"rate_list":"no","ward_no":"081","ward_name":"ANNAPURNA"},{"poi":"22.68090871 75.83492531 518.3209228515625 4.288","latitude":22.68090871,"longitude":75.83492531,"altittude":518.3209229,"amenity":"dental_clinic","operator":"private","name":"The Smile Store","name_hindi":"दी स्माइल स्टोर","address":"3 Vaishali Nagar","mobile":9826049045,"opening_hours":"Mo-Sa 10:00-14:00; 17:00-21:00","personnel_count":3,"rate_list":"no","ward_no":"080","ward_name":"DR. RAJENDRA PRASAD"},{"poi":"22.68137716 75.82950099 517.9598999023438 3.216","latitude":22.68137716,"longitude":75.82950099,"altittude":517.9598999,"amenity":"dental_clinic","operator":"private","name":"Pearl Dental Clinic","name_hindi":"पर्ल डेंटल क्लीनिक","address":"68-B ,Brajvihar Colony","mobile":8602655259,"opening_hours":"Mo-Sa 10:30-13:30;17:00-20:00","personnel_count":2,"rate_list":"no","ward_no":"080","ward_name":"DR. RAJENDRA PRASAD"},{"poi":"22.68351691 75.82981557 515.5802001953125 3.216","latitude":22.68351691,"longitude":75.82981557,"altittude":515.5802002,"amenity":"dental_clinic","operator":"private","name":"Shri Yeshwant Sharda Advanced Dental Clinic","name_hindi":"श्री यशवंत शारदा एडवांस्ड डेंटल क्लीनिक","address":"107 Shukla Bhawan Gopur Square","mobile":8817288912,"opening_hours":"11:00-14:00;17:00-21:00","personnel_count":2,"rate_list":"no","ward_no":"080","ward_name":"DR. RAJENDRA PRASAD"},{"poi":"22.6874853 75.83674254 510.8006591796875 4.288","latitude":22.6874853,"longitude":75.83674254,"altittude":510.8006592,"amenity":"dental_clinic","operator":"private","name":"Dr Deepa Saxena","name_hindi":"डॉ दीपा सक्सेना","address":"Annapurna Road,Indore","mobile":9826620030,"opening_hours":"Mo-Sa 18:00-21:30","personnel_count":1,"rate_list":"no","ward_no":"081","ward_name":"ANNAPURNA"},{"poi":"22.68845718 75.83422909 508.9395751953125 4.288","latitude":22.68845718,"longitude":75.83422909,"altittude":508.9395752,"amenity":"dental_clinic","operator":"private","name":"Ekdant Dental Clinic","name_hindi":"एकदंत डेंटल क्लीनिक","address":"422 A Sudama Nagar,Indore","mobile":9894335858,"opening_hours":"Mo-Sa 17:00-21:00","personnel_count":1,"rate_list":"no","ward_no":"082","ward_name":"SUDAMA NAGAR"},{"poi":"22.68173035 75.83444398 509.0489501953125 3.216","latitude":22.68173035,"longitude":75.83444398,"altittude":509.0489502,"amenity":"dental_clinic","operator":"private","name":"Vishesh Dental Clinic","name_hindi":"विशेष डेंटल क्लीनिक","address":"Vaishali Nagar Indore","mobile":9926776961,"opening_hours":"10:00-13:30;17:30-21:00","personnel_count":2,"rate_list":"no","ward_no":"080","ward_name":"DR. RAJENDRA PRASAD"},{"poi":"22.68392448 75.82916 521.484130859375 3.216","latitude":22.68392448,"longitude":75.82916,"altittude":521.4841309,"amenity":"dental_clinic","operator":"private","name":"Maharshi Raman Dental Clinic","name_hindi":"\nमहर्षि रमन दंत चिकित्सालय","address":"329 Ring Road Gopur Square","mobile":9893386811,"opening_hours":"10:00-13:00;17:00-21:00","personnel_count":10,"rate_list":"no","ward_no":"081","ward_name":"ANNAPURNA"},{"poi":"22.68225104 75.84102482 506.4384765625 4.288","latitude":22.68225104,"longitude":75.84102482,"altittude":506.4384766,"amenity":"dental_clinic","operator":"private","name":"Shataayu Dental Clinic","name_hindi":"शतायु डेंटल क्लीनिक","address":"Sch No.103 Kesar Bagh Road","mobile":9826245876,"opening_hours":"Mo-Sa 10:00-21:00","personnel_count":2,"rate_list":"no","ward_no":"078","ward_name":"CHOITHRAM"},{"poi":"22.68403242 75.82909188 527.068359375 3.216","latitude":22.68403242,"longitude":75.82909188,"altittude":527.0683594,"amenity":"dental_clinic","operator":"private","name":"Advanced Dental Clinic","name_hindi":"Advanced Dental Clinic","address":"Ring Road Gopur Square","mobile":9926094777,"opening_hours":"10:00-13:00;18:00-20:30","personnel_count":5,"rate_list":"no","ward_no":"081","ward_name":"ANNAPURNA"},{"poi":"22.67194721 75.83024565 513.0 4.5509996","latitude":22.67194721,"longitude":75.83024565,"altittude":513,"amenity":"dental_clinic","operator":"private","name":"Shri Datt Sevarth Dental Clinic","name_hindi":"श्री दत्त सेवार्थ डेंटल क्लिनिक","address":"5B Classic Point,Rajendra Nagar","mobile":9584737029,"opening_hours":"Mo-Sa 9:00-12:00;18:00-21:30","personnel_count":1,"rate_list":"no","ward_no":"080","ward_name":"DR. RAJENDRA PRASAD"},{"poi":"22.67237143 75.82982409 501.0 4.5509996","latitude":22.67237143,"longitude":75.82982409,"altittude":501,"amenity":"dental_clinic","operator":"private","name":"Global Dental Clinic","name_hindi":"ग्लोबल डेंटल क्लिनिक","address":"Ug3-109 Laxmi Paradise,Dhanvantari Nagar,Indore","mobile":8989547963,"opening_hours":"Mo-Sa 17:00-20:30","personnel_count":2,"rate_list":"no","ward_no":"080","ward_name":"DR. RAJENDRA PRASAD"},{"poi":"22.66673224 75.82586137 517.0 4.5509996","latitude":22.66673224,"longitude":75.82586137,"altittude":517,"amenity":"dental_clinic","operator":"private","name":"Sumit Dental Clinic","name_hindi":"सुमित डेंटल क्लीनिक","address":"885 Datt Nagar,Rajendra Nagar,Indore","mobile":9993693920,"opening_hours":"Mo-Fr 10:30-13:30;17:30-20:30","personnel_count":1,"rate_list":"no","ward_no":"080","ward_name":"DR. RAJENDRA PRASAD"},{"poi":"22.693964657373726 75.82872309722006 492.0 5.0","latitude":22.69396466,"longitude":75.8287231,"altittude":492,"amenity":"dental_clinic","operator":"private","name":"Dental And Hair Clinic(Dr S K Khatri)","name_hindi":"दांतों का अस्पताल","address":"Near Footi Kothi Square, Patni Tower, Indore","mobile":9926052982,"opening_hours":"mo-sa 09:00-12:00;17:00-21:00","personnel_count":2,"rate_list":"no","ward_no":"083","ward_name":"GUSHMATA NAGAR"},{"poi":"22.66952732 75.82812477 514.0 4.5509996","latitude":22.66952732,"longitude":75.82812477,"altittude":514,"amenity":"dental_clinic","operator":"private","name":"Dr Mahesh Melkundi","name_hindi":"डॉ महेश मेलकुंडी","address":"Ground Floor Shubh Anjali Apartment,Rajendra Nagar,Indore","mobile":9755603793,"opening_hours":"Mo-Fr 17:00-21:00","personnel_count":1,"rate_list":"no","ward_no":"080","ward_name":"DR. RAJENDRA PRASAD"},{"poi":"22.684538369067013 75.83293047733605 505.0 5.0","latitude":22.68453837,"longitude":75.83293048,"altittude":505,"amenity":"dental_clinic","operator":"private","name":"Dr Aparna Harsh Dokay","name_hindi":" डॉ अपर्णा हर्ष डोके","address":"109,Prikanko Colony, Indore","mobile":9893491106,"personnel_count":1,"rate_list":"no","ward_no":"081","ward_name":"ANNAPURNA"},{"poi":"22.67095666 75.8294185 516.0 4.5509996","latitude":22.67095666,"longitude":75.8294185,"altittude":516,"amenity":"dental_clinic","operator":"private","name":"Dental Care","name_hindi":"डेंटल केयर","address":"117B Rajendra Nagar,Indore","mobile":9584405899,"opening_hours":"Mo-Sa 17:00-21:00","personnel_count":1,"rate_list":"no","ward_no":"080","ward_name":"DR. RAJENDRA PRASAD"},{"poi":"22.68092265 75.84325677 498.0 4.5509996","latitude":22.68092265,"longitude":75.84325677,"altittude":498,"amenity":"dental_clinic","operator":"private","name":"Dental Clinic","name_hindi":"डेंटल क्लीनिक","address":"Bindu Apartment, Scheme No.103, Indore","mobile":9893717144,"opening_hours":"Mo-Fr 18:00-20:00","personnel_count":1,"rate_list":"no","ward_no":"078","ward_name":"CHOITHRAM"},{"poi":"22.68400016706437 75.82908821292222 517.0 5.0","latitude":22.68400017,"longitude":75.82908821,"altittude":517,"amenity":"dental_clinic","operator":"private","name":"Dr Jindal Dental Care","name_hindi":"  डॉ जिंदल डेंटल केयर","address":"Near Gopur Square, Indore","mobile":9826515777,"opening_hours":"mo-sa 09:00-14:00; 16:00-21:00","personnel_count":2,"rate_list":"no","ward_no":"081","ward_name":"ANNAPURNA"},{"poi":"22.688264418393373 75.82843484357 519.0 6.0","latitude":22.68826442,"longitude":75.82843484,"altittude":519,"amenity":"dental_clinic","operator":"private","name":"Dant Ka Dawakhana","name_hindi":"दन्त का दवखाना","address":"Sector E Sudama Nagar Indore","personnel_count":1,"rate_list":"no","ward_no":"082","ward_name":"SUDAMA NAGAR"},{"poi":"22.67732552 75.83837074 501.0 4.5509996","latitude":22.67732552,"longitude":75.83837074,"altittude":501,"amenity":"dental_clinic","operator":"private","name":"Krishna Dental Clinic","name_hindi":"कृष्ण डेंटल क्लिनिक","address":"37, Bindu Regency, Scheme No.103 , Indore","mobile":7869381622,"opening_hours":"Mo-Fr 17:30-21:30","personnel_count":1,"rate_list":"no","ward_no":"078","ward_name":"CHOITHRAM"},{"poi":"22.68614392261952 75.82461311481893 522.0 5.0","latitude":22.68614392,"longitude":75.82461311,"altittude":522,"amenity":"dental_clinic","operator":"private","name":"Sumit Dental Clinic","name_hindi":"सुमित डेंटल क्लीनिक","address":"3514 / E Sector Sudama Nagar Indore","mobile":9993693920,"opening_hours":"mo-sa 10:00-13:30; 17:00-21:00","personnel_count":2,"rate_list":"no","ward_no":"082","ward_name":"SUDAMA NAGAR"},{"poi":"22.67749512 75.83814692 518.0 4.5509996","latitude":22.67749512,"longitude":75.83814692,"altittude":518,"amenity":"dental_clinic","operator":"private","name":"32 Gems Dental Clinic","name_hindi":"३२ जेम्स डेंटल क्लिनिक","address":"B-22 , Chanakya Complex ,Indore","mobile":8349382906,"opening_hours":"Mo-Sa 10:00-13:00 ; 17:00-20:00","personnel_count":1,"rate_list":"no","ward_no":"078","ward_name":"CHOITHRAM"},{"poi":"22.68098843 75.83548297 512.0 4.5509996","latitude":22.68098843,"longitude":75.83548297,"altittude":512,"amenity":"dental_clinic","operator":"private","name":"Dr Subhash Sonkesariya","name_hindi":"डॉ सुभाष सोंकेसरिया","address":"24-25, Saisagar Apartment, Silver Oaks Colony ,Indore","mobile":9425347418,"opening_hours":"Mo-Sa 12:00-14:00 ; 17:00-21:00","personnel_count":1,"rate_list":"no","ward_no":"081","ward_name":"ANNAPURNA"},{"poi":"22.68083199 75.83481946 517.0 4.5509996","latitude":22.68083199,"longitude":75.83481946,"altittude":517,"amenity":"dental_clinic","operator":"private","name":"Dental Clinic","name_hindi":"डेंटल क्लीनिक","address":"3, Vaishali Nagar ,Indore","mobile":9826049045,"opening_hours":"Mo-Sa 10:00-14:00 ; 17:00-20:00","personnel_count":1,"rate_list":"no","ward_no":"080","ward_name":"DR. RAJENDRA PRASAD"},{"poi":"22.77014874 75.91095612 497.94183349609375 3.216","latitude":22.77014874,"longitude":75.91095612,"altittude":497.9418335,"amenity":"dental_clinic","operator":"private","name":"Smile Up","name_hindi":"स्माइल अप","address":"Nepania Road,Indore","mobile":9713966128,"opening_hours":"Mo-Sa 10:00-14:00; 17:00-21:00","personnel_count":1,"rate_list":"no","ward_no":"036","ward_name":"NIPANIYA"},{"poi":"22.7644825 75.92028886 507.0 4.288","latitude":22.7644825,"longitude":75.92028886,"altittude":507,"amenity":"dental_clinic","operator":"private","name":"Smile Dental Clinic","name_hindi":"स्माइल डेंटल क्लीनिक","address":"In Front Of Balaji Skies, Nipania Road","mobile":9424334608,"opening_hours":"Mo-Sa 10:30-14:30; Mo-Sa 17:00-20:00","personnel_count":3,"rate_list":"no","ward_no":"036","ward_name":"NIPANIYA"},{"poi":"22.76207616 75.92186592 502.0 4.288","latitude":22.76207616,"longitude":75.92186592,"altittude":502,"amenity":"dental_clinic","operator":"private","name":"Smile Maker Dental Clinic","name_hindi":"स्माइल मेकर डेंटल क्लिनीक","address":"Summer Park, Nipania Main Road","mobile":9644000201,"opening_hours":"Mo-Sa 9:00-21:00","personnel_count":5,"rate_list":"no","ward_no":"036","ward_name":"NIPANIYA"},{"poi":"22.7646093 75.90232016 515.3911743164062 4.288","latitude":22.7646093,"longitude":75.90232016,"altittude":515.3911743,"amenity":"dental_clinic","operator":"private","name":"Dental Clinic","name_hindi":"डेंटल क्लीनिक","address":"Anurag Nagar,Indore","mobile":7024119407,"opening_hours":"Mo-Sa 09:30-13:30; 18:00-21:00","personnel_count":1,"rate_list":"no","ward_no":"031","ward_name":"MAHARAJA CHATRASAL"},{"poi":"22.75729385 75.90871568 493.74072265625 4.288","latitude":22.75729385,"longitude":75.90871568,"altittude":493.7407227,"amenity":"dental_clinic","operator":"private","name":"Dr Rashmi","name_hindi":" डॉ रश्मि","address":"Mahalaxmi Nagar,Indore","mobile":9754007007,"opening_hours":"Mo-Sa 11:00-14:00; 18:00-21:30","personnel_count":2,"rate_list":"no","ward_no":"036","ward_name":"NIPANIYA"},{"poi":"22.76302055 75.92284786 493.0 3.0","latitude":22.76302055,"longitude":75.92284786,"altittude":493,"amenity":"dental_clinic","operator":"private","name":"Raghuwanshi Dental Clinic","name_hindi":"रघुवंशी डेंटल क्लिनिक","address":"28,Summer Park,Nipania,Near Gate No. 1,Indore","mobile":9752812221,"opening_hours":"Mo-Sa 14:30-20:00","personnel_count":1,"rate_list":"no","ward_no":"036","ward_name":"NIPANIYA"},{"poi":"22.76082948 75.92990198 499.0 3.0","latitude":22.76082948,"longitude":75.92990198,"altittude":499,"amenity":"dental_clinic","operator":"private","name":"Smile Care Dental Clinic","name_hindi":"स्माइल केअर डेंटल क्लिनिक","address":"Shop No.21,First Floor ,Ocean Arcade,Ocean Park,Nipania","mobile":9425353530,"personnel_count":2,"rate_list":"no","ward_no":"036","ward_name":"NIPANIYA"},{"poi":"22.763106666666665 75.92365166666667 549.8 1.1","latitude":22.76310667,"longitude":75.92365167,"altittude":549.8,"amenity":"dental_clinic","operator":"private","name":"Dental Medical Clinic","name_hindi":"ङेन्टल मेङिकल क्लिनिक","address":"Bussiness Iceland ,Nipaniya","mobile":9893293599,"opening_hours":"Mo-Sa10:00-13:00;17:00-20:00","personnel_count":0,"rate_list":"no","ward_no":"036","ward_name":"NIPANIYA"},{"poi":"22.76938942 75.87966246 482.5831298828125 3.216","latitude":22.76938942,"longitude":75.87966246,"altittude":482.5831299,"amenity":"dental_clinic","operator":"private","name":"Atharva Dental Clinic","name_hindi":"अथर्व डेंटल क्लिनिक","address":"88, Surya Palace,Indore","mobile":9893999897,"opening_hours":"Mo-Sa 11:00-14:00;18:30-21:00","personnel_count":2,"rate_list":"no","ward_no":"033","ward_name":"SUKHLIYA"},{"poi":"22.79695712 75.89799084 462.0 4.5509996","latitude":22.79695712,"longitude":75.89799084,"altittude":462,"amenity":"dental_clinic","operator":"private","name":"Samksh Dental Clinic","name_hindi":"समक्ष डेंटल क्लिनिक","address":"Singapore Township, Talawali Chanda , Indore","mobile":8109435381,"opening_hours":"Mo-Sa 10:00-13:30 ; 17:00-21:00","personnel_count":0,"rate_list":"no"},{"poi":"22.69263593 75.90415224 523.0 4.5509996","latitude":22.69263593,"longitude":75.90415224,"altittude":523,"amenity":"dental_clinic","operator":"private","name":"Keshav Multispeciality Dental Clinic","name_hindi":"केशव मल्टीस्पेशलिटी डेंटल क्लिनिक","address":"Mayur Nagar,Musakhedi,Indore","mobile":8770727277,"opening_hours":"Mo-Sa 11:00-14:00;16:00-21:00","personnel_count":2,"rate_list":"no","ward_no":"054","ward_name":"RESIDENCY"},{"poi":"22.68728235270828 75.89252538979053 508.0 6.0","latitude":22.68728235,"longitude":75.89252539,"altittude":508,"amenity":"dental_clinic","operator":"private","name":"Sanjeev Dental Clinic","name_hindi":" संजीव डेंटल क्लिनिक","address":"266, Sri Ram Nagar Palda, Indore","mobile":7746051111,"opening_hours":"mo-sa 10:00-13:00;17:00-21:00","personnel_count":1,"rate_list":"no","ward_no":"051","ward_name":"BHAGVATI NAGAR"},{"poi":"22.67412046 75.87996573 530.0 5.0","latitude":22.67412046,"longitude":75.87996573,"altittude":530,"amenity":"dental_clinic","operator":"private","name":"Daant Ka Dawakhana","name_hindi":"दांत का दवाखाना","address":"Khandwa Naka Road","mobile":9713738702,"opening_hours":"Mo-Sa 08:30-18:30","personnel_count":5,"rate_list":"no","ward_no":"075","ward_name":"PALDA"},{"poi":"22.66770293 75.88713654 504.0 7.0","latitude":22.66770293,"longitude":75.88713654,"altittude":504,"amenity":"dental_clinic","operator":"private","name":"Leelasagar Dental Care Centre","name_hindi":"Leela","address":"9, Brajanyani , Limbodi","mobile":9479748682,"opening_hours":"Mo-Sa 09:00-17:00","personnel_count":7,"rate_list":"no","ward_no":"077","ward_name":"BILAWALI"},{"poi":"22.66814328 75.88970804 534.0 6.0","latitude":22.66814328,"longitude":75.88970804,"altittude":534,"amenity":"dental_clinic","operator":"private","name":"Kiran Clinic","name_hindi":"किरण क्लीनिक","address":"G/12, Shivdham Colony, Limbodi","mobile":7772042743,"opening_hours":"Mo-Sa 09:30-19:00","personnel_count":5,"rate_list":"no","ward_no":"077","ward_name":"BILAWALI"},{"poi":"22.66490873 75.91506094 525.0 5.0","latitude":22.66490873,"longitude":75.91506094,"altittude":525,"amenity":"dental_clinic","operator":"private","name":"Dr.Nitin Masih","name_hindi":"डॉ.नितिन मसीह","address":"Mundla Matra,By Pass Road,Indore","mobile":7772926024,"opening_hours":"Mo-Sa 10:00-13:00;17:00-20:00","personnel_count":1,"rate_list":"no","ward_no":"075","ward_name":"PALDA"},{"poi":"22.68704062 75.89211626 516.1008911132812 3.216","latitude":22.68704062,"longitude":75.89211626,"altittude":516.1008911,"amenity":"dental_clinic","operator":"private","name":"Dr Jindal","name_hindi":"डॉ। जिंदल","address":"1 Pavan Nagar Indore","mobile":9826515777,"opening_hours":"09:00-13:00;17:00-21:00","personnel_count":2,"rate_list":"no","ward_no":"064","ward_name":"CHITAVAD"},{"poi":"22.66205401 75.88982855 518.0 9.0","latitude":22.66205401,"longitude":75.88982855,"altittude":518,"amenity":"dental_clinic","operator":"private","name":"Gopal Multi Speciality Clinic","name_hindi":"गोपाल मल्टी स्पेशलिटी क्लिनिक","address":"295 Shri Krishna Avenue Phase 1","mobile":9770244194,"opening_hours":"Mo-Sa 10:00-12:00;14:00-20:00","personnel_count":4,"rate_list":"no","ward_no":"077","ward_name":"BILAWALI"},{"poi":"22.75865842 75.84807173 477.0 4.5509996","latitude":22.75865842,"longitude":75.84807173,"altittude":477,"amenity":"dental_clinic","operator":"private","name":"Gurukripa Dental Clinic","name_hindi":"गुरुकृपा डेंटल क्लिनिक","address":"Sanwer Road,Indore","mobile":9109610355,"opening_hours":"Mo-Sa 10:00-14:00;17:00-19:00","personnel_count":1,"rate_list":"no","ward_no":"018","ward_name":"SANT KABIR"},{"poi":"22.79570734 75.84727335 506.0 4.5509996","latitude":22.79570734,"longitude":75.84727335,"altittude":506,"amenity":"dental_clinic","operator":"private","name":"R K Dental Clinic","name_hindi":"आर.के.डेंटल क्लिनीक","address":"Opp.Aurobindo Medical College,Sanwer Road,Indore","mobile":7748888800,"opening_hours":"Mo-Sa 11:00-14:00;17:00-20:00","personnel_count":2,"rate_list":"no","ward_no":"018","ward_name":"SANT KABIR"},{"poi":"22.73986228276044 75.84769855253398 488.0 6.0","latitude":22.73986228,"longitude":75.84769855,"altittude":488,"amenity":"dental_clinic","operator":"private","name":"Smile Dental Clinic","name_hindi":"स्माइल डेंटल क्लीनिक","address":"Vrindawan Colony, Kila Maidan Road,Indore","mobile":9713347791,"opening_hours":"mo-sa 10:00-14:00; 17:00-21:00; sun 10:00-14:00","personnel_count":3,"rate_list":"no","ward_no":"009","ward_name":"VRINDAVAN"},{"poi":"22.74083164986223 75.83460853435099 491.0 7.0","latitude":22.74083165,"longitude":75.83460853,"altittude":491,"amenity":"dental_clinic","operator":"private","name":"Shine Dental Care","name_hindi":"#N/A","address":"294, Scheme Number 51, Near Police Chowki, Indore","mobile":9993022580,"opening_hours":"mo-sa 10:00-14:00;17:30-20;30","personnel_count":0,"rate_list":"no","ward_no":"013","ward_name":"SANGAM NAGAR"},{"poi":"22.81945539 75.92847729 491.0 4.5509996","latitude":22.81945539,"longitude":75.92847729,"altittude":491,"amenity":"dental_clinic","operator":"private","name":"Parihar Poli Dental Clinjc","name_hindi":"परिहार पॉली डेंटल क्लीनिक","address":"1/4, Gopika Complex, New Palasia, Indore","mobile":9329275760,"opening_hours":"Mo-Sa 15:00-19:00","personnel_count":2,"rate_list":"no"},{"poi":"22.81722 75.92580754 496.0 5.0","latitude":22.81722,"longitude":75.92580754,"altittude":496,"amenity":"dental_clinic","operator":"private","name":"Misha's Dental Clinic","name_hindi":"मिश्रास डेंटल क्लिनिक","address":"A.B. Road,Mangliya","mobile":9827113180,"personnel_count":2,"rate_list":"no"},{"poi":"22.79845657 75.91208254 484.0 3.0","latitude":22.79845657,"longitude":75.91208254,"altittude":484,"amenity":"dental_clinic","operator":"private","name":"Maa Durga Clinic","name_hindi":"माँ दुर्गा क्लिनिक","address":"385/5, Bajrang Nagar, Talawali Chanda, Indore","mobile":"073897 97718","opening_hours":"Tu-Sa 9:00-13:00;17:00-21:00","personnel_count":1,"rate_list":"no","ward_no":"035","ward_name":"LASUDIYA MORI"},{"poi":"22.72909251 75.8211054 492.0 4.5509996","latitude":22.72909251,"longitude":75.8211054,"altittude":492,"amenity":"dental_clinic","operator":"private","name":"Devdatta Dental Clinic","name_hindi":"#N/A","address":"16 Ambikapur Extension,Indore","mobile":7400744123,"opening_hours":"Mo-Fr 9:30-13:00;17:30-21:00","personnel_count":1,"rate_list":"no","ward_no":"014","ward_name":"ASHOK NAGAR"},{"poi":"22.73971514 75.84816222 495.48883056640625 9.648001","latitude":22.73971514,"longitude":75.84816222,"altittude":495.48883060000003,"amenity":"dental_clinic","operator":"private","name":"Dr Chanchal Veer","name_hindi":"डॉ। चंचल वीर","address":"Brindavan Colony Indore","mobile":8077843424,"personnel_count":2,"rate_list":"no","ward_no":"009","ward_name":"VRINDAVAN"},{"poi":"22.74385382 75.8483981 491.4451904296875 3.216","latitude":22.74385382,"longitude":75.8483981,"altittude":491.4451904,"amenity":"dental_clinic","operator":"private","name":"Sri Hari Geet Dental Clinic","name_hindi":"\nश्री हरि जीत दंत चिकित्सालय","address":"52-53 Sathya Sai Bagh Colony Indore","mobile":9770907205,"opening_hours":"11:00-13:00;18:00-21:00","personnel_count":2,"rate_list":"no","ward_no":"010","ward_name":"BANGANGA"},{"poi":"22.73471466 75.83077193 491.666748046875 3.216","latitude":22.73471466,"longitude":75.83077193,"altittude":491.666748,"amenity":"dental_clinic","operator":"private","name":"Aditya Dental Clinic","name_hindi":"आदित्य डेंटल क्लिनिक","address":"7 Rukmani Nagar Chota Bangarda Main Road Indore","mobile":8962129759,"opening_hours":"10:00-13:00;17:00-21:00","personnel_count":1,"rate_list":"no","ward_no":"014","ward_name":"ASHOK NAGAR"},{"poi":"22.706255000000002 75.82043333333333 572.2 0.9","latitude":22.706255,"longitude":75.82043333,"altittude":572.2,"amenity":"dental_clinic","operator":"private","name":"The Great Smile Dental Clinic","name_hindi":"द ग्रेट स्माइल ङेन्टल क्लिनिक","address":"65/5 Hakimibagh, Sirpur, Dhar Road, Indore","mobile":8889115493,"opening_hours":"Mo-Sa11:00-13:00; 18:30-21:30","personnel_count":2,"rate_list":"no","ward_no":"001","ward_name":"SIRPUR"}]}