{"mental_health_centers":[{"latitude":22.72906421,"longitude":75.89367061,"precision":4.5509996,"amenity":"mental health care centres","name":"Elite Health Care Rehabilitation Centre","name_hindi":"इलीट हेल्थ केअर रिहैबिलिटेशन सेन्टर","address":"150 Ground Floor,Shrinagar Nagar Main,Near Anand Bazar,Indore","mobile":"9584356744","opening_hours":"Mo-Sa 9:00-21:00","personnel_count":7,"ward_no":"043","ward_name":"SHRINAGAR"},{"latitude":22.73261233,"longitude":75.88687073,"precision":8,"amenity":"mental health care centres","name":"Indo Vision Physiotherapy And Rehabilitation Center","name_hindi":"इंडो विज़न फिजियोथेरेपी एंड रेहबीटीलाशन सेंटर","address":"B/129 Lig Colony","phone":"07314971512","personnel_count":5,"ward_no":"045","ward_name":"DR. BHIMRAO AMBEDAR"},{"latitude":22.74178856,"longitude":75.87116584,"precision":4.5509996,"amenity":"mental health care centres","name":"Sparsh Rehabilitation Center","name_hindi":"स्पर्श रेहबिलिशन सेंटर","address":"164,Subhash Nagar,Indore","opening_hours":"Mo-Sa 10:00-13:00;16:00-19:00;Su 10:00-13:00","personnel_count":3,"ward_no":"024","ward_name":"SANT BALAJI ATH MAHARAJ"},{"latitude":22.70728,"longitude":75.88949166666666,"precision":0.9,"amenity":"mental health care centres","name":"Comprehensive Rehabilitation Center","name_hindi":"कॉम्प्रिहेंसिव रेहबिलिटेशन सेंटर","address":"11, Dhar Kothi","phone":"07312701311","website":"www.parvezcrc.com","email":"parvezkhn@rediffmail.com","opening_hours":"Mo-Sa 11:00-18:00","personnel_count":0,"ward_no":"055","ward_name":"SAUTH TUKOGANJ"},{"latitude":22.72612958,"longitude":75.89603663,"precision":13.653,"amenity":"mental health care centres","name":"Bhramakumari Meditation Center","name_hindi":"भ्रमकुमारी मैडिटेशन सेंटर","address":"E-22,Saket,Indore","phone":"07312562233","opening_hours":"Mo-Su 06-12:00;17:00-21:00","personnel_count":5,"ward_no":"042","ward_name":"SWAMI VIVEKANAND"},{"latitude":22.72653511,"longitude":75.88758259,"precision":3.216,"amenity":"mental health care centres","name":"Dr. Ashok Dagriya","name_hindi":"डॉ अशोक डगरिया","address":"13 ,Old Palasia","phone":"07312435236","personnel_count":2,"ward_no":"043","ward_name":"SHRINAGAR"},{"latitude":22.72616069,"longitude":75.88123198,"precision":4.5509996,"amenity":"mental health care centres","name":"Dr. Ajay Jain","name_hindi":"डॉ अजय जैन","address":"309, Third Floor, Apollo Skveyr","mobile":"9827023560","personnel_count":2,"ward_no":"047","ward_name":"SARDAR VALLABHBHAI"},{"latitude":22.76306727,"longitude":75.92350412,"precision":5,"amenity":"mental health care centres","name":"Su-Swasthya Agch Venture","name_hindi":"सु-स्वस्थ्य ए जी सीएच वेंचर","address":"Business Iceland,Opp Samar Park,Nipania","mobile":"9755502700","opening_hours":"Mo-Sa 18:00-20:00","personnel_count":2,"ward_no":"036","ward_name":"NIPANIYA"},{"latitude":22.76573333333333,"longitude":75.91839166666666,"precision":0.8,"amenity":"mental health care centres","name":"Dr Mahendra Singh Bhadoriya","name_hindi":"ङा महेन्द्र सिह भदोरिया","address":"Ankur Angan, Nipaniya Road","mobile":"7089134269","opening_hours":"Mo-Sa17:00-20:00","personnel_count":1,"ward_no":"036","ward_name":"NIPANIYA"},{"latitude":22.74980925,"longitude":75.92834563,"precision":5,"amenity":"mental health care centres","name":"Kerala Ayurvedic Bhavan Treatment And Research","name_hindi":"केरल आयुर्वेदिक भवन उपचार और अनुसंधान","address":"Scheme 134 Nipania Road Near Advanced Academy","phone":"9893601177","opening_hours":"Mo-Su 9:30-15:00","personnel_count":4,"ward_no":"039","ward_name":"NAHAR SHAHVALI"},{"latitude":22.65703833333334,"longitude":75.88511666666666,"precision":0.8,"amenity":"mental health care centres","name":"Happy Home","name_hindi":"हैप्पी होम","address":"Infornt Of Sdps School,Khandwa Road,Indore","mobile":"9630124445","opening_hours":"Mo-Sa12:00-21:30","personnel_count":20,"ward_no":"077","ward_name":"BILAWALI"},{"latitude":22.72488333333333,"longitude":75.82464333333334,"precision":1.1,"amenity":"mental health care centres","name":"Bukhariya Mind Clinic","name_hindi":"बूखारिया माइंङ क्लिनिक","address":"3 Anjani Nagar, Kalani Nagar Square","mobile":"7209375311","opening_hours":"Mo-Sa17:00-20:00","personnel_count":1,"ward_no":"004","ward_name":"SUKHDEV NAGAR"},{"latitude":22.72873166666666,"longitude":75.81992,"precision":1.1,"amenity":"mental health care centres","name":"Finesse Rehabilitation Center","name_hindi":"फाइनेस रेहेबिलिटेशन सेन्टर","address":"146 Kamyakunj Nagar","mobile":"9981852870","email":"sunnyy47.sy@gmail.com","opening_hours":"Mo-Sa09:00-14:00;17:00-21:00","personnel_count":5,"ward_no":"004","ward_name":"SUKHDEV NAGAR"},{"latitude":22.75315618,"longitude":75.90433186,"precision":5,"amenity":"mental health care centres","name":"Sankalp Physiotherapy Clinic","name_hindi":"संकल्प फिजियोथेरेपी क्लिनिक","address":"Lg 03,Ec.16,Sch No.94,Bombay Hospital Square,Vojay Nagar,Indore","mobile":"9977194405","personnel_count":3,"ward_no":"037","ward_name":"SAI KRUPA"},{"latitude":22.75313432,"longitude":75.90436627,"precision":6.068,"amenity":"mental health care centres","name":"Sankalap Physiotherapy Clinic ","name_hindi":"संकल्प फिजियोथेरेपी क्लीनिक","address":"Lg03, Ec 16,Sch No. 94, Bombay Hospital Sqaure","mobile":"9977194405","personnel_count":3,"ward_no":"037","ward_name":"SAI KRUPA"},{"latitude":22.76750533,"longitude":75.88946998,"precision":3,"amenity":"mental health care centres","name":"Active Health Physiotherapy And Rehabilitation Centre","name_hindi":"एक्टिव हैल्थ फिजियोथैरेपी एंड रहबिलिटेशन सेंटर","address":"11 Dc S-1 Sch No 78 Rnd Nagar","mobile":"8878922210","email":"raghuveermewada@gmail.com","opening_hours":"Mon-Sat 9 am to 4 pm then 5 pm to 9 pm\nSunday 9am to 1pm","personnel_count":3,"ward_no":"034","ward_name":"SHAHID BHAGATSINGH"}]}