{"private_hospitals":[{"latitude":22.74155398,"longitude":75.90017649,"precision":4.5509996,"operator_type":"private","amenity":"dental_clinic","name":"Ayushmaan Dental Clinic","name_hindi":"आयुष्मान डेंटल क्लीनिक","address":"118, H S Tower, Doctors Chamber, Shradhhashree Colony, Barfani Dham ","mobile":"9039690496","opening_hours":"Sa-Su 10:00-14:30; 17:00-21:00","personnel_count":3,"rate_list":"no","ward_no":"030","ward_name":"SANT RAVIDAS"},{"latitude":22.74250319,"longitude":75.89458268,"precision":4.5509996,"operator_type":"private","amenity":"dental_clinic","name":"Esthetics Dental Clinic","name_hindi":"एस्थेटिक्स डेंटल क्लीनिक","address":"27-A, Normal Section, Chandra Nagar, Mr-9 ","mobile":"9669042047","opening_hours":"Sa-Su 11:00-14:00;17:00-21:00","personnel_count":2,"rate_list":"no","ward_no":"044","ward_name":"H.I.G."},{"latitude":22.73071558333334,"longitude":75.8981515,"precision":8,"operator_type":"private","amenity":"dental_clinic","name":"Hari Geet Dental Clinic","name_hindi":"हरि गीत डेंटल क्लिनिक","address":"57, Shri Nagar Extension, Near Suniket Appartment","mobile":"9770907205","opening_hours":"Ma-Sa 10:00-14:00; Mo-Sa 16:00-20:00","personnel_count":4,"rate_list":"no","ward_no":"043","ward_name":"SHRINAGAR"},{"latitude":22.73039344,"longitude":75.89704705,"precision":4.5509996,"operator_type":"private","amenity":"dental_clinic","name":"India Dental & Surgical Solution","name_hindi":"इंडिया डेंटल & सर्जिकल सलूशन","address":"Flat No. 102,Ambika Regency 44,Shree Nagar Extension,Indore","mobile":"8770049788","opening_hours":"Mo-Fr 10:00-19:00","personnel_count":3,"rate_list":"no","ward_no":"043","ward_name":"SHRINAGAR"},{"latitude":22.73066146,"longitude":75.89887376,"precision":4.5509996,"operator_type":"private","amenity":"dental_clinic","name":"Dr. Chauhan'S Dental Clinic","name_hindi":"डॉ चौहान डेंटल क्लिनिक","address":"Suniket Apartment, Khajrana Main Rd, Shree Nagar Ext, Colony, Indore","phone":"07314007070","opening_hours":"Mo-Sa 10:00-13:00;16:30:-20:30","personnel_count":3,"rate_list":"no","ward_no":"043","ward_name":"SHRINAGAR"},{"latitude":22.72853332,"longitude":75.89706482,"precision":4.5509996,"operator_type":"private","amenity":"dental_clinic","name":"Dento Surgical Center","name_hindi":"डेंट सर्जिकल सेन्टर","address":"35 Kalpana Lok Colony,Indore","mobile":"9826056487","opening_hours":"Mo-Sa 10:00-11:00;17:00-20:00","personnel_count":5,"rate_list":"no","ward_no":"042","ward_name":"SWAMI VIVEKANAND"},{"latitude":22.72673649,"longitude":75.90053425,"precision":4.5509996,"operator_type":"private","amenity":"dental_clinic","name":"Kusum Dental Clinic","name_hindi":"कुसुम डेंटल कलनिक","address":"66,Manish Puri Colony,Near Sheatel Nagar,Indore","mobile":"9893383468","opening_hours":"Mo-Fr 10:00-13:00;17:00-20:00","personnel_count":2,"rate_list":"no","ward_no":"042","ward_name":"SWAMI VIVEKANAND"},{"latitude":22.72625861,"longitude":75.90353688,"precision":4.5509996,"operator_type":"private","amenity":"dental_clinic","name":"Multispeciality Dental Clinic","name_hindi":"मल्टीस्पेशलिटी डेंटल कलनिक","address":"A-50 Paliwal Nagar,Indore","mobile":"8554974275","opening_hours":"Mo-Sa 17:00-21:00","personnel_count":2,"rate_list":"no","ward_no":"042","ward_name":"SWAMI VIVEKANAND"},{"latitude":22.72833532,"longitude":75.89487125,"precision":4.5509996,"operator_type":"private","amenity":"dental_clinic","name":"Gambhir Dental Clinic","name_hindi":"गंभीर डेंटल क्लिनिक","address":"Ground Floor,Ronak Towar,Anand Bazar,Indore","mobile":"9827067994","opening_hours":"Mo-Fr 10:00-12:00;19:00-21:00","personnel_count":2,"rate_list":"no","ward_no":"043","ward_name":"SHRINAGAR"},{"latitude":22.72853784,"longitude":75.89570569,"precision":6.068,"operator_type":"private","amenity":"dental_clinic","name":"Ideal Dental Care","name_hindi":"आइडियल डेंटल केअर","address":"19, Baikunth Dham, Khajrana Main Road,Indore","phone":"07314274561","opening_hours":"Mo-Sa 10:00-20:00","personnel_count":13,"rate_list":"no","ward_no":"042","ward_name":"SWAMI VIVEKANAND"},{"latitude":22.73193867,"longitude":75.88783346,"precision":5,"operator_type":"private","amenity":"dental_clinic","name":"Patni Family Dental Clinic","name_hindi":"पाटनी फैमिली डेंटल क्लिनिक","address":"A-46 Mig Colony","opening_hours":"Mo-Fr 19:00-21:00\nSu 10:00-13:00","personnel_count":2,"rate_list":"no","ward_no":"045","ward_name":"DR. BHIMRAO AMBEDAR"},{"latitude":22.73510806,"longitude":75.89785273,"precision":4.5509996,"operator_type":"private","amenity":"dental_clinic","name":"Parshva Dental","name_hindi":"पार्श्व डेंटल","address":"E-52, Anurag Nagar, Indore","mobile":"9406883679","opening_hours":"Mo-Sa 10:00-12:00","personnel_count":1,"rate_list":"no","ward_no":"030","ward_name":"SANT RAVIDAS"},{"latitude":22.7390073,"longitude":75.88085768,"precision":3,"operator_type":"private","amenity":"dental_clinic","name":"Dentist","name_hindi":"दंत चिकित्सक","address":"Patnipura","mobile":"9977783283","opening_hours":"Mo-Fr 10:00-15:00;18:00-21:00","personnel_count":3,"rate_list":"no","ward_no":"026","ward_name":"JEEN MATA"},{"latitude":22.73902569,"longitude":75.88076119,"precision":5,"operator_type":"private","amenity":"dental_clinic","name":"Doctor Wancha Dental Clinic","name_hindi":"\nडॉक्टर वंचा डेंटल क्लीनिक","address":"Patnipura","opening_hours":"Mo-Fr 10:00-15:00;18:00-21:00","personnel_count":2,"rate_list":"no","ward_no":"026","ward_name":"JEEN MATA"},{"latitude":22.73918226,"longitude":75.88057642,"precision":5,"operator_type":"private","amenity":"dental_clinic","name":"Dr Arpit Chopra Dental Clinic","name_hindi":"डॉ अर्पित चोपड़ा डेंटल क्लिनिक","address":"Patnipura Square ","mobile":"9425329457","email":"Dr.Arpit3101@gmail.com","opening_hours":"Mo-Sa 10:30-14:00;17:00-21:00","personnel_count":3,"rate_list":"no","ward_no":"026","ward_name":"JEEN MATA"},{"latitude":22.72775423,"longitude":75.89458156,"precision":4.5509996,"operator_type":"private","amenity":"dental_clinic","name":"Complete Dental Solution","name_hindi":"कम्पलीट डेंटल सलूशन","address":"Regal Towar,45 Baikunth Dham Colony,Indore","mobile":"9827271337","opening_hours":"Mo-Sa 11:00-14:00;17:00-21:00","personnel_count":1,"rate_list":"no","ward_no":"043","ward_name":"SHRINAGAR"},{"latitude":22.73582577,"longitude":75.88372105,"precision":5,"operator_type":"private","amenity":"dental_clinic","name":" The Dental World","name_hindi":"दंत संसार","address":"Nehru Nagar","mobile":"7247567408","opening_hours":"Mo-fr 10:00-14:00;16:00-21:00","personnel_count":2,"rate_list":"no","ward_no":"026","ward_name":"JEEN MATA"},{"latitude":22.74977923,"longitude":75.8744811,"precision":4.5509996,"operator_type":"private","amenity":"dental_clinic","name":"Chhabra Dental Clinic","name_hindi":"छाबरा डेंटल क्लिनिक","address":"5,Karasdev Nagar,Indore","mobile":"7828876007","opening_hours":"Mo-Su 10:00-14:00;18:00-21:00","personnel_count":2,"rate_list":"no","ward_no":"027","ward_name":"PASHUPATI NATH"},{"latitude":22.74341743,"longitude":75.87575493,"precision":4.5509996,"operator_type":"private","amenity":"dental_clinic","name":"Elegance Dental Clinic","name_hindi":"एलेगेंस डेंटल क्लिनिक","address":"67/2,Nanda Nagar,Indore","mobile":"9009822818","opening_hours":"Mo-Sa 11:00-13:30;17:30-20:30","personnel_count":2,"rate_list":"no","ward_no":"025","ward_name":"NANDA NAGAR"},{"latitude":22.74283907,"longitude":75.87542976,"precision":4.5509996,"operator_type":"private","amenity":"dental_clinic","name":"Chopra Dental Clinic","name_hindi":"चोपड़ा डेंटल क्लिनिक","address":"Nanda Nagar Main Road,Indore","mobile":"9425053654","opening_hours":"Mo-Sa 10:00-14:00;18:00-22:00","personnel_count":2,"rate_list":"no","ward_no":"025","ward_name":"NANDA NAGAR"},{"latitude":22.74382443,"longitude":75.87381932,"precision":4.5509996,"operator_type":"private","amenity":"dental_clinic","name":"Sharma Dental Clinic","name_hindi":"शर्मा डेंटल क्लिनिक","address":"1/1 ,Teen Pulia Square, Nanda Nagar Main Road,Indore","mobile":"9926924399","opening_hours":"Mo-Sa 10:00-14:00;18:00-21:00","personnel_count":2,"rate_list":"no","ward_no":"024","ward_name":"SANT BALAJI ATH MAHARAJ"},{"latitude":22.74659729,"longitude":75.872523,"precision":4.5509996,"operator_type":"private","amenity":"dental_clinic","name":"Cbc Dental Clinic","name_hindi":"सी.बी.सी. डेंटल हॉस्पिटल","address":"108/2,Pardesipura,Indore","mobile":"9826263946","opening_hours":"Mo-Sa 10:30-14:30;18:30-21:30","personnel_count":2,"rate_list":"no","ward_no":"023","ward_name":"SWARGIYA RAJESH JOSHI"},{"latitude":22.74671813,"longitude":75.87221627,"precision":6.068,"operator_type":"private","amenity":"dental_clinic","name":"Dental Hospital","name_hindi":"दाँतों का अस्पताल","address":"44/1,Pardesipura Tulsi Complex,Indore","mobile":"9406615965","opening_hours":"Mo-Sa 10:30-14:30;17:30-21:00","personnel_count":2,"rate_list":"no","ward_no":"023","ward_name":"SWARGIYA RAJESH JOSHI"},{"latitude":22.7394262,"longitude":75.88074648,"precision":9.648001,"operator_type":"private","amenity":"dental_clinic","name":"Dev Dental And Smile Clinic","name_hindi":"देव दंत और मुस्कान क्लिनिक","address":"Patnipura Main Road","mobile":"9630696800","opening_hours":"Mo-Sa 10:00-13:30;17:30-21:00","personnel_count":2,"rate_list":"no","ward_no":"026","ward_name":"JEEN MATA"},{"latitude":22.7389231,"longitude":75.88247361,"precision":3.216,"operator_type":"private","amenity":"dental_clinic","name":"Maa Narmada Dental Clinic","name_hindi":"माँ नर्मदा डेंटल क्लिनिक","address":"Jagjivan Ram Nagar","mobile":"7869023119","opening_hours":"11:00-14:00;17:30-21:30","personnel_count":1,"rate_list":"no","ward_no":"044","ward_name":"H.I.G."},{"latitude":22.73175666666667,"longitude":75.87523166666666,"precision":5.6,"operator_type":"private","amenity":"dental_clinic","name":"Dr Asmita Hawaldar","name_hindi":"ङा अस्मिता हवलदार","address":"19/1, Silver Estate Apartment Y N Road Indore","phone":"07314030755","mobile":"9893975958","opening_hours":"Mo-Sa10:30-14:00; 17:30-20:30","personnel_count":1,"rate_list":"no","ward_no":"047","ward_name":"SARDAR VALLABHBHAI"},{"latitude":22.73829522,"longitude":75.88310658,"precision":3.216,"operator_type":"private","amenity":"dental_clinic","name":"Dental Braces","name_hindi":"चिकित्सकीय ब्रेस क्लीनिक","address":"Nehru Nagar Indore","mobile":"9669604142","personnel_count":2,"rate_list":"no","ward_no":"026","ward_name":"JEEN MATA"},{"latitude":22.73340833333333,"longitude":75.87599166666668,"precision":2.5,"operator_type":"private","amenity":"dental_clinic","name":"Dr Jyotsna Wadia","name_hindi":"ङा ज्योत्सना वाङिया","address":"In Front Of Chanakya Complex Malwa Mill Square Indore","mobile":"7566804313","opening_hours":"Mo-Sa10:30-13:00 ; 17:30-21:30","personnel_count":2,"rate_list":"no","ward_no":"047","ward_name":"SARDAR VALLABHBHAI"},{"latitude":22.73811767,"longitude":75.88785147,"precision":3.216,"operator_type":"private","amenity":"dental_clinic","name":"Tejas Polyclinic","name_hindi":"तेजस पॉलीक्लिनिक","address":"Mig Colony Indore","personnel_count":2,"rate_list":"no","ward_no":"045","ward_name":"DR. BHIMRAO AMBEDAR"},{"latitude":22.73212313,"longitude":75.88801999,"precision":4.5509996,"operator_type":"private","amenity":"dental_clinic","name":"Dental & Oroficial Health Centre","name_hindi":"डेंटल & ओरोफिशल हेल्थ सेन्टर","address":"A46 Mig Colony,Indore","mobile":"9302341122","opening_hours":"Mo-Fr 19:00-21:00","personnel_count":1,"rate_list":"no","ward_no":"045","ward_name":"DR. BHIMRAO AMBEDAR"},{"latitude":22.7276499,"longitude":75.88755748,"precision":5,"operator_type":"private","amenity":"dental_clinic","name":"Rajeshwari Multispeciality Dental Clinic","name_hindi":"राजेश्वरी मल्टीस्पेशलिटी डेंटल क्लीनिक","address":"Industry House","mobile":"9229223035","opening_hours":"Mon-Sat 17:00-20:30","personnel_count":6,"rate_list":"no","ward_no":"045","ward_name":"DR. BHIMRAO AMBEDAR"},{"latitude":22.72758928,"longitude":75.88490206,"precision":7,"operator_type":"private","amenity":"dental_clinic","name":"Dental Excellence Clinic And Implant Centre","name_hindi":"डेंटल एक्सीलेंस क्लीनिक एंड इंप्लांट सेंटर","address":"New Palasiya Road","mobile":"9229221015","opening_hours":"Mon-Sat 11:00-16:00","personnel_count":3,"rate_list":"no","ward_no":"043","ward_name":"SHRINAGAR"},{"latitude":22.73683396,"longitude":75.9002454,"precision":4.5509996,"operator_type":"private","amenity":"dental_clinic","name":"Dental Clinic","name_hindi":"डेंटल क्लीनिक","address":"290, Swarn Bagh Colony, Indore","mobile":"9993136216","opening_hours":"Mo-Sa 10:00-14:00 ; 17:00-21:00","personnel_count":0,"rate_list":"no","ward_no":"037","ward_name":"SAI KRUPA"},{"latitude":22.72713892,"longitude":75.88337217,"precision":8,"operator_type":"private","amenity":"dental_clinic","name":"Smile Indore Dental Solutions","name_hindi":"स्माइल इंदौर डेंटल सॉल्यूशंस","address":"The Magnate Building","mobile":"9827036881","website":"www.smileindore.com","opening_hours":"Mon-Sat 10:00-20:00","personnel_count":2,"rate_list":"no","ward_no":"043","ward_name":"SHRINAGAR"},{"latitude":22.72699294,"longitude":75.88324845,"precision":4,"operator_type":"private","amenity":"dental_clinic","name":"Shrayas Multispeciality Dental Clinic","name_hindi":"श्रेया मल्टीस्पेशलिटी डेंटल क्लीनिक","address":"Near Corporate Bank, New Palasiya","phone":"07314700343","mobile":"9826034340","opening_hours":"Mon-Sat 12:00-16:00","personnel_count":3,"rate_list":"no","ward_no":"047","ward_name":"SARDAR VALLABHBHAI"},{"latitude":22.72681653,"longitude":75.88228537,"precision":10,"operator_type":"private","amenity":"dental_clinic","name":"The Dentist","name_hindi":"द डेंटिस्ट","address":"New Palasiya","phone":"07312543132","mobile":"9425066462","opening_hours":"Mon-Sat 10:00-19:00","personnel_count":4,"rate_list":"no","ward_no":"047","ward_name":"SARDAR VALLABHBHAI"},{"latitude":22.73909833333333,"longitude":75.88069333333333,"precision":2.4,"operator_type":"private","amenity":"dental_clinic","name":"Dr Wachha Dental Clinic","name_hindi":"ङा वाछा ङेन्ट्ल क्लिनीक\n","address":"Patnipura Kanhaiya Lal Ki Chaal","mobile":"9977783283","opening_hours":"Mo-Sa 10:00-15:00; 18:00-21:00","personnel_count":2,"rate_list":"no","ward_no":"026","ward_name":"JEEN MATA"},{"latitude":22.74156285,"longitude":75.90020747,"precision":4.288,"operator_type":"private","amenity":"dental_clinic","name":"Ayushman Dental Clinic","name_hindi":"आयुष्मान डेंटल क्लिनिक","address":"118 H S Tower Barfani Dham Indore","mobile":"9300619220","email":"drnirupamsingh@gmail.com","opening_hours":"Mo-Sa 10:30-14:30;17:30-21:00 ; Su 11:00-13:00","personnel_count":0,"rate_list":"no","ward_no":"030","ward_name":"SANT RAVIDAS"},{"latitude":22.71666022,"longitude":75.89593803,"precision":4.288,"operator_type":"private","amenity":"dental_clinic","name":"Dental Planet","name_hindi":"दंत चिकित्सा ग्रह","address":"45- A Bakthawar Ram Nagar , Near Tilak Nagar , Indore","mobile":"9301665066","opening_hours":"Mo-fr 11:00-20: 30;sa-su 11:00-13:00","personnel_count":4,"rate_list":"no","ward_no":"049","ward_name":"TILAKNAGAR"},{"latitude":22.7162509,"longitude":75.89644786,"precision":4.288,"operator_type":"private","amenity":"dental_clinic","name":"Dr.  Dipali Rathore","name_hindi":"डॉ. दीपाली राठौर","address":"C-106, Bakhtawar Ram Nagar, Indore","mobile":"9926699647","opening_hours":"Mo-fr 11:00-13:00","personnel_count":3,"rate_list":"no","ward_no":"049","ward_name":"TILAKNAGAR"},{"latitude":22.71467057,"longitude":75.89896582,"precision":4.288,"operator_type":"private","amenity":"dental_clinic","name":"Sanjeevani Dental Care","name_hindi":"संजीवनी डेंटल केयर","address":"11, Vinoba Nagar,  Tilak Nagar Main Road,  Indore","phone":"07312499604","opening_hours":"Mo-Fr 10:00-13:00","personnel_count":2,"rate_list":"no","ward_no":"049","ward_name":"TILAKNAGAR"},{"latitude":22.70736986,"longitude":75.87809619,"precision":4.5509996,"operator_type":"private","amenity":"dental_clinic","name":"Happy 32 Dental Clinic","name_hindi":"हैप्पी 32 डेंटल क्लिनिक","address":"1/1 Parsi Mohalla,Suraj Compound Indore","mobile":"9424503173","opening_hours":"Mo-Fr 10:30:14:00;5:30-20:30","personnel_count":1,"rate_list":"no","ward_no":"063","ward_name":"NAVLAKHA"},{"latitude":22.70733527,"longitude":75.87758299,"precision":4.5509996,"operator_type":"private","amenity":"dental_clinic","name":"Dental Cosmos","name_hindi":"डेंटल कॉसमॉस","address":"G-4 Amit Apartments,1/1 Parsai Mohalla,Indore","mobile":"9977244144","opening_hours":"Mo-Sa 10:30-14:00;18:00-20:30","personnel_count":1,"rate_list":"no","ward_no":"063","ward_name":"NAVLAKHA"},{"latitude":22.70796675,"longitude":75.87616037,"precision":4.5509996,"operator_type":"private","amenity":"dental_clinic","name":"Dr. Sourabh Saxena","name_hindi":" डर सौरभ सक्सेना","address":"25 Parsi Mohalla,Chhawni Square,Indore","mobile":"8989461141","opening_hours":"Mo-Sa 10:00-14::30;17:00-20:30;Su 11:00-14:00","personnel_count":2,"rate_list":"no","ward_no":"063","ward_name":"NAVLAKHA"},{"latitude":22.71130924,"longitude":75.8802707,"precision":6.068,"operator_type":"private","amenity":"dental_clinic","name":"Shail Dental & Surgical","name_hindi":"शैल डेंटल एंड सर्जिकल","address":"Lg Urvashi Compound,3 Jowra Compound,Indore","phone":"07314020777","opening_hours":"Mo-Sa 10:30-20:30","personnel_count":4,"rate_list":"no","ward_no":"055","ward_name":"SAUTH TUKOGANJ"},{"latitude":22.71127703,"longitude":75.88040569,"precision":4.5509996,"operator_type":"private","amenity":"dental_clinic","name":"Dr. Brijesh Mangal","name_hindi":"डॉ बृजेश मंगल","address":"Lg-21 Urvashi Compound,3Jawra Compound,Indore","mobile":"9826245827","opening_hours":"Mo-Sa 10:00-20:00","personnel_count":3,"rate_list":"no","ward_no":"055","ward_name":"SAUTH TUKOGANJ"},{"latitude":22.71891022,"longitude":75.89718291,"precision":5,"operator_type":"private","amenity":"dental_clinic","name":"Kulkarni Dental Clinic","name_hindi":"कुलकर्णी डेंटल क्लिनिक","address":"205,Tilak Nagar,Main Road,Indore","mobile":"9993291547","opening_hours":"Mo-Sa 9:00-11:00;17:00-21:00\nSu 12:00-14:00","personnel_count":2,"rate_list":"no","ward_no":"049","ward_name":"TILAKNAGAR"},{"latitude":22.71934648,"longitude":75.89579597,"precision":5,"operator_type":"private","amenity":"dental_clinic","name":"Dr Tushar Dighe","name_hindi":"डॉ तुषार दिघे","address":"108,Tilak Nagar","mobile":"8602703568","opening_hours":"Mo-Su 9:30-13:00","personnel_count":1,"rate_list":"no","ward_no":"049","ward_name":"TILAKNAGAR"},{"latitude":22.71948366,"longitude":75.90076514,"precision":5,"operator_type":"private","amenity":"dental_clinic","name":"Chaitanya Dental Clinic","name_hindi":"चैतन्य डेंटल क्लिनिक","address":"G-1 Avanti Apartment\n146,Mahavir Nagar,Indore","mobile":"9826565844","opening_hours":"Mo-Sa 10:00-13:00;17:00-21:00\nSu 10:00-13:00","personnel_count":3,"rate_list":"no","ward_no":"049","ward_name":"TILAKNAGAR"},{"latitude":22.71479231,"longitude":75.90030602,"precision":4,"operator_type":"private","amenity":"dental_clinic","name":"Dr P Mittal","name_hindi":"डॉ पी मित्तल","address":"29-B Vandana Nagar","mobile":"9926640030","opening_hours":"Mo-Sa 9:30-11:00;19:30-20:30","personnel_count":1,"rate_list":"no","ward_no":"049","ward_name":"TILAKNAGAR"},{"latitude":22.71823735,"longitude":75.8998812,"precision":5,"operator_type":"private","amenity":"dental_clinic","name":"Dr Pramod Jain","name_hindi":"डॉ प्रमोद जैन","address":"Tilak Nagar","phone":"07314035251","mobile":"9926620626","opening_hours":"Mo-Sa 10:00-13:00;17:00-21:00","personnel_count":1,"rate_list":"no","ward_no":"049","ward_name":"TILAKNAGAR"},{"latitude":22.71497949,"longitude":75.89409622,"precision":5,"operator_type":"private","amenity":"dental_clinic","name":"Dr Rakhi Bharat","name_hindi":"डॉ राखी भरत","address":"Sahaj Tower,Geeta Nagar,Indore","opening_hours":"Mo-Sa 19:30-21:00","personnel_count":1,"rate_list":"no","ward_no":"048","ward_name":"GITA BHAVAN"},{"latitude":22.71482445,"longitude":75.89371674,"precision":5,"operator_type":"private","amenity":"dental_clinic","name":"Platinum Dental Care","name_hindi":"प्लैटिनम डेंटल केअर","address":"113-114,Geeta Nagar,Main Road,Indore","mobile":"9977602323","opening_hours":"Mo-Sa 10:00-14:00;17:00-21:00","personnel_count":1,"rate_list":"no","ward_no":"048","ward_name":"GITA BHAVAN"},{"latitude":22.712363,"longitude":75.88975176,"precision":4.5509996,"operator_type":"private","amenity":"dental_clinic","name":"St. Patrick'S Dental Clinic","name_hindi":"पेट्रिकस डेंटल क्लीनिक","address":"7/1, Boundary Road, Near St Paul H.S School, Indore","phone":"07312492017","opening_hours":"Mo-Sa 08:00-13:00 ; 15:30-18:00","personnel_count":0,"rate_list":"no","ward_no":"048","ward_name":"GITA BHAVAN"},{"latitude":22.71839421,"longitude":75.88351758,"precision":6,"operator_type":"private","amenity":"dental_clinic","name":"Chauhan'S Ent And Dental Clinic","name_hindi":"चौहान ई एन टी एंड डेंटल क्लीनिक","address":"Geeta Bhawan Square, Above Veg Bites","mobile":"9425065064","opening_hours":"Mo-Su 09:30-16:30","personnel_count":5,"rate_list":"no","ward_no":"055","ward_name":"SAUTH TUKOGANJ"},{"latitude":22.71876952,"longitude":75.88665809,"precision":5,"operator_type":"private","amenity":"dental_clinic","name":"Dental Implant And Laser Centre","name_hindi":"डेंटल इंप्लांट एंड लेजर सेंटर","address":"Opp Dil Pasand Heights, G B Road","opening_hours":"Mo-Sa 10:00-20:30","personnel_count":5,"rate_list":"no","ward_no":"048","ward_name":"GITA BHAVAN"},{"latitude":22.7186817,"longitude":75.88681162,"precision":5,"operator_type":"private","amenity":"dental_clinic","name":"The Retreat Clinic","name_hindi":"द रिट्रीट क्लीनिक","address":"Opp Dil Pasand Heights, Geeta Bhawan","opening_hours":"Mo-Su 18:00-20:30","personnel_count":6,"rate_list":"no","ward_no":"048","ward_name":"GITA BHAVAN"},{"latitude":22.71648022,"longitude":75.88497315,"precision":5,"operator_type":"private","amenity":"dental_clinic","name":"D Dental Clinic","name_hindi":"द डेंटल क्लीनिक","address":"Opp Race Institute, Geeta Bhawan","mobile":"9039089978","opening_hours":"Mo-Sa 18:00-21:00","personnel_count":6,"rate_list":"no","ward_no":"048","ward_name":"GITA BHAVAN"},{"latitude":22.72660226,"longitude":75.87951458,"precision":8.576,"operator_type":"private","amenity":"dental_clinic","name":"Dr Sumit Jain","name_hindi":"डॉ। सुमित जैन","address":"Mourya Centre Race Course Road","mobile":"9826054001","opening_hours":"Mo-Sa 11:00-13:30;17:00-20:30","personnel_count":2,"rate_list":"no","ward_no":"047","ward_name":"SARDAR VALLABHBHAI"},{"latitude":22.72386107,"longitude":75.87429717,"precision":3.216,"operator_type":"private","amenity":"dental_clinic","name":"The Shining 32","name_hindi":"द शाइनिंग 32","address":"Starlit Tower Indore","personnel_count":2,"rate_list":"no","ward_no":"047","ward_name":"SARDAR VALLABHBHAI"},{"latitude":22.72384538,"longitude":75.87428614,"precision":3.216,"operator_type":"private","amenity":"dental_clinic","name":" Dr Sohini Jain","name_hindi":"डॉ सोहिनी जैन","address":"Starlet Tower Indore","personnel_count":2,"rate_list":"no","ward_no":"047","ward_name":"SARDAR VALLABHBHAI"},{"latitude":22.71839099,"longitude":75.88351829,"precision":4.288,"operator_type":"private","amenity":"dental_clinic","name":"Dr. Sumit Hardiya","name_hindi":"डॉ सुमित हार्डिया","address":"Geeta Bhavan Chauraha","phone":"9827215402","opening_hours":"Mo-Sa 10:00-1400; Mo-Sa 17:00-20:00","personnel_count":4,"rate_list":"no","ward_no":"055","ward_name":"SAUTH TUKOGANJ"},{"latitude":22.71161297,"longitude":75.87566388,"precision":10,"operator_type":"private","amenity":"dental_clinic","name":"Doctor Verma Dental Clinic","name_hindi":"डॉक्टर वर्मा डेंटल क्लीनिक","address":"102 Riddhi Siddhi Tower Rnt Marg Indore","mobile":"8878851001","opening_hours":"Mo-Sa 11:00-14:00;16:00-21:00","personnel_count":2,"rate_list":"no","ward_no":"055","ward_name":"SAUTH TUKOGANJ"},{"latitude":22.71023109,"longitude":75.87806367,"precision":5,"operator_type":"private","amenity":"dental_clinic","name":"Dr Sadana Dental Clinic","name_hindi":"डॉ। साधना डेंटल क्लिनिक","address":"G-2 Geetanjali Apartment ","mobile":"9926514656","opening_hours":"Mo-Sa 10:30-14:30;17:30-21:30; Sa 11:00-14:00","personnel_count":2,"rate_list":"no","ward_no":"055","ward_name":"SAUTH TUKOGANJ"},{"latitude":22.71217915,"longitude":75.88038856,"precision":5,"operator_type":"private","amenity":"dental_clinic","name":"Ashirwad Dental Clinic","name_hindi":"आशिरवाद दंत चिकित्सा क्लिनिक","address":"45/A Jawara Compound ","mobile":"9893708283","opening_hours":"Mo-Sa 10:00-14:00;18:00-21:00","personnel_count":2,"rate_list":"no","ward_no":"055","ward_name":"SAUTH TUKOGANJ"},{"latitude":22.70996574,"longitude":75.87722574,"precision":5,"operator_type":"private","amenity":"dental_clinic","name":"Smile Dental Clinic","name_hindi":"स्माइल डेंटल क्लीनिक","address":"17/1 Yshaganji Chavani","mobile":"9826092665","opening_hours":"Mo-Sa 11:00-14:00;17:00-21:00","personnel_count":3,"rate_list":"no","ward_no":"055","ward_name":"SAUTH TUKOGANJ"},{"latitude":22.72269224,"longitude":75.89314444,"precision":4.5509996,"operator_type":"private","amenity":"dental_clinic","name":"Aliza Poly Clinic","name_hindi":"अलीजा पाली क्लिनिक","address":"105,Ravindra Nagar,Old Parasia,Indore","phone":"07314956054","opening_hours":"Mo-Sa 10:00-21:00","personnel_count":3,"rate_list":"no","ward_no":"042","ward_name":"SWAMI VIVEKANAND"},{"latitude":22.72060451,"longitude":75.89532985,"precision":4.5509996,"operator_type":"private","amenity":"dental_clinic","name":"Sanjeevani Dental Care","name_hindi":"संजीवनी डेंटल केअर","address":"11,Tilak Nagar Main Road,Indore","phone":"07312499604","opening_hours":"Mo-Sa 10:00-14:00;17:30-20:30","personnel_count":3,"rate_list":"no","ward_no":"042","ward_name":"SWAMI VIVEKANAND"},{"latitude":22.72557813,"longitude":75.89274552,"precision":4.288,"operator_type":"private","amenity":"dental_clinic","name":"Dental Clinic ","name_hindi":" डेंटल क्लिनिक","address":"101,Anmol Tower ","phone":"07312566175","mobile":"9826185879","opening_hours":"Mo-Sa 10:00-14:00; 17:00-21:00","personnel_count":2,"rate_list":"no","ward_no":"043","ward_name":"SHRINAGAR"},{"latitude":22.72643485,"longitude":75.89431781,"precision":4.288,"operator_type":"private","amenity":"dental_clinic","name":"Dental Clinic","name_hindi":"डेंटल क्लीनिक","address":"Shiromani Apartment","phone":"07312563604","opening_hours":"Mo-Sa 09:00-14:00","personnel_count":1,"rate_list":"no","ward_no":"043","ward_name":"SHRINAGAR"},{"latitude":22.72578449,"longitude":75.89446269,"precision":4.5509996,"operator_type":"private","amenity":"dental_clinic","name":"Best Smile Dental Care","name_hindi":"बेस्ट स्माइल डेंटल केअर","address":"204,Twin Star,Saket Square,Indore","mobile":"6260313706","opening_hours":"Mo-Sa 10:00-21:00","personnel_count":2,"rate_list":"no","ward_no":"043","ward_name":"SHRINAGAR"},{"latitude":22.72602426,"longitude":75.8944341,"precision":4.5509996,"operator_type":"private","amenity":"dental_clinic","name":"Smile Curve Dental Clinic","name_hindi":"स्माइल कर्व डेंटल क्लिनिक","address":"Geetanjali Apartments,Anand Bazar,Indore","mobile":"9826024989","opening_hours":"Mo-Fr 10:00-14:00-17:00-19:00","personnel_count":2,"rate_list":"no","ward_no":"043","ward_name":"SHRINAGAR"},{"latitude":22.72638351,"longitude":75.89434335,"precision":4.5509996,"operator_type":"private","amenity":"dental_clinic","name":"Dental Clinic","name_hindi":"डेंटल क्लिनिक","address":"101,Sukh Dham,Indore","phone":"07312563356","opening_hours":"Mo-Sa 10:00-13:00;17:00-19:00","personnel_count":3,"rate_list":"no","ward_no":"043","ward_name":"SHRINAGAR"},{"latitude":22.72563235,"longitude":75.89124257,"precision":3.216,"operator_type":"private","amenity":"dental_clinic","name":"Family Dental Care Clinic","name_hindi":"फैमिली डेंटल केअर क्लिनिक","address":"101/A , Labaik Regency Building,Old Palasia","mobile":"9589091091","opening_hours":"Mo-Sa 10:00-13:00;17:30-21:00","personnel_count":2,"rate_list":"no","ward_no":"043","ward_name":"SHRINAGAR"},{"latitude":22.72314045,"longitude":75.88213337,"precision":3.216,"operator_type":"private","amenity":"dental_clinic","name":"Aarogyam Orthodontic And Dental Clinic","name_hindi":"आरोग्यम ऑर्थोडॉन्तिक एंड डेंटल क्लिनिक","address":"Bansi Plaza","mobile":"9425065713","personnel_count":2,"rate_list":"no","ward_no":"047","ward_name":"SARDAR VALLABHBHAI"},{"latitude":22.72627212,"longitude":75.8815906,"precision":3.216,"operator_type":"private","amenity":"dental_clinic","name":"Dr Tripathi Dental Clinic","name_hindi":"डॉ त्रिपाठी डेंटल क्लिनिक","address":"202, Silver Arc Plaza,Janjeervala Square","mobile":"9893429920","personnel_count":3,"rate_list":"no","ward_no":"047","ward_name":"SARDAR VALLABHBHAI"},{"latitude":22.72308942,"longitude":75.89289988,"precision":3.216,"operator_type":"private","amenity":"dental_clinic","name":"Pearl Dental Clinic ","name_hindi":"पर्ल डेंटल क्लीनिक","address":"Shop No.3,Gayatri Mandir Complex,Ravindra Nagar","mobile":"9926400077","opening_hours":"Mo-Sa 10:00-14:00; 17:00-21:00","personnel_count":2,"rate_list":"no","ward_no":"042","ward_name":"SWAMI VIVEKANAND"},{"latitude":22.72259572,"longitude":75.8948733,"precision":4.288,"operator_type":"private","amenity":"dental_clinic","name":"Shree Dental Clinic ","name_hindi":"श्री डेंटल क्लीनिक","address":"36,Patrakar Colony","mobile":"9752591114","opening_hours":"Mo-Sa 11:00-14:00;18:00-21:00 Su 11:00-14;00","personnel_count":1,"rate_list":"no","ward_no":"042","ward_name":"SWAMI VIVEKANAND"},{"latitude":22.72209997,"longitude":75.8949487,"precision":4.288,"operator_type":"private","amenity":"dental_clinic","name":"Dental Smile","name_hindi":"डेंटल स्माइल","address":"Gram Kanadia Main Road","mobile":"9407156799","opening_hours":"Mo-Sa 10:30-15:00","personnel_count":1,"rate_list":"no","ward_no":"042","ward_name":"SWAMI VIVEKANAND"},{"latitude":22.72573613,"longitude":75.89385961,"precision":4.288,"operator_type":"private","amenity":"dental_clinic","name":"Perfect Smile","name_hindi":"परफेक्ट स्माइल","address":"Classic Crown","phone":"07312566066","opening_hours":"Mo-Sa 10:00-13:00; 17:00-21:00","personnel_count":1,"rate_list":"no","ward_no":"043","ward_name":"SHRINAGAR"},{"latitude":22.72384228650481,"longitude":75.87428687140346,"precision":5,"operator_type":"private","amenity":"dental_clinic","name":"Dr Rakhi Porwal","name_hindi":"डॉक्टर राखी पोरवाल","address":"2Nd Floor, Starlit Tower, Indore","mobile":"7748818883","opening_hours":"mo-sa 11:00-15:00","personnel_count":2,"rate_list":"no","ward_no":"047","ward_name":"SARDAR VALLABHBHAI"},{"latitude":22.72276722360402,"longitude":75.8741551078856,"precision":6,"operator_type":"private","amenity":"dental_clinic","name":"Iconic Dental Care","name_hindi":"आईकॉनिक डेंटल केयर","address":"106, First Floor, Royal Diamond, Y.N Road, Indore","phone":"07314096703","mobile":"9425920733","opening_hours":"Mo-Sa","personnel_count":2,"rate_list":"no","ward_no":"047","ward_name":"SARDAR VALLABHBHAI"},{"latitude":22.72550299,"longitude":75.89488462,"precision":4.288,"operator_type":"private","amenity":"dental_clinic","name":"Speciality Dental Care","name_hindi":"स्पेशलिटी डेंटल केयर","address":"Amardarshan,Saket Square","mobile":"9893090616","opening_hours":"Mo-Sa 10:00-17:00","personnel_count":2,"rate_list":"no","ward_no":"043","ward_name":"SHRINAGAR"},{"latitude":22.72126105,"longitude":75.89843245,"precision":9.648001,"operator_type":"private","amenity":"dental_clinic","name":"Varad Dental Clinic","name_hindi":"वरद दंत चिकित्सालय","address":"Kanadia Main Road","mobile":"9826680219","opening_hours":"Mo-Sa 11:00-14:00;17:00-20:00 ;Su 11:00-14:00 ","personnel_count":2,"rate_list":"no","ward_no":"042","ward_name":"SWAMI VIVEKANAND"},{"latitude":22.72101087,"longitude":75.90083782,"precision":3.216,"operator_type":"private","amenity":"dental_clinic","name":"Shufla Dental Clinic","name_hindi":"सूफला दंत चिकित्सा क्लिनिक","mobile":"9827528541","opening_hours":"10:00-14:00;17:00-20:00","personnel_count":3,"rate_list":"no","ward_no":"042","ward_name":"SWAMI VIVEKANAND"},{"latitude":22.72084591,"longitude":75.90151689,"precision":3.216,"operator_type":"private","amenity":"dental_clinic","name":"Jain Dental Clinic","name_hindi":"जैन दंत चिकित्सा क्लिनिक","address":"Ashirwad Complex Main Road","mobile":"9424456154","opening_hours":"10:30-21:00","personnel_count":3,"rate_list":"no","ward_no":"042","ward_name":"SWAMI VIVEKANAND"},{"latitude":22.7209092,"longitude":75.90170524,"precision":3.216,"operator_type":"private","amenity":"dental_clinic","name":"Unique Dental Clinic","name_hindi":"अद्वितीय दंत चिकित्सा क्लिनिक","address":"Ashirwad Complex Kanadia Main Road","mobile":"9893422518","opening_hours":"10:30-14:00;17:00-21:00","personnel_count":3,"rate_list":"no","ward_no":"042","ward_name":"SWAMI VIVEKANAND"},{"latitude":22.72673843,"longitude":75.90062697,"precision":4.5509996,"operator_type":"private","amenity":"dental_clinic","name":"Dental Clinic","name_hindi":"डेंटल क्लिनिक","address":"66,Manish Puri,Indore","mobile":"9893383468","opening_hours":"Mo-Sa 10:00-13:00;17:00-20:00","personnel_count":2,"rate_list":"no","ward_no":"042","ward_name":"SWAMI VIVEKANAND"},{"latitude":22.72735733,"longitude":75.90023542,"precision":4.5509996,"operator_type":"private","amenity":"dental_clinic","name":"Prime Dental Clinic","name_hindi":"प्राइम डेंटल क्लिनिक","address":"39,40,Manishpuri,Saket,Indore","phone":"07312703609","opening_hours":"Mo-Sa 18:00-20:00","personnel_count":2,"rate_list":"no","ward_no":"042","ward_name":"SWAMI VIVEKANAND"},{"latitude":22.72309234,"longitude":75.89707629,"precision":3.216,"operator_type":"private","amenity":"dental_clinic","name":"Tongya'S Dental Clinic","name_hindi":"टोंज्ञा डेंटल क्लीनिक ","address":"341 Saket","mobile":"9826650575","opening_hours":"Mo-Sa 09:30-14:00; 17:30-20:30","personnel_count":3,"rate_list":"no","ward_no":"042","ward_name":"SWAMI VIVEKANAND"},{"latitude":22.72236323,"longitude":75.8519401,"precision":4.5509996,"operator_type":"private","amenity":"dental_clinic","name":"Dental Clinic","name_hindi":"डेंटल क्लीनिक","mobile":"9827070009","opening_hours":"Sa-Su 18:00-21:00","personnel_count":2,"rate_list":"no","ward_no":"058","ward_name":"IMLI BAZAR"},{"latitude":22.72113217,"longitude":75.85432125,"precision":4.5509996,"operator_type":"private","amenity":"dental_clinic","name":"Dr. Gola'S Dental Clinic","name_hindi":"डॉ गोला डेंटल क्लीनिक","address":"B1, Kushal Complex, Imli Bazaar","mobile":"9074972500","opening_hours":"Sa-Su 10:00-13:00;17:00-21:00","personnel_count":2,"rate_list":"no","ward_no":"058","ward_name":"IMLI BAZAR"},{"latitude":22.72410855,"longitude":75.85709592,"precision":4.5509996,"operator_type":"private","amenity":"dental_clinic","name":"Dental Care","name_hindi":"डेंटल केयर","mobile":"9584387675","opening_hours":"Mo-Sa 10:30-14:00;18:00-21:00; Su 10:30-14:00","personnel_count":3,"rate_list":"no","ward_no":"057","ward_name":"DEVI AHILYABAI"},{"latitude":22.69001026,"longitude":75.86428211,"precision":6.068,"operator_type":"private","amenity":"dental_clinic","name":"Dr. G.S. Chabbra","name_hindi":"डॉ. जी. एस. छाबड़ा","address":"Deepshikha Apartments,Vishnu Puri,Indore","mobile":"7770855550","opening_hours":"Mo-Sa 10:00-14:00;17:00-21:00","personnel_count":2,"rate_list":"no","ward_no":"074","ward_name":"VISHNAPURI"},{"latitude":22.69000283,"longitude":75.86366989,"precision":6.068,"operator_type":"private","amenity":"dental_clinic","name":"Dr Bhatia Dental Clinic","name_hindi":"डॉ. भाटिया डेंटल क्लिनिक","address":"Shiv Om Apartments,Vishnu Puri,Indore","mobile":"9826214298","opening_hours":"Mo-Sa 10:30-13:30;17:00-21:00","personnel_count":2,"rate_list":"no","ward_no":"074","ward_name":"VISHNAPURI"},{"latitude":22.69069453,"longitude":75.86626122,"precision":4.5509996,"operator_type":"private","amenity":"dental_clinic","name":"Aishwarya Dental Clinic","name_hindi":"ऐश्वर्या डेंटल क्लिनिक","address":"20-C,Laxmi Plaza Complex,Indra Puri, Indore","phone":"07312362621","opening_hours":"Mo-Sa 10:30-13:00;17:30-20:00","personnel_count":2,"rate_list":"no","ward_no":"074","ward_name":"VISHNAPURI"},{"latitude":22.6989324,"longitude":75.86617422,"precision":4.5509996,"operator_type":"private","amenity":"dental_clinic","name":"Saraswati Poly Dental Clinic","name_hindi":"सरस्वती पाली डेंटल क्लिनिक","address":"Sneh Nagar,Sapna Sangeeta Main Road,Indore","mobile":"9424888850","opening_hours":"Mo-Sa 10:00-14:00;17:00-21:00","personnel_count":2,"rate_list":"no","ward_no":"063","ward_name":"NAVLAKHA"},{"latitude":22.72066434,"longitude":75.85497093,"precision":4.288,"operator_type":"private","amenity":"dental_clinic","name":"Sv Dental Clinic","name_hindi":"एसवी दंत चिकित्सा क्लिनिक","address":"Imli Bazar Indore","mobile":"9039473131","opening_hours":"10:00-20:00","personnel_count":4,"rate_list":"no","ward_no":"058","ward_name":"IMLI BAZAR"},{"latitude":22.71894196,"longitude":75.85229771,"precision":10.72,"operator_type":"private","amenity":"dental_clinic","name":"Verma Dental Clinic","name_hindi":"वर्मा डेंटल क्लीनिक","address":"210 Khajuri Bazar Main Road Indore","opening_hours":"17:00-20:00","personnel_count":2,"rate_list":"no","ward_no":"058","ward_name":"IMLI BAZAR"},{"latitude":22.72318885,"longitude":75.8576808,"precision":9.648001,"operator_type":"private","amenity":"dental_clinic","name":"Dental Care World","name_hindi":"डेंटल केयर वर्ल्ड","address":"Rambagh Indore","phone":"07312536006","opening_hours":"10:00-13:000;18:00-20:30","personnel_count":2,"rate_list":"no","ward_no":"057","ward_name":"DEVI AHILYABAI"},{"latitude":22.71519534,"longitude":75.8490405,"precision":5,"operator_type":"private","amenity":"dental_clinic","name":"Dr.Rakesh Kumar","name_hindi":"डॉ.राकेश कुमार","address":"Lodhipura No.1,Indore","mobile":"9826288651","opening_hours":"24/7","personnel_count":2,"rate_list":"no","ward_no":"069","ward_name":"JAWAHAR MARG"},{"latitude":22.72495099,"longitude":75.86306854,"precision":3.216,"operator_type":"private","amenity":"dental_clinic","name":"Shree Dental Clinic","name_hindi":"श्री डेंटल क्लिनिक","address":"186 Naya Pura Main Road","mobile":"8461923112","opening_hours":"10:30-14:00;17:00-21:00","personnel_count":2,"rate_list":"no","ward_no":"056","ward_name":"SNEHALATA GANJ"},{"latitude":22.71962486,"longitude":75.84667249,"precision":3,"operator_type":"private","amenity":"dental_clinic","name":"City Dental Clinic","name_hindi":"सिटी डेंटल क्लिनिक","address":"Mg Road,Malharganj Tori Corner,Indore","mobile":"9425312777","opening_hours":"Mo-Sa 17:00-22:00\nSu 10:00-14:00","personnel_count":1,"rate_list":"no","ward_no":"069","ward_name":"JAWAHAR MARG"},{"latitude":22.71886732,"longitude":75.85296744,"precision":5,"operator_type":"private","amenity":"dental_clinic","name":"Dr.Arvin Krishnan Gola","name_hindi":"डॉ.अर्विन कृष्णन गोला","address":"Mg Road,Khajuri Bazaar,Indore","mobile":"9754795998","opening_hours":"Mo-Sa 9:00-16:00","personnel_count":1,"rate_list":"no","ward_no":"058","ward_name":"IMLI BAZAR"},{"latitude":22.71885188,"longitude":75.85297315,"precision":5,"operator_type":"private","amenity":"dental_clinic","name":"Deep Chand Gola","name_hindi":"डीप चंद गोला","address":"Mg Road,Khajuri Bazaar,Indore","mobile":"9406666520","opening_hours":"Mo-Sa 9:00-20:00\nSu 11:00-14:00","personnel_count":1,"rate_list":"no","ward_no":"058","ward_name":"IMLI BAZAR"},{"latitude":22.69469952,"longitude":75.83857584,"precision":4.5509996,"operator_type":"private","amenity":"dental_clinic","name":"Little Smiles","name_hindi":"लिटिल स्माइल्स","address":"Roop Tiwari,Annapurna Road,Indore","phone":"07312797478","opening_hours":"Mo-Sa 17:30-20:30","personnel_count":3,"rate_list":"no","ward_no":"071","ward_name":"DRAVID NAGAR"},{"latitude":22.69664657,"longitude":75.83934694,"precision":4.5509996,"operator_type":"private","amenity":"dental_clinic","name":"Shri Shri Dental Clinic ","name_hindi":"श्री श्री डेंटल क्लिनिक","address":"484 Bank Colony,Sudama Nagar,Indore","opening_hours":"Mo-Sa 10:00-14:00;18:00-22:00","personnel_count":3,"rate_list":"no","ward_no":"072","ward_name":"LOKMANYA NAGAR"},{"latitude":22.69613384,"longitude":75.84638519,"precision":4.5509996,"operator_type":"private","amenity":"dental_clinic","name":"Sparsh Dental Clinic ","name_hindi":"स्पर्श डेंटल क्लिनिक","address":"6-A Lokmanya Nagar,Indore","mobile":"9893011122","opening_hours":"Mo-Sa 9:30-13:00;17:00-20:00","personnel_count":1,"rate_list":"no","ward_no":"072","ward_name":"LOKMANYA NAGAR"},{"latitude":22.68945355,"longitude":75.84365419,"precision":4.5509996,"operator_type":"private","amenity":"dental_clinic","name":"Dhanvantari Dental Clinic","name_hindi":"धन्वंतरि डेंटल क्लिनिक","address":"Tulsi Plaza 11 Vinay Nagar,Indore","mobile":"9893491106","opening_hours":"Mo-Sa 10:30-12:30;17:30-20:30","personnel_count":1,"rate_list":"no","ward_no":"072","ward_name":"LOKMANYA NAGAR"},{"latitude":22.69400401,"longitude":75.84399619,"precision":4.5509996,"operator_type":"private","amenity":"dental_clinic","name":"Basant Dental Care","name_hindi":"बसंत डेंटल केअर","address":"4 Indralok Colony Rto Road,Indore","mobile":"9755658393","opening_hours":"Mo-Sa 9:00-11:00-18:00-20:00","personnel_count":3,"rate_list":"no","ward_no":"072","ward_name":"LOKMANYA NAGAR"},{"latitude":22.69514138,"longitude":75.83628413,"precision":4.5509996,"operator_type":"private","amenity":"dental_clinic","name":"Narayanam Dental Clinic","name_hindi":"नारायणं डेंटल क्लिनिक","address":"75,Bank Colony,Indore","mobile":"9826329000","opening_hours":"Mo-Fr 17:30-21:30","personnel_count":4,"rate_list":"no","ward_no":"071","ward_name":"DRAVID NAGAR"},{"latitude":22.69768987,"longitude":75.83342992,"precision":4.5509996,"operator_type":"private","amenity":"dental_clinic","name":"Atre'S Dental Clinic","name_hindi":"अत्रे डेंटल क्लिनिक","address":"315 Usha Nagar Extension,Indore","phone":"07314087489","opening_hours":"Mo-Sa 10:00-14:00;18:00-21:00","personnel_count":2,"rate_list":"no","ward_no":"071","ward_name":"DRAVID NAGAR"},{"latitude":22.69459468,"longitude":75.83491715,"precision":4.5509996,"operator_type":"private","amenity":"dental_clinic","name":"Ganesha Dental Clinic","name_hindi":"गणेश डेंटल क्लिनिक","address":"775 Sudama Nagar,Indore","mobile":"9826666945","opening_hours":"Mo-Fr 13:00-17:00","personnel_count":1,"rate_list":"no","ward_no":"083","ward_name":"GUSHMATA NAGAR"},{"latitude":22.6989001,"longitude":75.86780282,"precision":6.068,"operator_type":"private","amenity":"dental_clinic","name":"Divya Dental Clinic","name_hindi":"दिव्या डेंटल क्लीनिक","address":"138/47, New Agrawal Nagar,Indore","phone":"07314085528","opening_hours":"Mo-Su 10:30-13:30 ; 17:30-19:30","personnel_count":2,"rate_list":"no","ward_no":"063","ward_name":"NAVLAKHA"},{"latitude":22.69851703,"longitude":75.86719592,"precision":4.5509996,"operator_type":"private","amenity":"dental_clinic","name":"Dental Imagica","name_hindi":"डेंटल इमैजिका","address":"71, Anand Nagar, Indore","mobile":"8989154767","opening_hours":"Mo-Sa 10:00-14:00 ; 17:00-20:30 ; Su 11:00- 14:00","personnel_count":1,"rate_list":"no","ward_no":"063","ward_name":"NAVLAKHA"},{"latitude":22.69811159,"longitude":75.86601642,"precision":4.5509996,"operator_type":"private","amenity":"dental_clinic","name":"Dr. Desai","name_hindi":"डॉ देसाई","address":"Anand Nagar,Indore","mobile":"9713907140","opening_hours":"Mo-Sa 10:00-14:00 ; 17:00-21:00","personnel_count":1,"rate_list":"no","ward_no":"065","ward_name":"SANT KANWARRAM"},{"latitude":22.69396745,"longitude":75.85907732,"precision":4.5509996,"operator_type":"private","amenity":"dental_clinic","name":"Advance Dental Care","name_hindi":"एडवांस डेंटल केयर","address":"20, Sneh Vihar Colony","personnel_count":1,"rate_list":"no","ward_no":"074","ward_name":"VISHNAPURI"},{"latitude":22.72454100195318,"longitude":75.82560863345861,"precision":5,"operator_type":"private","amenity":"dental_clinic","name":"Dr S K Khatri","name_hindi":" डॉक्टर एस के खत्री","address":"Near Krishna Apartment Shikshak Nagar Indore","mobile":"9926052982","opening_hours":"mo-sa 09:30-12:30 ; 17:00-21:00","personnel_count":2,"rate_list":"no","ward_no":"004","ward_name":"SUKHDEV NAGAR"},{"latitude":22.72814442403615,"longitude":75.83208130672574,"precision":5,"operator_type":"private","amenity":"dental_clinic","name":"Dr Kanchan Litoria","name_hindi":"डॉ कंचन लिटोरिया","address":"58, Sahi Nagar, Airport  Road, Indore","opening_hours":"mo-sa 11:00-13:00; 08:00-21:00","personnel_count":2,"rate_list":"no","ward_no":"004","ward_name":"SUKHDEV NAGAR"},{"latitude":22.72158311214298,"longitude":75.83709452301264,"precision":5,"operator_type":"private","amenity":"dental_clinic","name":"Riddhiman Dental Clinic","name_hindi":" रिद्धिमान डेंटल क्लिनिक","address":"19/3, Mahavir Nagar, Aerodrum Road Indore","mobile":"9009000054","opening_hours":"mo-sa 18:00-21:30","personnel_count":5,"rate_list":"no","ward_no":"007","ward_name":"JANTA COLONY"},{"latitude":22.72021007258445,"longitude":75.84760987199843,"precision":6,"operator_type":"private","amenity":"dental_clinic","name":"Perfect 32 Dental Clinic And Implant Centre","name_hindi":"पर्फेक्ट 32 डेंटल क्लिनिक एंड इंप्लांट सेंटर","address":"Malharganj, Laxmi Building, Indore","mobile":"7746053339","opening_hours":"mo-sa 11:00-14:30; 18:00-21:00; su 11:00-14:00","personnel_count":2,"rate_list":"no","ward_no":"008","ward_name":"JUNA RISALA"},{"latitude":22.71918331,"longitude":75.851756,"precision":4.288,"operator_type":"private","amenity":"dental_clinic","name":"Shri Ram Dental Hall","name_hindi":"श्री राम डेंटल हॉल","address":"589 Khajuri Bazar","opening_hours":"Mo-Sa 10:00-19:00","personnel_count":1,"rate_list":"no","ward_no":"058","ward_name":"IMLI BAZAR"},{"latitude":22.71905595,"longitude":75.85324141,"precision":3.216,"operator_type":"private","amenity":"dental_clinic","name":"Verma Dental Clinic","name_hindi":"वर्मा डेंटल क्लीनिक","address":"210 Mgm Khajuri Bazar","opening_hours":"Mo-Sa 19:00-21:00","personnel_count":2,"rate_list":"no","ward_no":"058","ward_name":"IMLI BAZAR"},{"latitude":22.72462833333333,"longitude":75.825235,"precision":0.9,"operator_type":"private","amenity":"dental_clinic","name":"Well Care Dental Hospital","name_hindi":"वेल केयर ङेंटल हॉस्पिटल","address":"Shikshak Nagar Airport Road Indore","mobile":"9926777225","opening_hours":"Mo-Sa09:00-14:00;16:00-22:00","personnel_count":1,"rate_list":"no","ward_no":"004","ward_name":"SUKHDEV NAGAR"},{"latitude":22.72442166666666,"longitude":75.82718333333334,"precision":1,"operator_type":"private","amenity":"dental_clinic","name":"Dr Vinod Raghuvanshi","name_hindi":"ङा विनोद रघुवंशी","address":"Sharddha Nagar ,Airport Road","mobile":"9302373021","opening_hours":"Mo-Sa10:00-14:00;17:00-21:00","personnel_count":0,"rate_list":"no","ward_no":"004","ward_name":"SUKHDEV NAGAR"},{"latitude":22.71957166666667,"longitude":75.84670166666666,"precision":1.5,"operator_type":"private","amenity":"dental_clinic","name":"City Dental Clinic","name_hindi":"सिटी डेंटल क्लीनिक","address":"511 Mg Road Tori Corner","mobile":"9754795777","opening_hours":"Mo-Sa17:00-22:00","personnel_count":2,"rate_list":"no","ward_no":"069","ward_name":"JAWAHAR MARG"},{"latitude":22.69925412,"longitude":75.85210718,"precision":7.585,"operator_type":"private","amenity":"dental_clinic","name":"Muskan Dental & Orthodontic Clinic","name_hindi":"मुस्कान डेंटल एंड ऑर्थोडोंटिक क्लिनिक","address":"1- Triveni Complex, Manik Bagh Brigde, Indore","mobile":"9827231699","opening_hours":"Mo-Sa 11:30-14:30 ; 18:00- 21:00","personnel_count":1,"rate_list":"no","ward_no":"066","ward_name":"SHAHID HEMU COLONY"},{"latitude":22.6979141,"longitude":75.85525897,"precision":4.5509996,"operator_type":"private","amenity":"dental_clinic","name":"Shah Dental Clinic","name_hindi":"शाह डेंटल क्लिनिक","address":"223, Khatiwala Tank, Indore","mobile":"7693073559","opening_hours":"Mo-Sa 10:00-13:00 ; 17:00-20:30","personnel_count":1,"rate_list":"no","ward_no":"073","ward_name":"LAXMANSINGH CHAUHAN"},{"latitude":22.71545577,"longitude":75.84511584,"precision":3.216,"operator_type":"private","amenity":"dental_clinic","name":"Dental Care Clinic","name_hindi":"डेंटल केअर क्लिनिक","address":"Jawahar Marg","opening_hours":"Mo-Sa 10:30-13:00;18:00-20:00","personnel_count":3,"rate_list":"no","ward_no":"069","ward_name":"JAWAHAR MARG"},{"latitude":22.71569424,"longitude":75.84399434,"precision":3.216,"operator_type":"private","amenity":"dental_clinic","name":"Apoorva Dental Clinic","name_hindi":"अपूर्व डेंटल क्लिनिक","address":"218,Kohinur Tower,Jawahar Marg","opening_hours":"Mo-Sa 11:00-14:00;18:00-21:00","personnel_count":2,"rate_list":"no","ward_no":"069","ward_name":"JAWAHAR MARG"},{"latitude":22.6990925,"longitude":75.86686742,"precision":4.288,"operator_type":"private","amenity":"dental_clinic","name":"Care And Cure Dental Clinic","name_hindi":"केयर एंड क्योर डेंटल क्लिनिक","address":"1St Floor, Prince Plaza, Near Inox Sapna Snageeta,, Indore,","phone":"07312467642","opening_hours":"Mo-Fr 13:00-20:00","personnel_count":2,"rate_list":"no","ward_no":"063","ward_name":"NAVLAKHA"},{"latitude":22.71553358,"longitude":75.84282183,"precision":5,"operator_type":"private","amenity":"dental_clinic","name":"Pearl Dental Clinic","name_hindi":"पर्ल डेंटल क्लीनिक","address":"218, Rajmollah Street","mobile":"8602655259","opening_hours":"Mo-Sa 10:00-13:00","personnel_count":3,"rate_list":"no","ward_no":"069","ward_name":"JAWAHAR MARG"},{"latitude":22.69567456,"longitude":75.83888714,"precision":3,"operator_type":"private","amenity":"dental_clinic","name":"Star Dental Clinic","name_hindi":"स्टार डेंटल क्लिनिक","address":"Annapurna Road","mobile":"7748811405","opening_hours":"Mo-Sa 10:30-20:00","personnel_count":3,"rate_list":"no","ward_no":"071","ward_name":"DRAVID NAGAR"},{"latitude":22.69625961,"longitude":75.83890567,"precision":5,"operator_type":"private","amenity":"dental_clinic","name":"Dr Seema Kulkarni Clinic","name_hindi":"डॉ। सीमा कुलकर्णी क्लिनिक","mobile":"9425055789","opening_hours":"Mo-Fr 12:00-13:30;19:30-21:30","personnel_count":1,"rate_list":"no","ward_no":"071","ward_name":"DRAVID NAGAR"},{"latitude":22.69647505,"longitude":75.8390053,"precision":5,"operator_type":"private","amenity":"dental_clinic","name":"Dr Megha Jain","name_hindi":"डॉ। मेघा जैन","address":"Bajaj Tower Usha Nagar","mobile":"9977777640","opening_hours":"Mo-Sa 10:30-14:30;17:30-21:00","personnel_count":1,"rate_list":"no","ward_no":"071","ward_name":"DRAVID NAGAR"},{"latitude":22.69236696,"longitude":75.83800413,"precision":9,"operator_type":"private","amenity":"dental_clinic","name":"Shri Ram Dental Clinics","name_hindi":"श्री राम दंत चिकित्सालय","address":"Usha Nagar Main Road","mobile":"9981665590","opening_hours":"24/7","personnel_count":2,"rate_list":"no","ward_no":"071","ward_name":"DRAVID NAGAR"},{"latitude":22.6950951,"longitude":75.83636402,"precision":5,"operator_type":"private","amenity":"dental_clinic","name":"Anpurna Dental Clinic","name_hindi":"अन्नपूर्णा दंत चिकित्सा क्लिनिक","address":"621-A Bank Colony Usha Nagar Extension","mobile":"9827227488","opening_hours":"Mo-Su 11:00-14:00;18:00-21:00","personnel_count":3,"rate_list":"no","ward_no":"071","ward_name":"DRAVID NAGAR"},{"latitude":22.69659175,"longitude":75.83437324,"precision":5,"operator_type":"private","amenity":"dental_clinic","name":"Yuvika Dental Care","name_hindi":"युविका डेंटल केयर","address":"92-A Naren Tiwari Sudama Nagar ","mobile":"7987553983","opening_hours":"Mo-Sa 10:00-13:00;17:30-21:00","personnel_count":1,"rate_list":"no","ward_no":"071","ward_name":"DRAVID NAGAR"},{"latitude":22.69616412,"longitude":75.83227838,"precision":5,"operator_type":"private","amenity":"dental_clinic","name":"Dr Hora Dental Clinic","name_hindi":"डॉ। होरा डेंटल क्लिनिक","address":"568 Sudama Nagar Indore","mobile":"9926029294","opening_hours":"Mo-fr 10:00-14:00;18:00-21:00","personnel_count":2,"rate_list":"no","ward_no":"083","ward_name":"GUSHMATA NAGAR"},{"latitude":22.72302333333334,"longitude":75.84613333333333,"precision":1,"operator_type":"private","amenity":"dental_clinic","name":"Dr Antush Mittal","name_hindi":"ङा अंतुश मित्तल","address":"113, Netaji Subhash Marg, Jinsi Square","mobile":"9691140020","opening_hours":"Mo-Sa17:00-21:30","personnel_count":1,"rate_list":"no","ward_no":"008","ward_name":"JUNA RISALA"},{"latitude":22.72020166666667,"longitude":75.84278833333333,"precision":1.3,"operator_type":"private","amenity":"dental_clinic","name":"Badlani Multi Speciality Dental Clinic","name_hindi":"बदलानि मल्टी इस्पेशलिटी ङेंटल क्लिनिक","address":"383, Mg Road","mobile":"9685006850","opening_hours":"Mo-Sa11:30-14:30","personnel_count":1,"rate_list":"no","ward_no":"006","ward_name":"MALHARGANJ"},{"latitude":22.72223666666666,"longitude":75.83720666666666,"precision":1,"operator_type":"private","amenity":"dental_clinic","name":"Dr Ankita Mishra","name_hindi":"ङा अंकिता मिश्रा","address":"Mahavir Bagh, Agresan Nagar, Airport Road","opening_hours":"Mo-Sa10:00-13:00","personnel_count":1,"rate_list":"no","ward_no":"007","ward_name":"JANTA COLONY"},{"latitude":22.70256519,"longitude":75.83992342,"precision":4.5509996,"operator_type":"private","amenity":"dental_clinic","name":"Carv'S ","name_hindi":"कर्व","address":"8 Sector A Usha Nagar Extension,Indore","mobile":"9827272302","opening_hours":"Mo-Sa 10:00-14:00;18:00-21:30","personnel_count":1,"rate_list":"no","ward_no":"071","ward_name":"DRAVID NAGAR"},{"latitude":22.69844413,"longitude":75.83437493,"precision":4.5509996,"operator_type":"private","amenity":"dental_clinic","name":"Dr. Somani'S Dental Clinic","name_hindi":"डॉ सोमानी डेंटल क्लिनिक","address":"308 Usha Nagar Extension,Indore","mobile":"9893179799","opening_hours":"Mo-Sa 10:00-14:00","personnel_count":1,"rate_list":"no","ward_no":"071","ward_name":"DRAVID NAGAR"},{"latitude":22.69665583,"longitude":75.83244237,"precision":4.5509996,"operator_type":"private","amenity":"dental_clinic","name":"Sabu Dental Clinic","name_hindi":"साबू डेंटल क्लिनिक","address":"24-25 Arihant Apartment Sethi Gate,Indore","mobile":"9827212566","opening_hours":"Mo-Sa 11:00-15:00","personnel_count":1,"rate_list":"no","ward_no":"083","ward_name":"GUSHMATA NAGAR"},{"latitude":22.69921457,"longitude":75.85267319,"precision":4.5509996,"operator_type":"private","amenity":"dental_clinic","name":"Dental And Orthodontic Center","name_hindi":"डेंटल एंड ऑर्थोडोंतिक सेन्टर","address":"Rajmahal Colony Indore","phone":"9827036881","opening_hours":"Mo-Sa 11:00-12:00 ; 16:00-20:00","personnel_count":1,"rate_list":"no","ward_no":"066","ward_name":"SHAHID HEMU COLONY"},{"latitude":22.70767148,"longitude":75.82522605,"precision":5,"operator_type":"private","amenity":"dental_clinic","name":"Daant Ka Dawakhana","name_hindi":"दांत का दवाखाना","address":"Dhar Road","mobile":"9926777225","opening_hours":"Mo-Sa 10:00-20:00","personnel_count":6,"rate_list":"no","ward_no":"002","ward_name":"CHANDAN NAGAR"},{"latitude":22.71653418,"longitude":75.85660327,"precision":3.216,"operator_type":"private","amenity":"dental_clinic","name":"Daat Ka Davakhana","name_hindi":"दात का दवाखाना","address":"96 Jawahar Marg","phone":"07312342227","opening_hours":"Mo-Sa 11:00-14:30","personnel_count":2,"rate_list":"no","ward_no":"059","ward_name":"HARSIDDHI"},{"latitude":22.69389817,"longitude":75.82868083,"precision":5,"operator_type":"private","amenity":"dental_clinic","name":"Dr Sk Khatri Clinic","name_hindi":"डॉ। एसके खत्री क्लिनिक","address":"Phooti Kothi","mobile":"9981155373","opening_hours":"Mo-Sa 9:00-13:00;17:00-21:00","personnel_count":2,"rate_list":"no","ward_no":"083","ward_name":"GUSHMATA NAGAR"},{"latitude":22.69882311,"longitude":75.83081594,"precision":9,"operator_type":"private","amenity":"dental_clinic","name":"Nidan Dental Clinic","name_hindi":"निदां दंत चिकित्सालय","address":"172 Gumasta Nagar","mobile":"9826331130","opening_hours":"Mo-Sa 11:00-19:00","personnel_count":1,"rate_list":"no","ward_no":"083","ward_name":"GUSHMATA NAGAR"},{"latitude":22.69732677,"longitude":75.83267566,"precision":5,"operator_type":"private","amenity":"dental_clinic","name":"Nilay Dental Clinic","name_hindi":"निलय दंत चिकित्सा क्लिनिक","address":"Gumasta Nagar","mobile":"9424583633","opening_hours":"Mo-Sa 17:00-21:00","personnel_count":2,"rate_list":"no","ward_no":"083","ward_name":"GUSHMATA NAGAR"},{"latitude":22.7018316,"longitude":75.83749565,"precision":5,"operator_type":"private","amenity":"dental_clinic","name":"Kalaa Dental Clinic","name_hindi":"काला दंत चिकित्सालय","address":"67 Dravid Nagar","mobile":"9669738586","opening_hours":"Mo-Sa 10:00-14:00;17:30-21:30","personnel_count":2,"rate_list":"no","ward_no":"071","ward_name":"DRAVID NAGAR"},{"latitude":22.69799268,"longitude":75.85552623,"precision":4.5509996,"operator_type":"private","amenity":"dental_clinic","name":"Najmi Dental Clinic","name_hindi":"नाजमी डेंटल क्लिनिक","address":"G-2 226,Classic Arch,Khatiwala Tank,Indore","mobile":"9893440922","opening_hours":"Mo-Sa 09:00-12:00;18:00-21:00","personnel_count":2,"rate_list":"no","ward_no":"065","ward_name":"SANT KANWARRAM"},{"latitude":22.69798215,"longitude":75.85619829,"precision":4.5509996,"operator_type":"private","amenity":"dental_clinic","name":"Hakimi Dental Clinic","name_hindi":"हकीमी डेंटल क्लिनिक","address":"230,Gharonda Apartments, Khatiwala Tank,Indore","mobile":"9926929898","opening_hours":"Mo-Sa 09:00-13:00;16:30-20:30","personnel_count":2,"rate_list":"no","ward_no":"065","ward_name":"SANT KANWARRAM"},{"latitude":22.6995404,"longitude":75.85858987,"precision":4.5509996,"operator_type":"private","amenity":"dental_clinic","name":"Kapadia Dental Clinic","name_hindi":"कपाड़िया डेंटल क्लिनिक","address":"302-M,Khatiwala Tank,Indore","mobile":"8827577552","opening_hours":"Mo-Sa 10:00-13:00;17:00-21:00","personnel_count":2,"rate_list":"no","ward_no":"065","ward_name":"SANT KANWARRAM"},{"latitude":22.69538381,"longitude":75.85320373,"precision":4.5509996,"operator_type":"private","amenity":"dental_clinic","name":"Hashmi Dental Clinic","name_hindi":"हाशमी डेंटल क्लिनिक","address":"16/2,Shyam Nagar,Manikbagh Road,Indore","mobile":"8109047517","opening_hours":"Mo-Sa 10:00-13:00;17:00-21:00","personnel_count":2,"rate_list":"no","ward_no":"073","ward_name":"LAXMANSINGH CHAUHAN"},{"latitude":22.69782,"longitude":75.85957852,"precision":4.288,"operator_type":"private","amenity":"dental_clinic","name":"Shree Dental Clinic","name_hindi":"श्री दंत चिकित्सा क्लिनिक","address":"484, Bank Colony, Sudama Nagar, Indore","mobile":"9229457271","opening_hours":"Mo-Fr 9: 00-14: 00","personnel_count":2,"rate_list":"no","ward_no":"073","ward_name":"LAXMANSINGH CHAUHAN"},{"latitude":22.71708455,"longitude":75.85564195,"precision":3.216,"operator_type":"private","amenity":"dental_clinic","name":"Dr Ashok L Batheja","name_hindi":"डॉ अशोक एल बाथेजा","address":"Yashwant Road Indore","phone":"0731253347","opening_hours":"12:30-14:30;18:30-21:00","personnel_count":2,"rate_list":"no","ward_no":"059","ward_name":"HARSIDDHI"},{"latitude":22.71399423,"longitude":75.85595969,"precision":9,"operator_type":"private","amenity":"dental_clinic","name":"Dental Clinic","name_hindi":"डेंटल क्लिनिक","address":"45,Prince Yashwant Road,Pandrinath Choraha","mobile":"9826066750","opening_hours":"Mo-Sa 11:30-13:00","personnel_count":1,"rate_list":"no","ward_no":"059","ward_name":"HARSIDDHI"},{"latitude":22.70813309,"longitude":75.85608417,"precision":5,"operator_type":"private","amenity":"dental_clinic","name":"Aarti Dental Clinic","name_hindi":"आरती डेंटल क्लिनिक","address":"Bargal Complex,Palsikar Choraha","mobile":"8878806183","opening_hours":"Mo-Sa 11:00-13:00;17:30-20:30","personnel_count":2,"rate_list":"no","ward_no":"061","ward_name":"TATYA SARVATE"},{"latitude":22.70793627,"longitude":75.85172451,"precision":4,"operator_type":"private","amenity":"dental_clinic","name":"Airen'S Dental Clinic","name_hindi":"ऐरेन्स डेंटल क्लिनिक","address":"10,Jairampur Colony","mobile":"9009000079","opening_hours":"Mo-Sa 11:00-14:00;18:00-21:00","personnel_count":1,"rate_list":"no","ward_no":"067","ward_name":"MAHARAJA HOLKAR"},{"latitude":22.71537833,"longitude":75.84953857,"precision":4.288,"operator_type":"private","amenity":"dental_clinic","name":"Dr Ashwin Kumar","name_hindi":"डॉ अश्विन कुमार","address":"Jawahar Marg","mobile":"9425053406","opening_hours":"10:00-22:00","personnel_count":2,"rate_list":"no","ward_no":"068","ward_name":"BAMBAI BAZAR"},{"latitude":22.71598338,"longitude":75.85142599,"precision":4.288,"operator_type":"private","amenity":"dental_clinic","name":"Daat Ka Davakhana","name_hindi":"दात का दवाखाना","address":"Bajaj Khana Chouk","mobile":"9926640030","opening_hours":"Mo-Sa 13:30-16:00","personnel_count":1,"rate_list":"no","ward_no":"069","ward_name":"JAWAHAR MARG"},{"latitude":22.71344878,"longitude":75.8566482,"precision":4.288,"operator_type":"private","amenity":"dental_clinic","name":"Dental Clinic","name_hindi":"डेंटल क्लिंनिक","address":"Padhrinath Road","mobile":"9039622698","personnel_count":3,"rate_list":"no","ward_no":"059","ward_name":"HARSIDDHI"},{"latitude":22.70955915,"longitude":75.85070156,"precision":3.216,"operator_type":"private","amenity":"dental_clinic","name":"Jai Jhalelal Sai Dharmarth Clinic","name_hindi":"जय झलेलाल साई धर्मार्थ क्लिनिक","address":"Rajswagram ,Chatribagh","opening_hours":"Mo-Sa 09:00-12:00","personnel_count":3,"rate_list":"no","ward_no":"067","ward_name":"MAHARAJA HOLKAR"},{"latitude":22.68160638,"longitude":75.8345054,"precision":4,"operator_type":"private","amenity":"dental_clinic","name":"Vishesh Dental Clinic","name_hindi":"विशेष डेंटल क्लीनिक","address":"112/A, Vaishali Nagar","mobile":"9926776961","opening_hours":"Mo-Sa 10:00-13:30","personnel_count":4,"rate_list":"no","ward_no":"080","ward_name":"DR. RAJENDRA PRASAD"},{"latitude":22.68799996,"longitude":75.83679365,"precision":10,"operator_type":"private","amenity":"dental_clinic","name":"Daant Ka Dawakhana","name_hindi":"दांत का दवाखाना","address":"8/A, Bhawanipuri Colony","mobile":"9399672170","opening_hours":"Mo-Sa 08:00-19:30","personnel_count":5,"rate_list":"no","ward_no":"081","ward_name":"ANNAPURNA"},{"latitude":22.68092434,"longitude":75.84326487,"precision":9,"operator_type":"private","amenity":"dental_clinic","name":"Dental Clinic","name_hindi":"डेंटल क्लीनिक","address":"Sch No 103, Bindu Apartment","mobile":"9893717144","opening_hours":"Mo-Sa 09:30-20:00","personnel_count":5,"rate_list":"no","ward_no":"078","ward_name":"CHOITHRAM"},{"latitude":22.68097751,"longitude":75.83553015,"precision":4.288,"operator_type":"private","amenity":"dental_clinic","name":"Dr Subash Sonkesariya","name_hindi":"डॉ सुभाष सोंकेसरिया","address":"Silver Oaks Colony","mobile":"9425347418","opening_hours":"Mo-Sa 12:00-14:00; 17:00-21:00","personnel_count":1,"rate_list":"no","ward_no":"081","ward_name":"ANNAPURNA"},{"latitude":22.68090871,"longitude":75.83492531,"precision":4.288,"operator_type":"private","amenity":"dental_clinic","name":"The Smile Store","name_hindi":"दी स्माइल स्टोर","address":"3 Vaishali Nagar","mobile":"9826049045","opening_hours":" Mo-Sa 10:00-14:00; 17:00-21:00","personnel_count":3,"rate_list":"no","ward_no":"080","ward_name":"DR. RAJENDRA PRASAD"},{"latitude":22.68137716,"longitude":75.82950099,"precision":3.216,"operator_type":"private","amenity":"dental_clinic","name":"Pearl Dental Clinic","name_hindi":"पर्ल डेंटल क्लिनिक","address":"68-B ,Brajvihar Colony","mobile":"8602655259","opening_hours":"Mo-Sa 10:30-13:30;17:00-20:00","personnel_count":2,"rate_list":"no","ward_no":"080","ward_name":"DR. RAJENDRA PRASAD"},{"latitude":22.68351691,"longitude":75.82981557,"precision":3.216,"operator_type":"private","amenity":"dental_clinic","name":"Shri Yeshwant Sharda Advanced Dental Clinic","name_hindi":"श्री यशवंत शारदा एडवांस्ड डेंटल क्लीनिक","address":"107 Shukla Bhawan Gopur Square","mobile":"8817288912","opening_hours":"11:00-14:00;17:00-21:00","personnel_count":2,"rate_list":"no","ward_no":"080","ward_name":"DR. RAJENDRA PRASAD"},{"latitude":22.6874853,"longitude":75.83674254,"precision":4.288,"operator_type":"private","amenity":"dental_clinic","name":"Dr Deepa Saxena","name_hindi":"डॉ दीपा सक्सेना","address":"Annapurna Road","mobile":"9826620030","opening_hours":"Mo-Sa 18:00-21:30","personnel_count":1,"rate_list":"no","ward_no":"081","ward_name":"ANNAPURNA"},{"latitude":22.68845718,"longitude":75.83422909,"precision":4.288,"operator_type":"private","amenity":"dental_clinic","name":"Ekdant Dental Clinic","name_hindi":"एकदंत डेंटल क्लीनिक","address":"422 A Sudama Nagar","mobile":"9894335858","opening_hours":"Mo-Sa 17:00-21:00","personnel_count":1,"rate_list":"no","ward_no":"082","ward_name":"SUDAMA NAGAR"},{"latitude":22.68173035,"longitude":75.83444398,"precision":3.216,"operator_type":"private","amenity":"dental_clinic","name":"Vishesh Dental Clinic","name_hindi":"विशेश दंत चिकित्सा क्लिनिक","address":"Vaishali Nagar Indore","mobile":"9926776961","opening_hours":"10:00-13:30;17:30-21:00","personnel_count":2,"rate_list":"no","ward_no":"080","ward_name":"DR. RAJENDRA PRASAD"},{"latitude":22.68392448,"longitude":75.82916,"precision":3.216,"operator_type":"private","amenity":"dental_clinic","name":"Maharshi Raman Dental Clinic","name_hindi":"\nमहर्षि रमन दंत चिकित्सालय","address":"329 Ring Road Gopur Square","mobile":"9893386811","opening_hours":"10:00-13:00;17:00-21:00","personnel_count":10,"rate_list":"no","ward_no":"081","ward_name":"ANNAPURNA"},{"latitude":22.68225104,"longitude":75.84102482,"precision":4.288,"operator_type":"private","amenity":"dental_clinic","name":"Shataayu Dental Clinic","name_hindi":"शतायु डेंटल क्लीनिक","address":"Sch No.103 Kesar Bagh Road","mobile":"9826245876","opening_hours":"Mo-Sa 10:00-21:00","personnel_count":2,"rate_list":"no","ward_no":"078","ward_name":"CHOITHRAM"},{"latitude":22.68403242,"longitude":75.82909188,"precision":3.216,"operator_type":"private","amenity":"dental_clinic","name":"Advanced Dental Clinic","name_hindi":"Advanced Dental Clinic","address":"Ring Road Gopur Square","mobile":"9926094777","opening_hours":"10:00-13:00;18:00-20:30","personnel_count":5,"rate_list":"no","ward_no":"081","ward_name":"ANNAPURNA"},{"latitude":22.67194721,"longitude":75.83024565,"precision":4.5509996,"operator_type":"private","amenity":"dental_clinic","name":"Shri Datt Sevarth Dental Clinic","name_hindi":"श्री दत्त सेवार्थ डेंटल क्लिनिक","address":"5B Classic Point,Rajendra Nagar","mobile":"9584737029","opening_hours":"Mo-Sa 9:00-12:00;18:00-21:30","personnel_count":1,"rate_list":"no","ward_no":"080","ward_name":"DR. RAJENDRA PRASAD"},{"latitude":22.67237143,"longitude":75.82982409,"precision":4.5509996,"operator_type":"private","amenity":"dental_clinic","name":"Global Dental Clinic","name_hindi":"ग्लोबल डेंटल क्लिनिक","address":"Ug3-109 Laxmi Paradise,Dhanvantari Nagar,Indore","mobile":"8989547963","opening_hours":"Mo-Sa 17:00-20:30","personnel_count":2,"rate_list":"no","ward_no":"080","ward_name":"DR. RAJENDRA PRASAD"},{"latitude":22.66673224,"longitude":75.82586137,"precision":4.5509996,"operator_type":"private","amenity":"dental_clinic","name":"Sumit Dental Clinic","name_hindi":"सुमित डेंटल क्लीनिक","address":"885 Datt Nagar,Rajendra Nagar,Indore","mobile":"9993693920","opening_hours":"Mo-Fr 10:30-13:30;17:30-20:30","personnel_count":1,"rate_list":"no","ward_no":"080","ward_name":"DR. RAJENDRA PRASAD"},{"latitude":22.69396465737373,"longitude":75.82872309722006,"precision":5,"operator_type":"private","amenity":"dental_clinic","name":"Dental And Hair Clinic(Dr S K Khatri)","name_hindi":"दांतों का अस्पताल","address":"Near Footi Kothi Square, Patni Tower, Indore","mobile":"9926052982","opening_hours":"mo-sa 09:00-12:00;17:00-21:00","personnel_count":2,"rate_list":"no","ward_no":"083","ward_name":"GUSHMATA NAGAR"},{"latitude":22.66952732,"longitude":75.82812477,"precision":4.5509996,"operator_type":"private","amenity":"dental_clinic","name":"Dr Mahesh Melkundi","name_hindi":"डॉ महेश मेलकुंडी","address":"Ground Floor Shubh Anjali Apartment,Rajendra Nagar,Indore","mobile":"9755603793","opening_hours":"Mo-Fr 17:00-21:00","personnel_count":1,"rate_list":"no","ward_no":"080","ward_name":"DR. RAJENDRA PRASAD"},{"latitude":22.68453836906701,"longitude":75.83293047733605,"precision":5,"operator_type":"private","amenity":"dental_clinic","name":"Dr Aparna Harsh Dokay","name_hindi":" डॉ अपर्णा हर्ष डोके","address":"109,Prikanko Colony, Indore","mobile":"9893491106","personnel_count":1,"rate_list":"no","ward_no":"081","ward_name":"ANNAPURNA"},{"latitude":22.67095666,"longitude":75.8294185,"precision":4.5509996,"operator_type":"private","amenity":"dental_clinic","name":"Dental Care","name_hindi":"डेंटल केअर","address":"117B Rajendra Nagar,Indore","mobile":"9584405899","opening_hours":"Mo-Sa 17:00-21:00","personnel_count":1,"rate_list":"no","ward_no":"080","ward_name":"DR. RAJENDRA PRASAD"},{"latitude":22.68092265,"longitude":75.84325677,"precision":4.5509996,"operator_type":"private","amenity":"dental_clinic","name":"Dental Clinic","name_hindi":"डेंटल क्लिनिक","address":"Bindu Apartment, Scheme No.103, Indore","mobile":"9893717144","opening_hours":"Mo-Fr 18:00-20:00","personnel_count":1,"rate_list":"no","ward_no":"078","ward_name":"CHOITHRAM"},{"latitude":22.68400016706437,"longitude":75.82908821292222,"precision":5,"operator_type":"private","amenity":"dental_clinic","name":"Dr Jindal Dental Care","name_hindi":"  डॉ जिंदल डेंटल केयर","address":"Near Gopur Square, Indore","mobile":"9826515777","opening_hours":"mo-sa 09:00-14:00; 16:00-21:00","personnel_count":2,"rate_list":"no","ward_no":"081","ward_name":"ANNAPURNA"},{"latitude":22.68826441839337,"longitude":75.82843484357,"precision":6,"operator_type":"private","amenity":"dental_clinic","name":" Dant Ka Dawakhana","name_hindi":"दांत का दवाखाना","address":"Sector E Sudama Nagar Indore","personnel_count":1,"rate_list":"no","ward_no":"082","ward_name":"SUDAMA NAGAR"},{"latitude":22.67732552,"longitude":75.83837074,"precision":4.5509996,"operator_type":"private","amenity":"dental_clinic","name":"Krishna Dental Clinic","name_hindi":"कृष्ण डेंटल क्लिनिक","address":"37, Bindu Regency, Scheme No.103 , Indore","mobile":"7869381622","opening_hours":"Mo-Fr 17:30-21:30","personnel_count":1,"rate_list":"no","ward_no":"078","ward_name":"CHOITHRAM"},{"latitude":22.68614392261952,"longitude":75.82461311481893,"precision":5,"operator_type":"private","amenity":"dental_clinic","name":"Sumit Dental Clinic","name_hindi":" सुमित डेंटल क्लिनिक","address":"3514 / E Sector Sudama Nagar Indore","mobile":"9993693920","opening_hours":"mo-sa 10:00-13:30; 17:00-21:00","personnel_count":2,"rate_list":"no","ward_no":"082","ward_name":"SUDAMA NAGAR"},{"latitude":22.67749512,"longitude":75.83814692,"precision":4.5509996,"operator_type":"private","amenity":"dental_clinic","name":"32 Gems Dental Clinic","name_hindi":"३२ जेम्स डेंटल क्लिनिक","address":"B-22 , Chanakya Complex ,Indore","mobile":"8349382906","opening_hours":"Mo-Sa 10:00-13:00 ; 17:00-20:00","personnel_count":1,"rate_list":"no","ward_no":"078","ward_name":"CHOITHRAM"},{"latitude":22.68098843,"longitude":75.83548297,"precision":4.5509996,"operator_type":"private","amenity":"dental_clinic","name":"Dr Subhash Sonkesariya","name_hindi":"डॉ सुभाष सोंकेसरिया","address":"24-25, Saisagar Apartment, Silver Oaks Colony ,Indore","mobile":"9425347418","opening_hours":"Mo-Sa 12:00-14:00 ; 17:00-21:00","personnel_count":1,"rate_list":"no","ward_no":"081","ward_name":"ANNAPURNA"},{"latitude":22.68083199,"longitude":75.83481946,"precision":4.5509996,"operator_type":"private","amenity":"dental_clinic","name":"Dental Clinic ","name_hindi":"डेंटल क्लिनिक","address":"3, Vaishali Nagar ,Indore","mobile":"9826049045","opening_hours":"Mo-Sa 10:00-14:00 ; 17:00-20:00","personnel_count":1,"rate_list":"no","ward_no":"080","ward_name":"DR. RAJENDRA PRASAD"},{"latitude":22.77014874,"longitude":75.91095612,"precision":3.216,"operator_type":"private","amenity":"dental_clinic","name":"Smile Up","name_hindi":"स्माइल अप","address":"Nepania Road","mobile":"9713966128","opening_hours":"Mo-Sa 10:00-14:00; 17:00-21:00","personnel_count":1,"rate_list":"no","ward_no":"036","ward_name":"NIPANIYA"},{"latitude":22.7644825,"longitude":75.92028886,"precision":4.288,"operator_type":"private","amenity":"dental_clinic","name":"Smile Dental Clinic","name_hindi":"स्माइल डेंटल क्लिनिक","address":"In Front Of Balaji Skies, Nipania Road","mobile":"9424334608","opening_hours":"Mo-Sa 10:30-14:30; Mo-Sa 17:00-20:00","personnel_count":3,"rate_list":"no","ward_no":"036","ward_name":"NIPANIYA"},{"latitude":22.76207616,"longitude":75.92186592,"precision":4.288,"operator_type":"private","amenity":"dental_clinic","name":"Smile Maker Dental Clinic","name_hindi":"स्माइल मेकर डेंटल क्लिनीक","address":"Summer Park, Nipania Main Road","mobile":"9644000201","opening_hours":"Mo-Sa 9:00-21:00","personnel_count":5,"rate_list":"no","ward_no":"036","ward_name":"NIPANIYA"},{"latitude":22.7646093,"longitude":75.90232016,"precision":4.288,"operator_type":"private","amenity":"dental_clinic","name":"Dental Clinic","name_hindi":"डेंटल क्लीनिक","address":"Anurag Nagar","mobile":"7024119407","opening_hours":"Mo-Sa 09:30-13:30; 18:00-21:00","personnel_count":1,"rate_list":"no","ward_no":"031","ward_name":"MAHARAJA CHATRASAL"},{"latitude":22.75729385,"longitude":75.90871568,"precision":4.288,"operator_type":"private","amenity":"dental_clinic","name":"Dr Rashmi","name_hindi":" डॉ रश्मि","address":"Mahalaxmi Nagar","mobile":"9754007007","opening_hours":"Mo-Sa 11:00-14:00; 18:00-21:30","personnel_count":2,"rate_list":"no","ward_no":"036","ward_name":"NIPANIYA"},{"latitude":22.76302055,"longitude":75.92284786,"precision":3,"operator_type":"private","amenity":"dental_clinic","name":"Raghuwanshi Dental Clinic","name_hindi":"रघुवंशी डेंटल क्लिनिक","address":"28,Summer Park,Nipania,Near Gate No. 1","mobile":"9752812221","opening_hours":"Mo-Sa 14:30-20:00","personnel_count":1,"rate_list":"no","ward_no":"036","ward_name":"NIPANIYA"},{"latitude":22.76082948,"longitude":75.92990198,"precision":3,"operator_type":"private","amenity":"dental_clinic","name":"Smile Care Dental Clinic","name_hindi":"स्माइल केअर डेंटल क्लिनिक","address":"Shop No.21,First Floor ,Ocean Arcade,Ocean Park,Nipania","mobile":"9425353530","personnel_count":2,"rate_list":"no","ward_no":"036","ward_name":"NIPANIYA"},{"latitude":22.76310666666667,"longitude":75.92365166666667,"precision":1.1,"operator_type":"private","amenity":"dental_clinic","name":"Dental Medical Clinic","name_hindi":"ङेन्टल मेङिकल क्लिनिक","address":"Bussiness Iceland ,Nipaniya","mobile":"9893293599","opening_hours":"Mo-Sa10:00-13:00;17:00-20:00","personnel_count":0,"rate_list":"no","ward_no":"036","ward_name":"NIPANIYA"},{"latitude":22.76938942,"longitude":75.87966246,"precision":3.216,"operator_type":"private","amenity":"dental_clinic","name":"Atharva Dental Clinic","name_hindi":"अथर्व डेंटल क्लिनिक","address":"88, Surya Palace,","mobile":"9893999897","opening_hours":"Mo-Sa 11:00-14:00;18:30-21:00","personnel_count":2,"rate_list":"no","ward_no":"033","ward_name":"SUKHLIYA"},{"latitude":22.79695712,"longitude":75.89799084,"precision":4.5509996,"operator_type":"private","amenity":"dental_clinic","name":"Samksh Dental Clinic","name_hindi":"समक्ष डेंटल क्लिनिक","address":"Singapore Township, Talawali Chanda , Indore","mobile":"8109435381","opening_hours":"Mo-Sa 10:00-13:30 ; 17:00-21:00","personnel_count":0,"rate_list":"no"},{"latitude":22.69263593,"longitude":75.90415224,"precision":4.5509996,"operator_type":"private","amenity":"dental_clinic","name":"Keshav Multispeciality Dental Clinic","name_hindi":"केशव मल्टीस्पेशलिटी डेंटल क्लिनिक","address":"Mayur Nagar,Musakhedi,Indore","mobile":"8770727277","opening_hours":"Mo-Sa 11:00-14:00;16:00-21:00","personnel_count":2,"rate_list":"no","ward_no":"054","ward_name":"RESIDENCY"},{"latitude":22.68728235270828,"longitude":75.89252538979053,"precision":6,"operator_type":"private","amenity":"dental_clinic","name":"Sanjeev Dental Clinic","name_hindi":" संजीव डेंटल क्लिनिक","address":"266, Sri Ram Nagar Palda, Indore","mobile":"7746051111","opening_hours":"mo-sa 10:00-13:00;17:00-21:00","personnel_count":1,"rate_list":"no","ward_no":"051","ward_name":"BHAGVATI NAGAR"},{"latitude":22.67412046,"longitude":75.87996573,"precision":5,"operator_type":"private","amenity":"dental_clinic","name":"Daant Ka Dawakhana","name_hindi":"दांत का दवाखाना","address":"Khandwa Naka Road","mobile":"9713738702","opening_hours":"Mo-Sa 08:30-18:30","personnel_count":5,"rate_list":"no","ward_no":"075","ward_name":"PALDA"},{"latitude":22.66770293,"longitude":75.88713654,"precision":7,"operator_type":"private","amenity":"dental_clinic","name":"Leelasagar Dental Care Centre","name_hindi":"Leela","address":"9, Brajanyani , Limbodi","mobile":"9479748682","opening_hours":"Mo-Sa 09:00-17:00","personnel_count":7,"rate_list":"no","ward_no":"077","ward_name":"BILAWALI"},{"latitude":22.66814328,"longitude":75.88970804,"precision":6,"operator_type":"private","amenity":"dental_clinic","name":"Kiran Clinic","name_hindi":"किरण क्लीनिक","address":"G/12, Shivdham Colony, Limbodi","mobile":"7772042743","opening_hours":"Mo-Sa 09:30-19:00","personnel_count":5,"rate_list":"no","ward_no":"077","ward_name":"BILAWALI"},{"latitude":22.66490873,"longitude":75.91506094,"precision":5,"operator_type":"private","amenity":"dental_clinic","name":"Dr.Nitin Masih","name_hindi":"डॉ.नितिन मसीह","address":"Mundla Matra,By Pass Road,Indore","mobile":"7772926024","opening_hours":"Mo-Sa 10:00-13:00;17:00-20:00","personnel_count":1,"rate_list":"no","ward_no":"075","ward_name":"PALDA"},{"latitude":22.68704062,"longitude":75.89211626,"precision":3.216,"operator_type":"private","amenity":"dental_clinic","name":"Dr Jindal","name_hindi":"डॉ। जिंदल","address":"1 Pavan Nagar Indore","mobile":"9826515777","opening_hours":"09:00-13:00;17:00-21:00","personnel_count":2,"rate_list":"no","ward_no":"064","ward_name":"CHITAVAD"},{"latitude":22.66205401,"longitude":75.88982855,"precision":9,"operator_type":"private","amenity":"dental_clinic","name":"Gopal Multi Speciality Clinic","name_hindi":"गोपाल मल्टी स्पेशलिटी क्लिनिक","address":"295 Shri Krishna Avenue Phase 1","mobile":"9770244194","opening_hours":"Mo-Sa 10:00-12:00;14:00-20:00","personnel_count":4,"rate_list":"no","ward_no":"077","ward_name":"BILAWALI"},{"latitude":22.75865842,"longitude":75.84807173,"precision":4.5509996,"operator_type":"private","amenity":"dental_clinic","name":"Gurukripa Dental Clinic","name_hindi":"गुरुकृपा डेंटल क्लिनिक","address":"Sanwer Road,Indore","mobile":"9109610355","opening_hours":"Mo-Sa 10:00-14:00;17:00-19:00","personnel_count":1,"rate_list":"no","ward_no":"018","ward_name":"SANT KABIR"},{"latitude":22.79570734,"longitude":75.84727335,"precision":4.5509996,"operator_type":"private","amenity":"dental_clinic","name":"R K Dental Clinic","name_hindi":"आर.के.डेंटल क्लिनीक","address":"Opp.Aurobindo Medical College,Sanwer Road,Indore","mobile":"7748888800","opening_hours":"Mo-Sa 11:00-14:00;17:00-20:00","personnel_count":2,"rate_list":"no","ward_no":"018","ward_name":"SANT KABIR"},{"latitude":22.73986228276044,"longitude":75.84769855253398,"precision":6,"operator_type":"private","amenity":"dental_clinic","name":"Smile Dental Clinic","name_hindi":"स्माइल डेंटल क्लिनिक","address":"Vrindawan Colony, Kila Maidan Road,Indore","mobile":"9713347791","opening_hours":"mo-sa 10:00-14:00; 17:00-21:00; sun 10:00-14:00","personnel_count":3,"rate_list":"no","ward_no":"009","ward_name":"VRINDAVAN"},{"latitude":22.74083164986223,"longitude":75.83460853435099,"precision":7,"operator_type":"private","amenity":"dental_clinic","name":" Shine Dental Care","name_hindi":"शाइन डेंटल केयर","address":"294, Scheme Number 51, Near Police Chowki, Indore","mobile":"9993022580","opening_hours":"mo-sa 10:00-14:00;17:30-20;30","personnel_count":0,"rate_list":"no","ward_no":"013","ward_name":"SANGAM NAGAR"},{"latitude":22.81945539,"longitude":75.92847729,"precision":4.5509996,"operator_type":"private","amenity":"dental_clinic","name":"Parihar Poli Dental Clinjc","name_hindi":"परिहार पॉली डेंटल क्लीनिक","mobile":"9329275760","opening_hours":"Mo-Sa 15:00-19:00","personnel_count":2,"rate_list":"no"},{"latitude":22.81722,"longitude":75.92580754,"precision":5,"operator_type":"private","amenity":"dental_clinic","name":"Misha'S Dental Clinic","name_hindi":"मिश्रास डेंटल क्लिनिक","address":"A.B. Road,Mangliya","mobile":"9827113180","personnel_count":2,"rate_list":"no"},{"latitude":22.79845657,"longitude":75.91208254,"precision":3,"operator_type":"private","amenity":"dental_clinic","name":"Maa Durga Clinic","name_hindi":"माँ दुर्गा क्लिनिक","address":"Talawali Chanda,A.B.Road","opening_hours":"Tu-Sa 9:00-13:00;17:00-21:00","personnel_count":1,"rate_list":"no","ward_no":"035","ward_name":"LASUDIYA MORI"},{"latitude":22.72909251,"longitude":75.8211054,"precision":4.5509996,"operator_type":"private","amenity":"dental_clinic","name":"Devdatta Dental Clinic ","name_hindi":"देवदत्त डेंटल क्लिनिक","address":"16 Ambikapur Extension,Indore","mobile":"7400744123","opening_hours":"Mo-Fr 9:30-13:00;17:30-21:00","personnel_count":1,"rate_list":"no","ward_no":"014","ward_name":"ASHOK NAGAR"},{"latitude":22.73971514,"longitude":75.84816222,"precision":9.648001,"operator_type":"private","amenity":"dental_clinic","name":"Dr Chanchal Veer","name_hindi":"डॉ। चंचल वीर","address":"Brindavan Colony Indore","mobile":"8077843424","personnel_count":2,"rate_list":"no","ward_no":"009","ward_name":"VRINDAVAN"},{"latitude":22.74385382,"longitude":75.8483981,"precision":3.216,"operator_type":"private","amenity":"dental_clinic","name":"Sri Hari Geet Dental Clinic","name_hindi":"\nश्री हरि जीत दंत चिकित्सालय","address":"52-53 Sathya Sai Bagh Colony Indore","mobile":"9770907205","opening_hours":"11:00-13:00;18:00-21:00","personnel_count":2,"rate_list":"no","ward_no":"010","ward_name":"BANGANGA"},{"latitude":22.73471466,"longitude":75.83077193,"precision":3.216,"operator_type":"private","amenity":"dental_clinic","name":"Aditya Dental Clinic","name_hindi":"आदित्य डेंटल क्लिनिक","address":"7 Rukmani Nagar Chota Bangarda Main Road Indore","mobile":"8962129759","opening_hours":"10:00-13:00;17:00-21:00","personnel_count":1,"rate_list":"no","ward_no":"014","ward_name":"ASHOK NAGAR"}]}