{"public_clinics":[{"latitude":22.71181666666666,"longitude":75.88107666666666,"_poi_precision":1.5,"amenity":"hospital","operator_type":"tertiary","operator":"public","name":"Government Autonomous College of Dentistry and Hospital","name_hindi":"गवर्नमेंट ऑटोनोमस कॉलेज ओफ ङेंटिस्ट्री","address":"M.Y. Sardar Patel Marg","phone":"07312701808","opening_hours":"Mo-Sa 08:30-15:30","personnel_count":125,"blood_bank":"no","operation_theatre":"no","ventilator":"no","radiology_labs":"no","pathology_labs":"no","ambulance":"no","dentistry":"yes","ward_no":"055","ward_name":"SAUTH TUKOGANJ"},{"latitude":22.74827618,"longitude":75.87845022,"precision":4.5509996,"amenity":"hospital","operator_type":"public","type":"secondary","name":"E.S.I.C. Hospital","name_hindi":"ईएसआईसी हॉस्पिटल","address":"1378/11,ITI College Main road,Nanda Nagar,Indore","phone":"07312556153","website":"esichospitals.gov.in","opening_hours":"24/7","personnel_count":450,"blood_bank":"no","operation_theatre":"yes","ventilator":"yes","radiology_labs":"yes","pathology_labs":"yes","ambulance":"yes","other_facility":"dentist; dermatologist; gynecologist; microbiologist; oncologist; ophthalmologist; ent; pediatrician; psychiatrist","ward_no":"027","ward_name":"PASHUPATI NATH"},{"latitude":22.71376661,"longitude":75.87900936,"precision":3.216,"amenity":"hospital","operator_type":"public","type":"secondary","name":"Accident and emergency Centre m y","name_hindi":"\nदुर्घटना और आपातकालीन केंद्र m y","address":"M y hospital A B Road Indore","opening_hours":"24/7","personnel_count":200,"blood_bank":"yes","operation_theatre":"yes","ventilator":"yes","radiology_labs":"yes","pathology_labs":"yes","ambulance":"yes","ward_no":"055","ward_name":"SAUTH TUKOGANJ"},{"latitude":22.72306951,"longitude":75.85605324,"precision":4.5509996,"amenity":"hospital","operator_type":"public","type":"secondary","name":"Rajshree Nursing Home","name_hindi":"राजश्री नर्सिंग होम","personnel_count":35,"blood_bank":"no","operation_theatre":"no","ventilator":"yes","radiology_labs":"no","pathology_labs":"yes","ambulance":"no","ward_no":"057","ward_name":"DEVI AHILYABAI"},{"latitude":22.71806356,"longitude":75.86534251,"precision":9.648001,"amenity":"hospital","operator_type":"public","type":"secondary","name":"Mth women's Hospital","name_hindi":"Mth महिला अस्पताल","address":"Mth compound","opening_hours":"09:00-13:30","personnel_count":100,"blood_bank":"no","operation_theatre":"no","ventilator":"no","radiology_labs":"no","pathology_labs":"no","ambulance":"no","other_facility":"OPD; sonography; vaccinations; gynecologist","ward_no":"057","ward_name":"DEVI AHILYABAI"},{"latitude":22.75348072,"longitude":75.9021253,"precision":10,"amenity":"hospital","operator_type":"public","type":"secondary","name":"Heart and Diabetes Care Centre","name_hindi":"हार्ट एंड डायबिटीज केअर सेंटर","mobile":"9755722233","opening_hours":"Su-Sat 10:00-12:00; 18:00-20:30","personnel_count":2,"blood_bank":"no","operation_theatre":"no","ventilator":"no","radiology_labs":"no","pathology_labs":"no","ambulance":"no","other_facility":"Physician\nHeart and Diabetes Care","ward_no":"031","ward_name":"MAHARAJA CHATRASAL"},{"latitude":22.75309975,"longitude":75.90485764,"precision":9,"amenity":"hospital","operator_type":"public","type":"secondary","name":"Dr.Meghna Laghate Kelkar","name_hindi":"डॉ मेघना लगाते केलकर","address":"Vijay nagar","opening_hours":"Mon-Sat 10:30-13:30\n17:30-20:00","personnel_count":2,"blood_bank":"no","operation_theatre":"no","ventilator":"no","radiology_labs":"no","pathology_labs":"no","ambulance":"no","other_facility":"Baby clinic","ward_no":"037","ward_name":"SAI KRUPA"},{"latitude":22.75355542,"longitude":75.90477411,"precision":5,"amenity":"hospital","operator_type":"public","type":"secondary","name":"Dr. Vrinda Vashishth","name_hindi":"डॉ. वृंदा वशिष्ठ","address":"Bombay Hospital square","phone":"07312572225","mobile":"9993700419","opening_hours":"Sun-Sat 11:30-13:30\n18:00-20:00","personnel_count":1,"blood_bank":"no","operation_theatre":"no","ventilator":"no","radiology_labs":"no","pathology_labs":"no","ambulance":"no","other_facility":"Female illness specialist\nFor pregnancy.","ward_no":"037","ward_name":"SAI KRUPA"},{"latitude":22.7535769,"longitude":75.90480583,"precision":5,"amenity":"hospital","operator_type":"public","type":"secondary","name":"Dr.Renu Dubey(Sharma)","name_hindi":"डॉ. रेनू दुबे","opening_hours":"Sun-Sat 9:00-12:00\n17:00-21:00","personnel_count":2,"blood_bank":"no","operation_theatre":"no","ventilator":"no","radiology_labs":"no","pathology_labs":"no","ambulance":"no","other_facility":"Gynaecologist","ward_no":"037","ward_name":"SAI KRUPA"},{"latitude":22.75325379,"longitude":75.90453856,"precision":5,"amenity":"hospital","operator_type":"public","type":"secondary","name":"Shubham Dental Clinic","name_hindi":"शुभम डेंटल क्लिनिक","address":"102,Amar point,sch no.94,Near Bombay Hospital","mobile":"9826927632","opening_hours":"Su-Sat 10:00-13:00; 18:00-21:00","personnel_count":2,"blood_bank":"no","operation_theatre":"no","ventilator":"no","radiology_labs":"no","pathology_labs":"no","ambulance":"no","other_facility":"Dental clinic and facilities","ward_no":"037","ward_name":"SAI KRUPA"},{"latitude":22.75346381,"longitude":75.9021177,"precision":6.068,"amenity":"hospital","operator_type":"public","type":"secondary","name":"Heart and Diabetes Care Center ","name_hindi":"हार्ट एंड डायबिटीज केयर सेंटर","mobile":"9755722233","opening_hours":"Su-Sa 10:00-12:00; 17:00-20:30","personnel_count":2,"blood_bank":"no","operation_theatre":"no","ventilator":"no","radiology_labs":"no","pathology_labs":"no","ambulance":"no","other_facility":"Physician \nHeart and Diabetes Care","ward_no":"031","ward_name":"MAHARAJA CHATRASAL"},{"latitude":22.75348395,"longitude":75.90482379,"precision":4.5509996,"amenity":"hospital","operator_type":"public","type":"secondary","name":"Dr. Meghna Laghate Kelkar","name_hindi":"डॉ मेघना लघ्ते केलकर","phone":"07312572225","opening_hours":"Mo-Sa 10:30-13:30; 17:30-20:00","personnel_count":1,"blood_bank":"no","operation_theatre":"no","ventilator":"no","radiology_labs":"no","pathology_labs":"no","ambulance":"no","other_facility":"Baby Care","ward_no":"037","ward_name":"SAI KRUPA"},{"latitude":22.75358798,"longitude":75.90483981,"precision":4.5509996,"amenity":"hospital","operator_type":"public","type":"secondary","name":"Dr. Vrinda Vashistha","name_hindi":"डॉ वृंदा वशिष्ठ","phone":"07312572225","mobile":"9993700419","opening_hours":"Su-Sa 11:30-13:30; 18:00-20:00","personnel_count":2,"blood_bank":"no","operation_theatre":"no","ventilator":"no","radiology_labs":"no","pathology_labs":"no","ambulance":"no","other_facility":"Child and Would Specialist","ward_no":"037","ward_name":"SAI KRUPA"},{"latitude":22.75361151,"longitude":75.90482838,"precision":4.5509996,"amenity":"hospital","operator_type":"public","type":"secondary","name":"Dr. Renu Dubey","name_hindi":"डॉ रेणु दुबे","opening_hours":"Su-Sa 9:00-12:00; 17:00-21:00","personnel_count":2,"blood_bank":"no","operation_theatre":"no","ventilator":"no","radiology_labs":"no","pathology_labs":"no","ambulance":"no","other_facility":"Woman and Child Specialist","ward_no":"037","ward_name":"SAI KRUPA"},{"latitude":22.75320864,"longitude":75.90456939,"precision":4.5509996,"amenity":"hospital","operator_type":"public","type":"secondary","name":"Shubham Dental Clinic ","name_hindi":"शुभम डेंटल क्लीनिक","mobile":"9826927632","opening_hours":"Su-Sa 10:00-13:00; 18:00-21:00","personnel_count":2,"blood_bank":"no","operation_theatre":"no","ventilator":"no","radiology_labs":"no","pathology_labs":"no","ambulance":"no","other_facility":"Dental Care","ward_no":"037","ward_name":"SAI KRUPA"},{"latitude":22.74784455,"longitude":75.89942783,"precision":4.5509996,"amenity":"hospital","operator":"public","type":"ayush","name":"Patanjali Home Care","name_hindi":"पतंजलि होम केयर","address":"Adarsh Meghdoot Nagar","mobile":"8989400051","personnel_count":2,"facilities":"Ayurveda","ward_no":"031","ward_name":"MAHARAJA CHATRASAL"},{"latitude":22.73167238333333,"longitude":75.9013718,"precision":8,"amenity":"hospital","operator":"public","type":"ayush","name":"Active life","name_hindi":"आती लाइफ","address":"3 multani Colony, Khajrana ring Road","mobile":"9826502957","opening_hours":"Mo-Sa 11:00-14:00,17:00-20:00","personnel_count":2,"facilities":"Homeopathy","ward_no":"042","ward_name":"SWAMI VIVEKANAND"},{"latitude":22.73047235,"longitude":75.8944282,"precision":4.5509996,"amenity":"hospital","operator":"public","type":"ayush","name":"Al Jufin Unani","name_hindi":"अल जुफिन यूनानी","address":"Shri Nagar Main Road,Nayi Maszid,Near Anand Bazar,Indore","mobile":"8103108691","opening_hours":"Mo-Sa 10:00-13:00;18:00-21:00","personnel_count":1,"facilities":"Unani","ward_no":"043","ward_name":"SHRINAGAR"},{"latitude":22.73251169,"longitude":75.89270804,"precision":4.5509996,"amenity":"hospital","operator":"public","type":"ayush","name":"YOGA","name_hindi":"योग","address":"N/79 Anoop Nagar,Indore","mobile":"9425315686","opening_hours":"Mo-Sa 6:00-10:00","personnel_count":3,"facilities":"Yoga","ward_no":"043","ward_name":"SHRINAGAR"},{"latitude":22.7318086,"longitude":75.89621865,"precision":4.5509996,"amenity":"hospital","operator":"public","type":"ayush","name":"Vedanta Yoga Centre","name_hindi":"वेंदन्त योग सेन्टर","address":"173 Shrinagar Extension,Indore","mobile":"9425076053","opening_hours":"Mo-Fr 17:00-19:00","personnel_count":6,"facilities":"Yoga","ward_no":"043","ward_name":"SHRINAGAR"},{"latitude":22.72936905,"longitude":75.89665585,"precision":4.5509996,"amenity":"hospital","operator":"public","type":"ayush","name":"Narmade Ayruvedam panchkaram Kendra","name_hindi":"नर्मदे अयुर्वेदम पंचकर्म केंद्र","address":"28 Shanti nagar,Shree Nagar Extension,Indore","mobile":"9406821279","opening_hours":"Mo-Su 8:00-20:00","personnel_count":6,"facilities":"Ayurveda","ward_no":"043","ward_name":"SHRINAGAR"},{"latitude":22.72825905,"longitude":75.89498403,"precision":4.5509996,"amenity":"hospital","operator":"public","type":"ayush","name":"Hamidiya Shifakhana","name_hindi":"हमीदिया शिफखना","address":"LG-3 Ronak Tiwari,Anand Bazar,Indore","phone":"9425362001","opening_hours":"Mo-Sa 12:30:-15:00","personnel_count":1,"facilities":"Unani","ward_no":"043","ward_name":"SHRINAGAR"},{"latitude":22.72831486,"longitude":75.89486185,"precision":4.5509996,"amenity":"hospital","operator":"public","type":"ayush","name":"Dr. Prachi thirwani","name_hindi":"डॉ प्राची थिरवानी","address":"75/3 Shrinagar Main,Near Anand Bazar,Indore","mobile":"9926094260","email":"drprachithirwani@gmail.com","opening_hours":"Mo-Fr 12:00-14:00;18:00-22:00;Sa 18:00-22:00","personnel_count":1,"facilities":"Homeopathy","ward_no":"043","ward_name":"SHRINAGAR"},{"latitude":22.74131476,"longitude":75.89944948,"precision":4.288,"amenity":"hospital","operator":"public","type":"ayush","name":"Vivansh Homeopathic health care","name_hindi":"विवांश होम्योपैथी हैल्थ केयर","address":"2/1 Sundar Nagar,near Malviya Nagar,Indore","mobile":"9993314138","email":"vaishalibatosiya@gmail.com","opening_hours":"Mo-Sa 10:00-14:00","personnel_count":1,"facilities":"Homeopathy, Asthama, Thyroid,Piles","ward_no":"030","ward_name":"SANT RAVIDAS"},{"latitude":22.7331426,"longitude":75.88797798,"precision":5,"amenity":"hospital","operator":"public","type":"ayush","name":"Aarti Mehra","name_hindi":"आरती मेहरा","address":"39/1 LIG Colony,Opp LifeLine Hospital","mobile":"9098247002","opening_hours":"Mo-Su 14:00-17:00","personnel_count":3,"facilities":"Naturopathy , Nutritionist\nDietist\nNatural Herbs ","ward_no":"045","ward_name":"DR. BHIMRAO AMBEDAR"},{"latitude":22.73242243,"longitude":75.88599562,"precision":5,"amenity":"hospital","operator":"public","type":"ayush","name":"Dr. Neeti Shrivastava","name_hindi":"डॉ.नीति श्रीवास्तव","phone":"07312435298","personnel_count":1,"facilities":"Homeopathy","ward_no":"045","ward_name":"DR. BHIMRAO AMBEDAR"},{"latitude":22.7319848863408,"longitude":75.87325078435242,"precision":5,"amenity":"hospital","operator":"public","type":"ayush","name":"Dr. Neha Goyal","name_hindi":"डॉ नेहा गोयल","address":"55 New Dewas Road","mobile":"9893426108","opening_hours":"mo-su12:00 -14:00 ; 18:00- 19:30","personnel_count":1,"facilities":"Homeopathy","ward_no":"047","ward_name":"SARDAR VALLABHBHAI"},{"latitude":22.73949772,"longitude":75.88058243,"precision":5,"amenity":"hospital","operator":"public","type":"ayush","name":"Indore medical hall","name_hindi":"इंदौर मेडिकल हॉल","address":"Patnipura square","mobile":"8989463513","opening_hours":"Mo - Su 9:30 - 22:00","personnel_count":3,"facilities":"Ayurveda Unani , Ayurvedic dr available ","ward_no":"025","ward_name":"NANDA NAGAR"},{"latitude":22.732005,"longitude":75.87474333333333,"precision":4.8,"amenity":"hospital","operator":"public","type":"ayush","name":"Namo Ayurved clinic","name_hindi":"नमोः आयुर्वेद क्लिनिक","address":"UG 15-B, silver Estate, Minal Shree apartment comma Yashwant Niwas Road Indore","mobile":"7770992222","website":"www.namohclinics.com","opening_hours":"Mo-Fr 8:00-18:00","personnel_count":3,"facilities":"Ayurveda","ward_no":"047","ward_name":"SARDAR VALLABHBHAI"},{"latitude":22.73145,"longitude":75.87523666666667,"precision":4.5,"amenity":"hospital","operator":"public","type":"ayush","name":"Shobha's yoga studio","name_hindi":"शौभास् योगा स्टुङियो","address":"19/2 BC, Ganpati building, Y N Road, near Central Bank of India mill area branch","mobile":"9617594534","email":"yoga.shobha2209@gmail.com","opening_hours":"Mo-Sa 8:00-20:00","personnel_count":2,"facilities":"Yoga","ward_no":"047","ward_name":"SARDAR VALLABHBHAI"},{"latitude":22.73217833333333,"longitude":75.87596666666667,"precision":5.1,"amenity":"hospital","operator":"public","type":"ayush","name":"Institute of Holistic medicines ","name_hindi":"समग्र दवाओं का संस्थान","address":"17/18 Vishram Colony Yashwant Niwas Road Indore","phone":"07314074266","mobile":"9406671000","email":"drsudhirkhetawat@gmail.com","opening_hours":"Mo-Sa 12:00-18:00","personnel_count":8,"facilities":"Acupressure and hypnotherapy","ward_no":"047","ward_name":"SARDAR VALLABHBHAI"},{"latitude":22.73743211,"longitude":75.88524912,"precision":3.216,"amenity":"hospital","operator":"public","type":"ayush","name":"Homoeopathic and biochemical dawaiya","name_hindi":"होम्योपैथिक और जैव रासायनिक दावइया","address":"Shop no. 3 MIG Colony","phone":"07314072745","opening_hours":"10:00-14:00;17:00-21:00","personnel_count":1,"facilities":"Homeopathy","ward_no":"044","ward_name":"H.I.G."},{"latitude":22.73758244,"longitude":75.88535395,"precision":3.216,"amenity":"hospital","operator":"public","type":"ayush","name":"Tomar homeo clinic","name_hindi":"तोमर होमो क्लिनिक","address":"MIG Colony Indore","opening_hours":"10:00-12:00-18:00-21:00","personnel_count":1,"facilities":"Homeopathy","ward_no":"044","ward_name":"H.I.G."},{"latitude":22.73419836,"longitude":75.88947956,"precision":3.216,"amenity":"hospital","operator":"public","type":"ayush","name":"Yoganandam","name_hindi":"योगानंदम","address":"16/1 LIG colony","phone":"07312571363","mobile":"7247087734","website":"www.yoganandam.co.in","email":"yoganandam2016@gmail.com","personnel_count":1,"facilities":"Yoga","ward_no":"045","ward_name":"DR. BHIMRAO AMBEDAR"},{"latitude":22.73238388,"longitude":75.88608674,"precision":4.5509996,"amenity":"hospital","operator":"public","type":"ayush","name":"Niti Shrivastav","name_hindi":"नीति श्रीवास्तव","address":"B-169, M.I.G. Colony, L.I.G. Colony, Indore","phone":"07312435298","opening_hours":"Mo-Su 18:00-21:00","personnel_count":1,"facilities":"Homeopathy","ward_no":"045","ward_name":"DR. BHIMRAO AMBEDAR"},{"latitude":22.73440101,"longitude":75.88945145,"precision":9,"amenity":"hospital","operator":"public","type":"ayush","name":"Yoganandam yoga centre","name_hindi":"योगानंदम योगा सेंटर","address":"16/1 HIG Main Road","opening_hours":"Mon-sun 6:15-21:00","personnel_count":5,"facilities":"Yoga Siddha","ward_no":"045","ward_name":"DR. BHIMRAO AMBEDAR"},{"latitude":22.73212333333333,"longitude":75.87769666666667,"precision":1.6,"amenity":"hospital","operator":"public","type":"ayush","name":"Sohanlal Holistic centre","name_hindi":"सोहनलाल होलिस्टिक सेंटर","address":"53/3 Goma ki phel, near 7 No. School Malwa Mill Indore","opening_hours":"Mo-Su 6:00-22:00","personnel_count":10,"facilities":"Yoga Naturopathy , physiotherapy","ward_no":"047","ward_name":"SARDAR VALLABHBHAI"},{"latitude":22.73093666666667,"longitude":75.87461833333333,"precision":0.9,"amenity":"hospital","operator":"public","type":"ayush","name":"Safe care Homoeopathy clinic","name_hindi":" सेफ केअर होम्योपेथी क्लिनीक","address":"9/2 / 1, Panchvati apartment , near Rani Sati Gate Indore","mobile":"9827082349","opening_hours":"Mo-Sa 10:00-13:00; 17:00-21:00","personnel_count":5,"facilities":"Homeopathy","ward_no":"047","ward_name":"SARDAR VALLABHBHAI"},{"latitude":22.70771204,"longitude":75.87716855,"precision":4.5509996,"amenity":"hospital","operator":"public","type":"ayush","name":"Shri Anantnath Chikitsalaya","name_hindi":"श्री अनंन्तनाथ चिकित्सालय","address":"Chhawni Road,Indore","mobile":"9926083161","opening_hours":"Mo-Sa 8:00-13:00;18:30-20:30","personnel_count":6,"facilities":"Ayurveda Homeopathy , Collection Centre\nPhysiotherapist\nPediatrician ","ward_no":"063","ward_name":"NAVLAKHA"},{"latitude":22.71294325,"longitude":75.88444999,"precision":6.068,"amenity":"hospital","operator":"public","type":"ayush","name":"Shreyance Clinic","name_hindi":"श्रेयांस क्लीनिक","address":"G-21, regency arcade, 6 Navratan bagh, indore","mobile":"9827563296","email":"shreyance3489@yahoo.com","opening_hours":"Mo-Sa 10:00-12:30 ; 18:00-21:00","personnel_count":1,"facilities":"Homeopathy , Chronic disease","ward_no":"055","ward_name":"SAUTH TUKOGANJ"},{"latitude":22.71772597,"longitude":75.88826342,"precision":5,"amenity":"hospital","operator":"public","type":"ayush","name":"Shree Chandra Yoga Kendra","name_hindi":"श्री चन्द्र योगा केंद्र","address":"49, Kailash Park Colony","mobile":"9826060731","opening_hours":"Mo-Su 17:30-20:30","personnel_count":4,"facilities":"Yoga Siddha","ward_no":"048","ward_name":"GITA BHAVAN"},{"latitude":22.72156353,"longitude":75.87215963,"precision":9.648001,"amenity":"hospital","operator":"public","type":"ayush","name":"Ratan Ayurvedic Sansthan","name_hindi":"\nरतन आयुर्वेदिक संस्थान","address":"21- BC Mera Padhne new market Indore","phone":"07312510000","personnel_count":2,"facilities":"Ayurveda","ward_no":"047","ward_name":"SARDAR VALLABHBHAI"},{"latitude":22.71883045,"longitude":75.8692847,"precision":9.648001,"amenity":"hospital","operator":"public","type":"ayush","name":"Rhythmic power yoga ","name_hindi":"रिदमिक पावर योगा","address":"Yashwant Plaza second floor Indore","mobile":"9202222004","personnel_count":2,"facilities":"Yoga","ward_no":"055","ward_name":"SAUTH TUKOGANJ"},{"latitude":22.71871228,"longitude":75.86932076,"precision":12.864,"amenity":"hospital","operator":"public","type":"ayush","name":"Bhaiji homeo immunity recharge centre","name_hindi":"भाईजी होमियो इम्यूनिटी रिचार्ज सेंटर","address":"Yashwant Plaza","mobile":"9826011722","opening_hours":"Mo-Fr 12:00-17:00","personnel_count":4,"facilities":"Homeopathy","ward_no":"055","ward_name":"SAUTH TUKOGANJ"},{"latitude":22.70919524,"longitude":75.87582304,"precision":5,"amenity":"hospital","operator":"public","type":"ayush","name":"Dr.  Kailash Chandra clinic","name_hindi":"डॉ। कैलाश चंद्र क्लिनिक","address":"72 RNT marg","opening_hours":"Mo-Sa 11:00-13:00;17:00-20:00","personnel_count":2,"facilities":"Homeopathy","ward_no":"055","ward_name":"SAUTH TUKOGANJ"},{"latitude":22.71021126,"longitude":75.87803165,"precision":5,"amenity":"hospital","operator":"public","type":"ayush","name":"Physiocare","name_hindi":"Physiocare","address":"Royal house ","mobile":"9644935103","opening_hours":"Mo-Sa 17:30-21:00","personnel_count":3,"facilities":"Homeopathy","ward_no":"055","ward_name":"SAUTH TUKOGANJ"},{"latitude":22.72652654908597,"longitude":75.87957568466663,"precision":7,"amenity":"hospital","operator":"public","type":"ayush","name":"Nitya Homeopathic","name_hindi":" नित्या होम्योपैथिक","address":"104- Mourya Centre, Infront of Basketball Complex, Racecourse Road, Indore","mobile":"8770763595","opening_hours":"Mo-Sa 10:00-20:00","personnel_count":2,"facilities":"Homeopathy","ward_no":"047","ward_name":"SARDAR VALLABHBHAI"},{"latitude":22.72623606,"longitude":75.88109252,"precision":4.5509996,"amenity":"hospital","operator":"public","type":"ayush","name":"Patanjali Mega Store","name_hindi":"पतंजलि मेगा स्टोर","mobile":"9589144411","personnel_count":5,"facilities":"Ayurveda","ward_no":"047","ward_name":"SARDAR VALLABHBHAI"},{"latitude":22.71859728,"longitude":75.85656447,"precision":4.5509996,"amenity":"hospital","operator":"public","type":"ayush","name":"Ayurvedic Medicines ","name_hindi":"आयुर्वेदिक दवाइयां","address":"68 Veer Sawarkar Market","opening_hours":"Sa-Su 09:00-12:00;18:00-20:00","personnel_count":1,"facilities":"Ayurveda","ward_no":"059","ward_name":"HARSIDDHI"},{"latitude":22.71831367,"longitude":75.85657413,"precision":4.5509996,"amenity":"hospital","operator":"public","type":"ayush","name":"Shree Keshav Medicine","name_hindi":"श्री केशव औषधालय","address":"30, Bakshi Nagar, Rajwada","phone":"07312535035","opening_hours":"Sa-Su 10:30-20:30","personnel_count":2,"facilities":"Ayurveda","ward_no":"059","ward_name":"HARSIDDHI"},{"latitude":22.7155624,"longitude":75.84883156,"precision":3,"amenity":"hospital","operator":"public","type":"ayush","name":"Shri Nath Ayurveda Bhawan","name_hindi":"श्री नाथ आयुर्वेद भवन","address":"166,jawahar marg,mukeripura ,Indore","mobile":"9826798650","opening_hours":"Mo-Sa 11:00-21:00","personnel_count":2,"facilities":"Ayurveda","ward_no":"069","ward_name":"JAWAHAR MARG"},{"latitude":22.71914789,"longitude":75.8563595,"precision":4,"amenity":"hospital","operator":"public","type":"ayush","name":"Holi Homeo Clinic","name_hindi":"होली होमियो क्लिनिक","address":"MG road,rajwada,Indore","opening_hours":"Mo-Sa 17:00-20:00","personnel_count":2,"facilities":"Homeopathy","ward_no":"057","ward_name":"DEVI AHILYABAI"},{"latitude":22.69028058,"longitude":75.83743983,"precision":4.5509996,"amenity":"hospital","operator":"public","type":"ayush","name":"Sanjivani Ayurvedic Clinic","name_hindi":"संजीवनी अयरुवेदिक क्लिनिक","address":"Saware Store,Opposite Annapurna Mandir,Indore","mobile":"9425074801","opening_hours":"Mo-Su 12:00-23:59","personnel_count":6,"facilities":"Ayurveda","ward_no":"082","ward_name":"SUDAMA NAGAR"},{"latitude":22.69629781,"longitude":75.83910663,"precision":4.5509996,"amenity":"hospital","operator":"public","type":"ayush","name":"Ayurvedic Panchkarm Yoga-Homeopathy Centre","name_hindi":"अय्रुवेद पंचकर्म योग-होमेपथ्य सेन्टर","address":"724 Usha Nagar Extension,Navneet Apartment,Indore","mobile":"9425473908","opening_hours":"Mo-Sa 10:30-13:30;18:00-20:30","personnel_count":8,"facilities":"Ayurveda Homeopathy, ","ward_no":"071","ward_name":"DRAVID NAGAR"},{"latitude":22.70091669,"longitude":75.84161847,"precision":4.5509996,"amenity":"hospital","operator":"public","type":"ayush","name":"Patanjali Hospital","name_hindi":"पतंजलि चिकित्सालय","address":"10 Sachidanand Nagar Annapurna Road,Indore","phone":"07316555505","opening_hours":"Mo-Sa 10:00-21:00","personnel_count":4,"facilities":"Ayurveda","ward_no":"072","ward_name":"LOKMANYA NAGAR"},{"latitude":22.69176626,"longitude":75.83817799,"precision":4.5509996,"amenity":"hospital","operator":"public","type":"ayush","name":"Dr. Sunil Madariya","name_hindi":"डॉ सुनील मदारिया","address":"4-CD Kranti Kripalani Nagar,Annapurna Road Indore","phone":"0731484015","opening_hours":"Mo-Sa 9:00-14:00;18:00-20:00","personnel_count":1,"facilities":"Homeopathy","ward_no":"081","ward_name":"ANNAPURNA"},{"latitude":22.69403927,"longitude":75.84855814,"precision":4.5509996,"amenity":"hospital","operator":"public","type":"ayush","name":"Government Ashtang Ayruvedic College & Hospital","name_hindi":"गवर्नमेंट अष्टांग अयरुवेदिक कॉलेज & हॉस्पिटल","address":"Lokmanya Nagar, Kesharbagh Road, Indore","phone":"07312472767","email":"principal.gaacindore@rediffmail.com","opening_hours":"Mo-Sa 9:00-18:00","personnel_count":55,"facilities":"Ayurveda , Ayurvedic College","ward_no":"073","ward_name":"LAXMANSINGH CHAUHAN"},{"latitude":22.69521118,"longitude":75.83597222,"precision":4.5509996,"amenity":"hospital","operator":"public","type":"ayush","name":"R-Ayurveda","name_hindi":"आर-आयुर्वेद","address":"Narendra Tiwari Marg, 635A, Sudama Nagar Main Road,Indore","phone":"07314206450","opening_hours":"Mo-Sa 9:30-12:30;17:00-19:30","personnel_count":2,"facilities":"Ayurveda Yoga","ward_no":"071","ward_name":"DRAVID NAGAR"},{"latitude":22.69657821,"longitude":75.8343973,"precision":4.5509996,"amenity":"hospital","operator":"public","type":"ayush","name":"Mishra Homeo Pharmacy & Clinic","name_hindi":"मिश्र होमियो फार्मेसी & क्लिनिक","address":"95A Sudama Nagar,Narendra Tiwari Marg,Indore","phone":"07312798808","opening_hours":"Mo-Sa 10:00-20:00","personnel_count":7,"facilities":"Homeopathy , Pharmacy","ward_no":"071","ward_name":"DRAVID NAGAR"},{"latitude":22.69763072,"longitude":75.8660278,"precision":4.5509996,"amenity":"hospital","operator":"public","type":"ayush","name":"Dr Amit Hardia ","name_hindi":"डॉ अमित हार्डिया","address":"37, Anand nagar ,indore","mobile":"9713901684","personnel_count":1,"facilities":"Yoga, Homeopathy","ward_no":"065","ward_name":"SANT KANWARRAM"},{"latitude":22.72399333333334,"longitude":75.82723666666668,"precision":1,"amenity":"hospital","operator":"public","type":"ayush","name":"Arogya ayurvedic centre","name_hindi":"धडधब","address":"9 month Pasand Colony , in front of SBI Bank Sadhana Nagar branch","phone":"07312413413","website":"www.aarogyamayurved.com","opening_hours":"Mo-Sa08:00-20:00","personnel_count":2,"facilities":"Ayurveda","ward_no":"004","ward_name":"SUKHDEV NAGAR"},{"latitude":22.69810214,"longitude":75.86890402,"precision":4.5509996,"amenity":"hospital","operator":"public","type":"ayush","name":"Jigyasa Physiotherapy Clinic","name_hindi":"जिज्ञासा फिजियोथेरेपी क्लीनिक","address":"156, Vidhya nagar , indore","mobile":"9425319635","opening_hours":"Mo-Sa 17:30-20:00","personnel_count":1,"facilities":"Physiotherapy","ward_no":"065","ward_name":"SANT KANWARRAM"},{"latitude":22.69853533,"longitude":75.86717345,"precision":4.5509996,"amenity":"hospital","operator":"public","type":"ayush","name":"Dubey homeo clinic","name_hindi":"दुबे होम्यो क्लीनिक","address":"71, Anand Nagar, indore","mobile":"9826087346","opening_hours":"Mo-Sa 10:00-13:00 ; 18:00-21:00","personnel_count":1,"facilities":"Homeopathy , Knee care, aleergy center","ward_no":"063","ward_name":"NAVLAKHA"},{"latitude":22.69705881,"longitude":75.86608323,"precision":4.5509996,"amenity":"hospital","operator":"public","type":"ayush","name":"Pranic Healing Center","name_hindi":"प्रनीक हीलिंग सेन्टर","address":"34, Ashok nagar, indore","mobile":"9977878133","opening_hours":"Mo-Su 10:00-14:00","personnel_count":2,"facilities":"Yoga","ward_no":"065","ward_name":"SANT KANWARRAM"},{"latitude":22.69948025,"longitude":75.86836226,"precision":4.5509996,"amenity":"hospital","operator":"public","type":"ayush","name":"Maa holistic cure","name_hindi":"मा हॉलिस्टिक क्योर","address":"134/47, agrawal nagar ,indore","mobile":"9826244993","opening_hours":"Mo-Sa 17:00-20:00","personnel_count":2,"facilities":"Yoga, Homeopathy","ward_no":"063","ward_name":"NAVLAKHA"},{"latitude":22.70261545,"longitude":75.84236413,"precision":8,"amenity":"hospital","operator":"public","type":"ayush","name":"Mishra homeo clinic","name_hindi":"मिश्रा होमियो क्लिनिक","address":"Sai nayan apartment usha nagar main Road","mobile":"9892875325","opening_hours":"Mo-Sa 11:00-13:00;19:00-21:00","personnel_count":1,"facilities":"Homeopathy","ward_no":"071","ward_name":"DRAVID NAGAR"},{"latitude":22.6938142,"longitude":75.84582906,"precision":10,"amenity":"hospital","operator":"public","type":"ayush","name":"Dr Raja Sovani clinic","name_hindi":"डॉ। राजा सोवानी क्लिनिक","address":"Lokmanya Nagar","phone":"07314263252","opening_hours":"Mo-Fr 8:00-9:00;17:00-19:00","personnel_count":1,"facilities":"Homeopathy","ward_no":"072","ward_name":"LOKMANYA NAGAR"},{"latitude":22.6976299,"longitude":75.83890708,"precision":5,"amenity":"hospital","operator":"public","type":"ayush","name":"Arogyadham clinic","name_hindi":"आरोग्यधाम क्लिनिक","address":"778 Usha Nagar Extension main","mobile":"9039751009","opening_hours":"Mo-Fr 10:00-14:00;16:00-22:00","personnel_count":2,"facilities":"Ayurveda Homeopathy, ","ward_no":"071","ward_name":"DRAVID NAGAR"},{"latitude":22.69850082,"longitude":75.83769753,"precision":4,"amenity":"hospital","operator":"public","type":"ayush","name":"Dr Nimit Mandhanya clinic","name_hindi":"डॉ। निमित मंधानिया क्लिनिक","address":"Usha Nagar Extension","mobile":"9926861045","opening_hours":"Mo-Sa 10:00-13:00;18:00-21:00","personnel_count":1,"facilities":"Homeopathy","ward_no":"071","ward_name":"DRAVID NAGAR"},{"latitude":22.72223666666666,"longitude":75.83720666666666,"precision":1,"amenity":"hospital","operator":"public","type":"ayush","name":"Homoeopathic Hospital","name_hindi":"होम्योपेथिक हॉस्पिटल","address":"Mahavir Bhag, Agrasen Nagar","opening_hours":"Mo-Sa10:00-12:00","personnel_count":0,"facilities":"Homeopathy","ward_no":"007","ward_name":"JANTA COLONY"},{"latitude":22.69955576,"longitude":75.83578728,"precision":4.5509996,"amenity":"hospital","operator":"public","type":"ayush","name":"Amratham Clinic","name_hindi":"अमृतम क्लिनिक","address":"256 Usha Nagar Extension,Indore","mobile":"9165036547","opening_hours":"Mo-Sa 10:00-13:00;17:00-19:00","personnel_count":2,"facilities":"Ayurveda Homeopathy, ","ward_no":"071","ward_name":"DRAVID NAGAR"},{"latitude":22.70042199,"longitude":75.85449273,"precision":4.5509996,"amenity":"hospital","operator":"public","type":"ayush","name":"Ayurveda pancharam center","name_hindi":"आयुर्वेद पंचकर्म सेन्टर","address":"138, rupram nagar, indore","mobile":"9406616793","opening_hours":"Mo-Sa 08:00-12:00 ; 17:30-20:30","personnel_count":2,"facilities":"Ayurveda","ward_no":"066","ward_name":"SHAHID HEMU COLONY"},{"latitude":22.69577224,"longitude":75.83092646,"precision":4.5509996,"amenity":"hospital","operator":"public","type":"ayush","name":"Dhootapapeshwar","name_hindi":"धूतापपेश्वर","address":"485 Sudama Nagar,Mahavir Gate,Indore","mobile":"9826326850","opening_hours":"Mo-Fr 11:00-14:00;18:00-20:00","personnel_count":3,"facilities":"Ayurveda , Pharmacy","ward_no":"083","ward_name":"GUSHMATA NAGAR"},{"latitude":22.70061711,"longitude":75.83449947,"precision":4.5509996,"amenity":"hospital","operator":"public","type":"ayush","name":"Balaji Homeo Clinic ","name_hindi":"बालाजी होमियो क्लिनिक","address":"1651 B Scheme no 71,Ranjeet Hanuman,Indore","mobile":"9826573690","opening_hours":"Mo-Fr 9:00-12:00;17:00-21:00","personnel_count":1,"facilities":"Homeopathy","ward_no":"083","ward_name":"GUSHMATA NAGAR"},{"latitude":22.72115047,"longitude":75.86166578,"precision":5,"amenity":"hospital","operator":"public","type":"ayush","name":"C.S. Homeo Pharmacy","name_hindi":"सी. एस. होमियो फार्मेसी","address":"12,jail road,khandekar market,Indore","phone":"07312534123","opening_hours":"Mo-Sa 10:30-20:00","personnel_count":2,"facilities":"Homeopathy","ward_no":"057","ward_name":"DEVI AHILYABAI"},{"latitude":22.7159235,"longitude":75.85570004,"precision":5,"amenity":"hospital","operator":"public","type":"ayush","name":"Multani Ayurvedic Clinic","name_hindi":"मुल्तानी आयुर्वेदिक चिकित्सालय","address":"Koyla Bagal,Behind Gurudwara Imli Sahab,Indore","mobile":"9302109888","opening_hours":"Mo-Fr 15:00-22:30","personnel_count":1,"facilities":"Ayurveda","ward_no":"059","ward_name":"HARSIDDHI"},{"latitude":22.70008341,"longitude":75.83654286,"precision":5,"amenity":"hospital","operator":"public","type":"ayush","name":"Samragyee Homoeopathy Clinic","name_hindi":"समरगाय होमियोपैथी क्लिनिक","address":"251 Usha Nagar Extension Ranjeet Hanuman Mandir","mobile":"9111005009","opening_hours":"Mo 10:00-19:00;We-Su 10:00-19:00","personnel_count":1,"facilities":"Homeopathy","ward_no":"071","ward_name":"DRAVID NAGAR"},{"latitude":22.69653288,"longitude":75.83097894,"precision":5,"amenity":"hospital","operator":"public","type":"ayush","name":"Dr Kk Sharma Clinic","name_hindi":"डॉ। केके शर्मा क्लिनिक","address":"2489 Sudama Nagar","mobile":"9827723657","opening_hours":"Mo-Sa 9:30-11:30;19:30-21:30;Su 10:00-12:00","personnel_count":2,"facilities":"Homeopathy","ward_no":"083","ward_name":"GUSHMATA NAGAR"},{"latitude":22.69154921,"longitude":75.83319952,"precision":5,"amenity":"hospital","operator":"public","type":"ayush","name":"Homeo Smile Clinic","name_hindi":"होमो स्माइल क्लिनिक","address":"1240D Sudama Nagar","mobile":"9300838492","opening_hours":"Mo-Sa 11:30-13:30;18:30-21:00","personnel_count":1,"facilities":"Homeopathy","ward_no":"082","ward_name":"SUDAMA NAGAR"},{"latitude":22.71540941,"longitude":75.84951738,"precision":4.288,"amenity":"hospital","operator":"public","type":"ayush","name":"Dakorji Ayurveda Agency","name_hindi":"डकोर्जी आयुर्वेद एजेंसी","address":"70 Narsingh Bazar","mobile":"9425320686","opening_hours":"Mo-Sa 10:00-17:00","personnel_count":2,"facilities":"Ayurveda Homeopathy, ","ward_no":"068","ward_name":"BAMBAI BAZAR"},{"latitude":22.68657042,"longitude":75.83557495,"precision":9,"amenity":"hospital","operator":"public","type":"ayush","name":"Patanjali Yoga","name_hindi":"पतंजलि योग","address":"84, Mishra Nagar","phone":"07314056599","opening_hours":"Mo-Sa 09:00-18:00","personnel_count":5,"facilities":"Yoga","ward_no":"081","ward_name":"ANNAPURNA"},{"latitude":22.67356066,"longitude":75.83218593,"precision":4,"amenity":"hospital","operator":"public","type":"ayush","name":"Patanjali Medical And Store","name_hindi":"पतंजलि चिकित्सा एवं भंडार","address":"5  Dhanvantri Nagar ","opening_hours":" Mo-fr 11:00-19:00","personnel_count":2,"facilities":"Homeopathy , Doctor available  ","ward_no":"080","ward_name":"DR. RAJENDRA PRASAD"},{"latitude":22.68004659,"longitude":75.85120983,"precision":3,"amenity":"hospital","operator":"public","type":"ayush","name":"Rajyog Meditation Kendra","name_hindi":"राजयोग मैडिटेशन केंद्र","address":"Amitesh Nagar","phone":"07312330444","opening_hours":"Mo-Sa 8:00-12:00;17:00-21:00","personnel_count":3,"facilities":"Mediation Centre","ward_no":"078","ward_name":"CHOITHRAM"},{"latitude":22.67395382,"longitude":75.8313114,"precision":4,"amenity":"hospital","operator":"public","type":"ayush","name":"Dr Somendra Mishra","name_hindi":"डॉ। सोमेंद्र मिश्रा","address":"21 Dhanvantri Nagar ","phone":"07312321080","opening_hours":"Mo-Fr 11:00-13:00;18:00-20:00","personnel_count":1,"facilities":"Ayurveda Homeopathy, ","ward_no":"080","ward_name":"DR. RAJENDRA PRASAD"},{"latitude":22.680235,"longitude":75.85156833333333,"precision":0.9,"amenity":"hospital","operator":"public","type":"ayush","name":"Nityam Yoga Classes","name_hindi":"नित्यम योगा क्लासेस","address":"406 Amitesh Nagar","mobile":"9713158099","opening_hours":"Mo-Sa06:00-12:00;18:00-20:00","personnel_count":1,"facilities":"Yoga","ward_no":"078","ward_name":"CHOITHRAM"},{"latitude":22.67153786,"longitude":75.82909225,"precision":9,"amenity":"hospital","operator":"public","type":"ayush","name":"Ayurveda Speciality Centre","name_hindi":"आयुर्वेद विशेषता केंद्र","address":"31 E Rajendra Nagar ","mobile":"8982394425","opening_hours":"Mo-Sa 18:00-21:00","personnel_count":1,"facilities":"Ayurveda Homeopathy, ","ward_no":"080","ward_name":"DR. RAJENDRA PRASAD"},{"latitude":22.67999709,"longitude":75.85115608,"precision":3.216,"amenity":"hospital","operator":"public","type":"ayush","name":"Rajyog Medications","name_hindi":"राजयोग मेडिकेशन","address":"Amitesh Nagar","phone":"0731233044","opening_hours":"Mo-Sa 08:00-12:00; 17:00-21:00","personnel_count":2,"facilities":"Ayurveda Yoga","ward_no":"078","ward_name":"CHOITHRAM"},{"latitude":22.66899054,"longitude":75.82485224,"precision":9,"amenity":"hospital","operator":"public","type":"ayush","name":"Dr Anamika Maurya Homoeopathic Clinic","name_hindi":"डॉ अनामिका मौर्य होम्योपैथिक क्लिनिक","address":"122 Jawahar Nagar ","mobile":"8871417430","opening_hours":"Mo-Sa 17:00-21:00;Sa 10:00-12:00","personnel_count":1,"facilities":"Homeopathy","ward_no":"080","ward_name":"DR. RAJENDRA PRASAD"},{"latitude":22.67174241,"longitude":75.82930543,"precision":4.5509996,"amenity":"hospital","operator":"public","type":"ayush","name":"Avdhut Homeopathy Clinic ","name_hindi":"अवधूत होमियोपैथ क्लिनिक","address":"153C Rajendra Nagar,Indore","mobile":"9179390700","opening_hours":"Mo-Fr 11:00-13:00;17:00-19:00","personnel_count":1,"facilities":"Homeopathy","ward_no":"080","ward_name":"DR. RAJENDRA PRASAD"},{"latitude":22.66954032,"longitude":75.82987267,"precision":4.5509996,"amenity":"hospital","operator":"public","type":"ayush","name":"Shri Sai Clinic","name_hindi":"श्री साई क्लिनिक","address":"No Bhim Nagar,Indore","mobile":"7828107108","opening_hours":"Mo-Fr 10:00-14:00","personnel_count":1,"facilities":"Ayurveda","ward_no":"080","ward_name":"DR. RAJENDRA PRASAD"},{"latitude":22.67739387,"longitude":75.83827227,"precision":9.101999,"amenity":"hospital","operator":"public","type":"ayush","name":"Dr Shikha Homeopathy Clinic","name_hindi":"डॉ शिखा होम्योपैथी क्लिनिक","address":"37, Bindu Regency, Scheme No.103 ,Indore","mobile":"9425956858","opening_hours":"Mo-Fr 10:00-12:30 ; 17:00-19:30","personnel_count":1,"facilities":"Homeopathy","ward_no":"078","ward_name":"CHOITHRAM"},{"latitude":22.67599366,"longitude":75.83720197,"precision":4.5509996,"amenity":"hospital","operator":"public","type":"ayush","name":"Dr Trilokinath Pandey","name_hindi":"डॉ त्रिलोकीनाथ पांडेय","address":"Nalanda Parishad ,Opp Chameli Devi Public School ,Indore","mobile":"7566700027","opening_hours":"Mo-Sa 19:00-21:00","personnel_count":1,"facilities":"Ayurveda","ward_no":"078","ward_name":"CHOITHRAM"},{"latitude":22.76307681,"longitude":75.92342727,"precision":3,"amenity":"hospital","operator":"public","type":"ayush","name":"Katyayani'S Homeopathy Clinic","name_hindi":"कात्यायनीस होमियोपैथी क्लिनिक","address":"Buisness Iceland,Opp. Samar Park,Nipania","mobile":"9685184030","opening_hours":"Mo-Sa 18:00-21:00","personnel_count":1,"facilities":"Homeopathy","ward_no":"036","ward_name":"NIPANIYA"},{"latitude":22.76215778,"longitude":75.92600092,"precision":3,"amenity":"hospital","operator":"public","type":"ayush","name":"Sanjeevani Homeo Clinic","name_hindi":"संजीवनी होमियो क्लिनिक","address":"54,Samar Park,Nipania","mobile":"9827751512","opening_hours":"Mo-Sa 10:00-14:00;16:00-20:00","personnel_count":2,"facilities":"Homeopathy","ward_no":"036","ward_name":"NIPANIYA"},{"latitude":22.76182398,"longitude":75.92731119,"precision":4,"amenity":"hospital","operator":"public","type":"ayush","name":"Homeo Clinic And Research Centre","name_hindi":"होमियो क्लिनिक एंड रिसर्च सेंटर","address":"Amrit Palace Colony,Nipania","mobile":"9993703346","opening_hours":"Mo-Fr 18:00-21:00\nSa-Su 9:00-12:00","personnel_count":1,"facilities":"Homeopathy","ward_no":"036","ward_name":"NIPANIYA"},{"latitude":22.76310666666667,"longitude":75.92365166666667,"precision":0.9,"amenity":"hospital","operator":"public","type":"ayush","name":"Dr Jay Jain","name_hindi":"ङा जय जैन","address":"212 Bussiness Iceland, Nipaniya","mobile":"9826040864","opening_hours":"Mo-Sa12:00-15:00","personnel_count":0,"facilities":"Homeopathy","ward_no":"036","ward_name":"NIPANIYA"},{"latitude":22.76187,"longitude":75.92708999999999,"precision":0.8,"amenity":"hospital","operator":"public","type":"ayush","name":"Atharva Yog Meditation And Aayurvedic Clinic","name_hindi":"अथर्व योग मेडिटेशन और आयुर्वेदिक  क्लिनिक","address":"B/143 Amirt Palace Colony","mobile":"9098023446","opening_hours":"Mo-Sa08:00-12:00","personnel_count":1,"facilities":"Ayurveda , Meditation","ward_no":"036","ward_name":"NIPANIYA"},{"latitude":22.66203548,"longitude":75.88979564,"precision":4.5509996,"amenity":"hospital","operator":"public","type":"ayush","name":"Shivam Yoga Therapy Centre","name_hindi":"शिवम योग थेरेपी सेन्टर","address":"262 Shri Krishna Avenue Lumbini,Indore","mobile":"9630160037","opening_hours":"Mo-Su 6:30-10:00;16:30-19:30","personnel_count":6,"facilities":"Yoga","ward_no":"077","ward_name":"BILAWALI"},{"latitude":22.65978381,"longitude":75.89085104,"precision":4.5509996,"amenity":"hospital","operator":"public","type":"ayush","name":"Classic Homeopathy Clinic","name_hindi":"क्लासिक होमियोपैथी क्लिनिक","address":"Flat No. 104 Krishna Paradise West Wing,Lumbini,Indore","mobile":"8889429990","email":"dr.anamikasinha@gmail.com","opening_hours":"Mo-Fr 11:00-17:00","personnel_count":2,"facilities":"Homeopathy","ward_no":"077","ward_name":"BILAWALI"},{"latitude":22.8194607,"longitude":75.92853388,"precision":5,"amenity":"hospital","operator":"public","type":"ayush","name":"Norway Ayurvedic Clinic","name_hindi":"नॉर्वे आयुर्वेदिक क्लिनिक","address":"Haat Maidan Road, Mangliya ","opening_hours":"Mo-Sa 10:00-14:00;16:00-20:00","personnel_count":1,"facilities":"Ayurveda , Lab test"},{"latitude":22.81909969,"longitude":75.92739376,"precision":3,"amenity":"hospital","operator":"public","type":"ayush","name":"Sanjivani Homeo Clinic","name_hindi":"संजीवनी होमियो क्लिनिक","address":"A.B Road,Mangliya","opening_hours":"Mo-Sa 10:00-18:00","personnel_count":1,"facilities":"Homeopathy"},{"latitude":22.7385495,"longitude":75.79157577,"precision":4.5509996,"amenity":"hospital","operator":"public","type":"ayush","name":"Arya Aushadhyala","name_hindi":"आर्य औषद्यालय","address":"169 Bahubali Nagar,Gandhinagar,Indore","mobile":"8982932393","opening_hours":"Mo-Sa 11:30-15:00;18:30-21:00","personnel_count":1,"facilities":"Ayurveda"},{"latitude":22.75759485,"longitude":75.90255312,"precision":4.5509996,"amenity":"hospital","operator":"public","type":"ayush","name":"Arsha Kerala Ayurvedic Medical Innovation( Akami)","name_hindi":"अकामी आयुर्वेद","address":"C-30/31 Basant Vihar,Indore","phone":"07312557155","mobile":"7440744440","email":"Akamiindore@gmail.com","opening_hours":"24/7","personnel_count":22,"facilities":"Ayurveda","ward_no":"031","ward_name":"MAHARAJA CHATRASAL"},{"latitude":22.75721567,"longitude":75.90263708,"precision":4.5509996,"amenity":"hospital","operator":"public","type":"ayush","name":"Ayurveda Amratam","name_hindi":"आयुर्वेद अमृतम","address":"C-46 Basant Vihar Colony ,Indore","mobile":"9893924049","opening_hours":"Mo-Sa 09:00-10:30;16:00-18:30","personnel_count":1,"facilities":"Ayurveda","ward_no":"031","ward_name":"MAHARAJA CHATRASAL"},{"latitude":22.75808,"longitude":75.90199833333332,"precision":4.6,"amenity":"hospital","operator":"public","type":"ayush","name":"Yoga Amrutam","name_hindi":".","address":"C-173 ,Vasant Vihar Colony","phone":"07314072205","mobile":"9826099886","website":"www.yogaamrutam.com","email":"yoga@yogaamrutam.com","opening_hours":"Mo-Su 06:00-19:15","personnel_count":1,"facilities":"Yoga","ward_no":"031","ward_name":"MAHARAJA CHATRASAL"},{"latitude":22.75325309,"longitude":75.89988676,"precision":5,"amenity":"hospital","operator":"public","type":"ayush","name":"Navodaya Medicose","name_hindi":"नवोदय मेडिकोज","address":"19,Suman Nagar,Shop No.03,Behind Bcm Height,Indore","phone":"07314986227","mobile":"7772866882","email":"navodayamedicose@gmail.com","opening_hours":"Su-Sat 9:30-23:00","personnel_count":3,"facilities":"Ayurveda , Patanjali\nAllopathy","ward_no":"031","ward_name":"MAHARAJA CHATRASAL"},{"latitude":22.75071706,"longitude":75.90006703,"precision":5,"amenity":"hospital","operator":"public","type":"ayush","name":"Shri Ram Medical Store","name_hindi":"श्री राम मेडिकल स्टोर","address":"101,Ganga Devi Nagar Vijay Nagar","mobile":"8878967887","opening_hours":"Su-Sat 10:00-22:00","personnel_count":2,"facilities":"Comestic ","ward_no":"031","ward_name":"MAHARAJA CHATRASAL"},{"latitude":22.75047105,"longitude":75.90057388,"precision":5,"amenity":"hospital","operator":"public","type":"ayush","name":"Surya Medical Store","name_hindi":"सूर्य मेडिकल स्टोर","address":"242-A Sheetal Nagar,Near Bhumika School,Vijay Nagar,Indore,M.P.","mobile":"8889509885","opening_hours":"Su-Sat 9:00-22:30","personnel_count":2,"facilities":"Ayurveda , Allopathy","ward_no":"031","ward_name":"MAHARAJA CHATRASAL"},{"latitude":22.75034862,"longitude":75.90085121,"precision":5,"amenity":"hospital","operator":"public","type":"ayush","name":"Shri Balaji Health Care Pharmacy","name_hindi":"श्री बालाजी हेल्थ केयर फार्मेसी","address":"186,Sheetal Nagar,Near Radisson Hotel","mobile":"9009992551","opening_hours":"Su-Sat 9:30-22:30","personnel_count":2,"facilities":"Ayurveda , Allopathy","ward_no":"031","ward_name":"MAHARAJA CHATRASAL"},{"latitude":22.75373675,"longitude":75.90214285,"precision":5,"amenity":"hospital","operator":"public","type":"ayush","name":"Aapka Medicose","name_hindi":"आपका मेडिकोस","personnel_count":2,"facilities":"Drug Store","ward_no":"031","ward_name":"MAHARAJA CHATRASAL"},{"latitude":22.75315682,"longitude":75.90434024,"precision":5,"amenity":"hospital","operator":"public","type":"ayush","name":"Total Drug Centre","name_hindi":"टोटल ड्रग सेंटर","address":"G-1,Sch No.94,Bombay Hospital Square,Vijay Nagar","phone":"07312578737","opening_hours":"Su-Sat 10:30-23:00","personnel_count":11,"facilities":"Allopathy","ward_no":"037","ward_name":"SAI KRUPA"},{"latitude":22.75315695,"longitude":75.90433303,"precision":5,"amenity":"hospital","operator":"public","type":"ayush","name":"Total Homeopathic Pharmacy And Clinic","name_hindi":"टोटल होम्योपैथिक फार्मेसी एंड क्लिनिक","address":"Vijay Nagar","mobile":"9926569141","opening_hours":"Mon-Sat 10:00-13:00; 17:00-21:30","personnel_count":4,"facilities":"Homeopathy","ward_no":"037","ward_name":"SAI KRUPA"},{"latitude":22.75294103,"longitude":75.90501052,"precision":5,"amenity":"hospital","operator":"public","type":"ayush","name":"Sanjeevani Ayurveda Kendra","name_hindi":"संजीवनी आयुर्वेद केंद्र","address":"Bombay Hospital Square , Sc H No.94,Ec-10","mobile":"9039127640","personnel_count":2,"facilities":"Ayurveda","ward_no":"037","ward_name":"SAI KRUPA"},{"latitude":22.75314491,"longitude":75.89988929,"precision":4.5509996,"amenity":"hospital","operator":"public","type":"ayush","name":"Navodaya Medicose","name_hindi":"नवोदय मेडिकोज","address":"19, Suman Nagar, Shop No.3, Behind Bcm Height, Indore","phone":"07314986277","mobile":"7772866882","email":"navodayamedicose@gmail.com","opening_hours":"Su-Sat 9:30-23:00","personnel_count":3,"facilities":"Ayurveda , Patanjali\nAllopathic","ward_no":"031","ward_name":"MAHARAJA CHATRASAL"},{"latitude":22.7506647,"longitude":75.90010779,"precision":4.5509996,"amenity":"hospital","operator":"public","type":"ayush","name":"Shri Ram Medical Store ","name_hindi":"श्री राम मेडिकल स्टोर","address":"101, Gangadevi Nagar, Vijyanagar","mobile":"8878967887","opening_hours":"Su-Sa 10:00-22:00","personnel_count":2,"facilities":"Comestic ","ward_no":"031","ward_name":"MAHARAJA CHATRASAL"},{"latitude":22.75380076,"longitude":75.90516111,"precision":5,"amenity":"hospital","operator":"public","type":"ayush","name":"S.Kumar Homeopathy","name_hindi":"स. कुमार होमियोपैथी","address":"Sch No.94,Near Bombay Hospital Square","mobile":"9826008788","opening_hours":"Sun-Sat :11:00-14:00","personnel_count":2,"facilities":"Homeopathy","ward_no":"037","ward_name":"SAI KRUPA"},{"latitude":22.75043975,"longitude":75.90056585,"precision":4.5509996,"amenity":"hospital","operator":"public","type":"ayush","name":"Surya Medical Store ","name_hindi":"सूर्य मेडिकल स्टोर","address":"242-A, Sheetal Nagar, Vijyanagar","mobile":"8889509885","opening_hours":"Su-Sa 9:00-22:30","personnel_count":2,"facilities":"Ayurveda , Allopathic","ward_no":"031","ward_name":"MAHARAJA CHATRASAL"},{"latitude":22.7501029,"longitude":75.9009281,"precision":4.5509996,"amenity":"hospital","operator":"public","type":"ayush","name":"Shri Balaji Healthcare Pharmacy","name_hindi":"श्री बालाजी हेल्थकेयर फार्मेसी","address":"186, Sheetal Nagar, Vijyanagar","mobile":"9009992551","opening_hours":"Su-Sa 9:30-22:30","personnel_count":2,"facilities":"Ayurveda , Allopathic","ward_no":"031","ward_name":"MAHARAJA CHATRASAL"},{"latitude":22.75388711,"longitude":75.90519636,"precision":5,"amenity":"hospital","operator":"public","type":"ayush","name":"Well Care Pharmacy","name_hindi":"वेल केअर फार्मेसी","address":"Shop No.03 Vardhaman Complex,Eb 03,Sch No.94","mobile":"9893149485","website":"www.davaindia.com","opening_hours":"Sun 10:00-14:00\nMon-Sat- 10:00-14:00; 16:00-21:00","personnel_count":1,"facilities":"Herbals, neutracuticals, pharmaceutical(Generic pharmacy)","ward_no":"037","ward_name":"SAI KRUPA"},{"latitude":22.75313468,"longitude":75.90424951,"precision":4.5509996,"amenity":"hospital","operator":"public","type":"ayush","name":"Total Drug Center ","name_hindi":"टोटाल ड्रग सेंटर","address":"G-1, 16 E.C., Scheme No. 94, Vijyanagar","website":"919826905737","opening_hours":"Su-Sa 8:30-22:30","personnel_count":11,"facilities":"Allopathic ","ward_no":"037","ward_name":"SAI KRUPA"},{"latitude":22.75315425,"longitude":75.90435109,"precision":6.068,"amenity":"hospital","operator":"public","type":"ayush","name":"Total Homeopathic Pharmacy And Clinic ","name_hindi":"होम्योपैथिक फार्मेसी एंड क्लीनिक","mobile":"9926569141","opening_hours":"Mo-Sa 10:00-13:00: 17:00-21:30","personnel_count":4,"facilities":"Homeopathy","ward_no":"037","ward_name":"SAI KRUPA"},{"latitude":22.75294675,"longitude":75.90500236,"precision":4.5509996,"amenity":"hospital","operator":"public","type":"ayush","name":"Sanjivani Ayurveda Medical ","name_hindi":"संजीवनी आयुर्वेद सेन्टर","address":"Ec 10,Bombay Hospital Square,Scheme No. 94","mobile":"9039137640","personnel_count":3,"facilities":"Ayurveda","ward_no":"037","ward_name":"SAI KRUPA"},{"latitude":22.75387458,"longitude":75.90525622,"precision":4.5509996,"amenity":"hospital","operator":"public","type":"ayush","name":"S. Kumar Homeopathic","name_hindi":"एस कुमार होम्योपैथिक","mobile":"9826008788","opening_hours":"Su-Sa 11:00-14:00","personnel_count":2,"facilities":"Homeopathy","ward_no":"037","ward_name":"SAI KRUPA"},{"latitude":22.75390357,"longitude":75.90523681,"precision":4.5509996,"amenity":"hospital","operator":"public","type":"ayush","name":"Well Care Pharmacy","name_hindi":"वैल केयर फार्मेसी","address":"Shop No. 3, Vardhmaan Complex, Eb 303, Scheme No 94, Bombay Hospital Square","mobile":"9893149485","opening_hours":"Mo-Sa 10:00-14:00; 16:00-21:00\nSu 10:00-14:00","personnel_count":1,"facilities":"Herbals, Neutracuticals, Pharmacutical (Generic)","ward_no":"037","ward_name":"SAI KRUPA"},{"latitude":22.75585125,"longitude":75.88722674,"precision":4.288,"amenity":"hospital","operator":"public","type":"ayush","name":"Rhythmic Power Yoga-Vijay Nagar","name_hindi":"पॉवर योगा विजय नगर","address":"B-104 Rajat Jayanthi Complex Z Vijay Nagar","mobile":"9707904001","opening_hours":"Mo-Su in batches","personnel_count":4,"facilities":"Yoga","ward_no":"029","ward_name":"DR. SHYAM PRASAD MUKHARJI"},{"latitude":22.75372545,"longitude":75.88772338,"precision":4.288,"amenity":"hospital","operator":"public","type":"ayush","name":"Care Ayurveda Clinic","name_hindi":"केयर आयुर्वेद क्लीनिक","address":"Fh-449 Scheme No 54, Indore","mobile":"9827089853","opening_hours":"Mo-Sa 16:00-20:30 and Su 10:00-12:00","personnel_count":4,"facilities":"Ayurveda","ward_no":"029","ward_name":"DR. SHYAM PRASAD MUKHARJI"},{"latitude":22.75370895,"longitude":75.88588653,"precision":4.288,"amenity":"hospital","operator":"public","type":"ayush","name":"Arogyam Homeopathic Clinic- Dr. Rajesh Bhordiya And Dr. Tanuja Bhordiya","name_hindi":"आरोग्यम होम्योपैथिक क्लीनिक- डॉ राजेश बोर्डिया एंड डॉ तनूजा बोर्डिया","address":"Ug-9 Royal View, Vijay Nagar","mobile":"9826011330","opening_hours":"Mo-Su 17:00-21:00","personnel_count":3,"facilities":"Ayurveda Homeopathy, ","ward_no":"029","ward_name":"DR. SHYAM PRASAD MUKHARJI"},{"latitude":22.75332179,"longitude":75.88788946,"precision":4.288,"amenity":"hospital","operator":"public","type":"ayush","name":"Banadas Homeopathic Clinic","name_hindi":"बनदास होमेओपेथी क्लिनिक","address":"Gh-166 Scheme 54, Vijay Nagar","phone":"07312557898","mobile":"9425313269","opening_hours":"Mo-Su 09:0011:00 and 17:00-21:00","personnel_count":2,"facilities":"Homeopathy","ward_no":"029","ward_name":"DR. SHYAM PRASAD MUKHARJI"},{"latitude":22.75370315,"longitude":75.90213361,"precision":4.5509996,"amenity":"hospital","operator":"public","type":"ayush","name":"Drug Store","name_hindi":"ड्रग स्टोर","personnel_count":2,"facilities":"Ayurveda","ward_no":"031","ward_name":"MAHARAJA CHATRASAL"}]}