{"public_washrooms":[{"latitude":22.757,"longitude":75.90461,"amenity":"public_washrooms","name":"SBM Toilet","hindi_name":"एस बी एम टॉयलेट","address":"Scheme Number 94 , Service Road ,Indore","opening_hours":"24/7","paid":"no","staff_onsite":"no","cleanliness_schedule":"weekly","seperate_washroom":"no","construction_material":"fibre","water_supply":"no","ward_no":"031","ward_name":"MAHARAJA CHATRASAL"},{"latitude":22.75447,"longitude":75.90399,"amenity":"public_washrooms","name":"SBM Toilet","hindi_name":"एस बी एम टॉयलेट","address":"Bombay Hospital Service Road, Eastern Ring Road, Indore","opening_hours":"24/7","paid":"no","staff_onsite":"no","cleanliness_schedule":"weekly","seperate_washroom":"no","construction_material":"fibre","water_supply":"yes","ward_no":"031","ward_name":"MAHARAJA CHATRASAL"},{"latitude":22.75485,"longitude":75.90215,"amenity":"public_washrooms","name":"Sulabh Complex","hindi_name":"सुलभ कॉम्प्लेक्स","address":"Zone No.7, Ward No.31, Bombay Hospital, Behind Water Tank, Indore","opening_hours":"Mo-Su 4:00-23:00","paid":"no","staff_onsite":"yes","cleanliness_schedule":"daily","seperate_washroom":"yes","construction_material":"concrete","water_supply":"yes","ward_no":"031","ward_name":"MAHARAJA CHATRASAL"},{"latitude":22.75275,"longitude":75.90418,"amenity":"public_washrooms","name":"SBM Toilet","hindi_name":"एस बी एम टॉयलेट","address":"EB 308, Scheme No 94, Opposite Bombay Hospital Service Road, Pushp Vihar Colony, Indore","opening_hours":"24/7","paid":"no","staff_onsite":"no","cleanliness_schedule":"weekly","seperate_washroom":"yes","construction_material":"fibre","water_supply":"yes","ward_no":"037","ward_name":"SAI KRUPA"},{"latitude":22.7485,"longitude":75.904,"amenity":"public_washrooms","name":"Sulabh Complex","hindi_name":"सुलभ कॉम्प्लेक्स","address":"Scheme No.94, Ring Road, Near Malviya Filling Station, Indore","opening_hours":"24/7","paid":"no","staff_onsite":"no","cleanliness_schedule":"weekly","seperate_washroom":"yes","construction_material":"concrete","water_supply":"yes","ward_no":"037","ward_name":"SAI KRUPA"},{"latitude":22.75303,"longitude":75.90155,"amenity":"public_washrooms","name":"SBM Toilet","hindi_name":"एस बी एम टॉयलेट","address":"Sector A, Sheetal Nagar, Behind Radisson Blu, Indore","opening_hours":"24/7","paid":"no","staff_onsite":"no","cleanliness_schedule":"weekly","seperate_washroom":"no","construction_material":"fibre","water_supply":"yes","ward_no":"031","ward_name":"MAHARAJA CHATRASAL"},{"latitude":22.76207,"longitude":75.9057,"amenity":"public_washrooms","name":"SBM","hindi_name":"एस बी एम","address":"Service Road, Sector 114, Indore","opening_hours":"24/7","paid":"no","staff_onsite":"no","cleanliness_schedule":"weekly","seperate_washroom":"no","construction_material":"fibre","water_supply":"irregular","ward_no":"031","ward_name":"MAHARAJA CHATRASAL"},{"latitude":22.76934,"longitude":75.90863,"amenity":"public_washrooms","name":"SBM","hindi_name":"एस बी एम","address":"Pipliya Kumar Square, Indore","opening_hours":"24/7","paid":"no","staff_onsite":"no","cleanliness_schedule":"weekly","seperate_washroom":"yes","construction_material":"concrete","water_supply":"irregular","ward_no":"036","ward_name":"NIPANIYA"},{"latitude":22.76333,"longitude":75.90667,"amenity":"public_washrooms","name":"SBM","hindi_name":"एस बी एम","address":"Scheme No. 94 EB Sector Opposite Bharat Petroleum Indore","opening_hours":"24/7","paid":"no","staff_onsite":"no","cleanliness_schedule":"weekly","seperate_washroom":"yes","construction_material":"concrete","water_supply":"irregular","ward_no":"037","ward_name":"SAI KRUPA"},{"latitude":22.7571,"longitude":75.88654,"amenity":"public_washrooms","name":"Swachh Bharat Mission","hindi_name":"स्वच्छ भारत मिशन","address":"Zonal Office,Scheme No.54,Vijay Nagar,Indore","opening_hours":"24/7","paid":"no","staff_onsite":"no","cleanliness_schedule":"daily","seperate_washroom":"yes","construction_material":"concrete","water_supply":"yes","ward_no":"029","ward_name":"DR. SHYAM PRASAD MUKHARJI"},{"latitude":22.76927,"longitude":75.88706,"amenity":"public_washrooms","name":"Swachh Bharat Mission","hindi_name":"स्वच्छ भारत मिशन","address":"Scheme No 78, Phase-2,Vijay Nagar","opening_hours":"24/7","paid":"no","staff_onsite":"no","cleanliness_schedule":"daily","seperate_washroom":"no","construction_material":"concrete","water_supply":"yes","ward_no":"032","ward_name":"ATAL BIHARI VAJPEYI"},{"latitude":22.76604,"longitude":75.88594,"amenity":"public_washrooms","name":"Swachh Bharat Mission","hindi_name":"स्वच्छ भारत मिशन","address":"Near Daisy Dales School, Scheme Number 78, Part-2, Vijay Nagar, Indore","opening_hours":"24/7","paid":"no","staff_onsite":"no","cleanliness_schedule":"daily","seperate_washroom":"yes","construction_material":"concrete","water_supply":"yes","ward_no":"032","ward_name":"ATAL BIHARI VAJPEYI"},{"latitude":22.75263,"longitude":75.88683,"amenity":"public_washrooms","name":"SBM Toilet","hindi_name":"एस बी एम टॉयलेट","address":"Vijay Nagar,Near Meghdoot Garden,Indore","opening_hours":"Mo-Su 04:00-22:00","paid":"no","staff_onsite":"no","cleanliness_schedule":"weekly","seperate_washroom":"yes","construction_material":"concrete","water_supply":"yes","ward_no":"028","ward_name":"MA TULJA BHAVANI"},{"latitude":22.7546,"longitude":75.88091,"amenity":"public_washrooms","name":"Sulabh Complex","hindi_name":"सुलभ कॉम्प्लेक्स","address":"MR 10 Service Road,Near Anand Mohan Mathur Sabhagrah,\n Indore","opening_hours":"Mo-su 04:00-22:00","paid":"yes","staff_onsite":"yes","cleanliness_schedule":"daily","seperate_washroom":"yes","construction_material":"concrete","water_supply":"yes","ward_no":"029","ward_name":"DR. SHYAM PRASAD MUKHARJI"},{"latitude":22.75343,"longitude":75.88222,"amenity":"public_washrooms","name":"SBM Toilet","hindi_name":"एस बी एम टॉयलेट","address":"Shardha Maath,Bapatt Square,Indore","opening_hours":"Mo-Su 04:00-22:00","paid":"yes","staff_onsite":"yes","cleanliness_schedule":"daily","seperate_washroom":"yes","construction_material":"concrete","water_supply":"yes","ward_no":"027","ward_name":"PASHUPATI NATH"},{"latitude":22.75089,"longitude":75.89424,"amenity":"public_washrooms","name":"Sulabh Complex","hindi_name":"सुलभ कॉम्प्लेक्स","address":"Zone no. 07, Ward no. 29, Vijaynagar Square, Indore","opening_hours":"Mo-Su 04:00-22:00","paid":"yes","staff_onsite":"yes","cleanliness_schedule":"daily","seperate_washroom":"yes","construction_material":"concrete","water_supply":"yes","ward_no":"029","ward_name":"DR. SHYAM PRASAD MUKHARJI"},{"latitude":22.75229,"longitude":75.88845,"amenity":"public_washrooms","name":"SBM","hindi_name":"एस बी एम","address":"Opp. Meghdut Garden, Scheme no. 54, Vijay Nagar, Indore","opening_hours":"24/7","paid":"no","staff_onsite":"no","cleanliness_schedule":"daily","seperate_washroom":"yes","construction_material":"concrete","water_supply":"yes","ward_no":"028","ward_name":"MA TULJA BHAVANI"},{"latitude":22.74932,"longitude":75.89474,"amenity":"public_washrooms","name":"SBM","hindi_name":"एस बी एम","address":"Rasoma Square, Main Road Vijay Nagar, Indore","opening_hours":"24/7","paid":"no","staff_onsite":"no","cleanliness_schedule":"daily","seperate_washroom":"yes","construction_material":"concrete","water_supply":"yes","ward_no":"029","ward_name":"DR. SHYAM PRASAD MUKHARJI"},{"latitude":22.75484,"longitude":75.89793,"amenity":"public_washrooms","name":"Sulabh Complex","hindi_name":"सुलभ कॉम्प्लेक्स","address":"Zone no. 07, Ward no. 31, Satya Sai Square, Indore","opening_hours":"Mo-Sun 4:00-22:00","paid":"yes","staff_onsite":"yes","cleanliness_schedule":"daily","seperate_washroom":"yes","construction_material":"concrete","water_supply":"yes","ward_no":"031","ward_name":"MAHARAJA CHATRASAL"},{"latitude":22.75287,"longitude":75.90432,"amenity":"public_washrooms","name":"Sulabh Complex","hindi_name":"सुलभ कॉम्प्लेक्स","address":"Service Road, Scheme Number 171, Pushp Vihar Colony, Indore","opening_hours":"Mo-Su 05:00-23:00","paid":"yes","staff_onsite":"yes","cleanliness_schedule":"daily","seperate_washroom":"yes","construction_material":"concrete","water_supply":"yes","ward_no":"037","ward_name":"SAI KRUPA"},{"latitude":22.75737,"longitude":75.9013,"amenity":"public_washrooms","name":"Sulabh Complex","hindi_name":"सुलभ कॉम्प्लेक्स","address":"Scheme Number 54, In Front Of BCM Heights , Indore","opening_hours":"24/7","paid":"no","staff_onsite":"no","cleanliness_schedule":"weekly","seperate_washroom":"yes","construction_material":"concrete","water_supply":"yes","ward_no":"031","ward_name":"MAHARAJA CHATRASAL"},{"latitude":22.75011,"longitude":75.901,"amenity":"public_washrooms","name":"Sulabh Complex","hindi_name":"सुलभ कॉम्प्लेक्स","address":"MR 10 Road, Sheetal Nagar Behind Radisson Blu, Indore","opening_hours":"24/7","paid":"no","staff_onsite":"no","cleanliness_schedule":"weekly","seperate_washroom":"no","construction_material":"concrete","water_supply":"yes","ward_no":"031","ward_name":"MAHARAJA CHATRASAL"},{"latitude":22.76552,"longitude":75.89362,"amenity":"public_washrooms","name":"Sulabh Complex","hindi_name":"सुलभ कॉम्प्लेक्स","address":"445 ,Sector A ,Slice 3 ,Aranya Nagar ,Scheme no 78, Vijay Nagar, Indore.","opening_hours":"24/7","paid":"yes","staff_onsite":"yes","cleanliness_schedule":"daily","seperate_washroom":"yes","construction_material":"concrete","water_supply":"yes","ward_no":"034","ward_name":"SHAHID BHAGATSINGH"},{"latitude":22.76752,"longitude":75.89761,"amenity":"public_washrooms","name":"SBM","hindi_name":"एस बी एम","address":"Nai Sadak,Near Power house Scheme 78 ,Aranya Nagar, Vijay Nagar, Indore.","opening_hours":"24/7","paid":"no","staff_onsite":"no","cleanliness_schedule":"daily","seperate_washroom":"no","construction_material":"fibre","water_supply":"yes","ward_no":"034","ward_name":"SHAHID BHAGATSINGH"},{"latitude":22.75609,"longitude":75.89375,"amenity":"public_washrooms","name":"SBM","hindi_name":"एस बी एम","address":"Near Dashmesh Wheels, Scheme 54 ,Vijay Nagar, Indore","opening_hours":"24/7","paid":"no","staff_onsite":"no","cleanliness_schedule":"daily","seperate_washroom":"yes","construction_material":"concrete","water_supply":"yes","ward_no":"029","ward_name":"DR. SHYAM PRASAD MUKHARJI"},{"latitude":22.76581,"longitude":75.89328,"amenity":"public_washrooms","name":"Public Toilet SBM","hindi_name":"पब्लिक टॉयलेट एस बी एम","address":"URINAL ID IMC/034/URI/458 ,Scheme no. 78,Indore","opening_hours":"24/7","paid":"no","staff_onsite":"no","cleanliness_schedule":"weekly","seperate_washroom":"yes","construction_material":"concrete","water_supply":"yes","ward_no":"032","ward_name":"ATAL BIHARI VAJPEYI"},{"latitude":22.75823,"longitude":75.88058,"amenity":"public_washrooms","name":"Sulabh Complex","hindi_name":"सुलभ कॉम्प्लेक्स","address":"Nyay Nagar Square, Scheme Number 54,Vijay Nagar,Indore","opening_hours":"24/7","paid":"no","staff_onsite":"no","cleanliness_schedule":"daily","seperate_washroom":"no","construction_material":"concrete","water_supply":"yes","ward_no":"033","ward_name":"SUKHLIYA"},{"latitude":22.75825,"longitude":75.88018,"amenity":"public_washrooms","name":"Swachh Bharat Mission","hindi_name":"स्वच्छ भारत मिशन","address":"Nyay nagar square,Indore","opening_hours":"24/7","paid":"no","staff_onsite":"no","cleanliness_schedule":"daily","seperate_washroom":"yes","construction_material":"concrete","water_supply":"yes","ward_no":"033","ward_name":"SUKHLIYA"},{"latitude":22.76542,"longitude":75.88068,"amenity":"public_washrooms","name":"Swachh Bharat Mission","hindi_name":"स्वच्छ भारत मिशन","address":"Raghunandan Square, Indore","opening_hours":"24/7","paid":"no","staff_onsite":"no","cleanliness_schedule":"daily","seperate_washroom":"no","construction_material":"fibre","water_supply":"irregular","ward_no":"032","ward_name":"ATAL BIHARI VAJPEYI"},{"latitude":22.76623,"longitude":75.87785,"amenity":"public_washrooms","name":"Swachh Bharat Mission","hindi_name":"स्वच्छ भारत मिशन","address":"265 Kabit Khadi,Sukhliya,Indore","opening_hours":"24/7","paid":"no","staff_onsite":"yes","cleanliness_schedule":"daily","seperate_washroom":"yes","construction_material":"concrete","water_supply":"yes","ward_no":"033","ward_name":"SUKHLIYA"},{"latitude":22.73318,"longitude":75.88145,"amenity":"public_washrooms","name":"Sulabh Complex","hindi_name":"सुलभ कॉम्प्लेक्स","address":"Zone-9, Ward 45, Lala Ka Bagicha-1, Indore","opening_hours":"24/7","paid":"no","staff_onsite":"no","cleanliness_schedule":"daily","seperate_washroom":"yes","construction_material":"concrete","water_supply":"yes","ward_no":"045","ward_name":"DR. BHIMRAO AMBEDAR"},{"latitude":22.73179,"longitude":75.88996,"amenity":"public_washrooms","name":"SBM","hindi_name":"एस बी एम","address":"Opp. CHL Hospital, Near Union Bank, AB Road","opening_hours":"24/7","paid":"no","staff_onsite":"no","cleanliness_schedule":"daily","seperate_washroom":"no","construction_material":"concrete","water_supply":"yes","ward_no":"043","ward_name":"SHRINAGAR"},{"latitude":22.73602,"longitude":75.87314,"amenity":"public_washrooms","name":"Sulabh Complex","hindi_name":"सुलभ कॉम्प्लेक्स","address":"Near Malwa Mill,New Gate,Indore","opening_hours":"Mo-Fr 04:00-22:00","paid":"yes","staff_onsite":"yes","cleanliness_schedule":"daily","seperate_washroom":"yes","construction_material":"concrete","water_supply":"yes","ward_no":"056","ward_name":"SNEHALATA GANJ"},{"latitude":22.73714,"longitude":75.86921,"amenity":"public_washrooms","name":"SBM Toilet","hindi_name":"एस बी एम टॉयलेट","address":"Zone No. 6, Near Pardesi Pura Police Station, Indore","opening_hours":"24/7","paid":"no","staff_onsite":"no","cleanliness_schedule":"weekly","seperate_washroom":"no","construction_material":"concrete","water_supply":"yes","ward_no":"056","ward_name":"SNEHALATA GANJ"},{"latitude":22.73774,"longitude":75.87099,"amenity":"public_washrooms","name":"SBM Toilet","hindi_name":"एस बी एम टॉयलेट","address":"Zone No. 3, Bansi Press, Vishanti Chouraha","opening_hours":"24/7","paid":"no","staff_onsite":"no","cleanliness_schedule":"daily","seperate_washroom":"yes","construction_material":"concrete","water_supply":"yes","ward_no":"056","ward_name":"SNEHALATA GANJ"},{"latitude":22.75514,"longitude":75.87704,"amenity":"public_washrooms","name":"Sulabh Complex","hindi_name":"सुलभ कॉम्प्लेक्स","address":"40, Shivaji Nagar, Malwa Mill, Indore","opening_hours":"24/7","paid":"no","staff_onsite":"yes","cleanliness_schedule":"daily","seperate_washroom":"yes","construction_material":"concrete","water_supply":"yes","ward_no":"022","ward_name":"PANDIT DINDAYAL UPADHYAY"},{"latitude":22.73082,"longitude":75.90293,"amenity":"public_washrooms","name":"Swachh Bharat Mission","hindi_name":"स्वच्छ भारत मिशन","address":"In Front of Power House, Khajrana , Ring Road Square, Indore","opening_hours":"24/7","paid":"no","staff_onsite":"no","cleanliness_schedule":"daily","seperate_washroom":"yes","construction_material":"concrete","water_supply":"yes","ward_no":"041","ward_name":"KAILASHPURI"},{"latitude":22.73261,"longitude":75.90173,"amenity":"public_washrooms","name":"Swachh Bharat Mission","hindi_name":"स्वच्छ भारत मिशन","address":"Aman Nagar, Near Multani Masjid, Khajrana Ring Road Square","opening_hours":"24/7","paid":"no","staff_onsite":"no","cleanliness_schedule":"daily","seperate_washroom":"no","construction_material":"concrete","water_supply":"yes","ward_no":"042","ward_name":"SWAMI VIVEKANAND"},{"latitude":22.73411,"longitude":75.89471,"amenity":"public_washrooms","name":"Swachh Bharat Mission","hindi_name":"स्वच्छ भारत मिशन","address":"Khajrani Kakad, LIG Link Road, Indore","opening_hours":"24/7","paid":"no","staff_onsite":"no","cleanliness_schedule":"daily","seperate_washroom":"no","construction_material":"concrete","water_supply":"yes","ward_no":"030","ward_name":"SANT RAVIDAS"},{"latitude":22.73464,"longitude":75.9002,"amenity":"public_washrooms","name":"Swachh Bharat Mission","hindi_name":"स्वच्छ भारत मिशन","address":"LIG Ring Road, Indore","opening_hours":"24/7","paid":"no","staff_onsite":"no","cleanliness_schedule":"daily","seperate_washroom":"no","construction_material":"fibre","water_supply":"yes","ward_no":"037","ward_name":"SAI KRUPA"},{"latitude":22.74352,"longitude":75.88837,"amenity":"public_washrooms","name":"SBM","hindi_name":"एस बी एम","address":"Bhamori Nala, Sanjay Gandhi Nagar, Indore","opening_hours":"24/7","paid":"no","staff_onsite":"yes","cleanliness_schedule":"daily","seperate_washroom":"yes","construction_material":"concrete","water_supply":"yes","ward_no":"044","ward_name":"H.I.G."},{"latitude":22.74266,"longitude":75.89143,"amenity":"public_washrooms","name":"SVM","hindi_name":"एस बी एम","address":"Kalindi Square, MR 9, Indore","opening_hours":"24/7","paid":"no","staff_onsite":"no","cleanliness_schedule":"weekly","seperate_washroom":"yes","construction_material":"concrete","water_supply":"irregular","ward_no":"044","ward_name":"H.I.G."},{"latitude":22.74787,"longitude":75.89081,"amenity":"public_washrooms","name":"SVM","hindi_name":"एस बी एम","address":"Near Man Mandir, Vijay Nagar, Indore","opening_hours":"24/7","paid":"no","staff_onsite":"no","cleanliness_schedule":"weekly","seperate_washroom":"yes","construction_material":"concrete","water_supply":"irregular","ward_no":"029","ward_name":"DR. SHYAM PRASAD MUKHARJI"},{"latitude":22.73271,"longitude":75.90229,"amenity":"public_washrooms","name":"Sulabh Complex","hindi_name":"सुलभ कॉम्प्लेक्स","address":"KhajranaSquare, Khajrana","opening_hours":"Mo-Su 04:00-22:00","paid":"yes","staff_onsite":"yes","cleanliness_schedule":"daily","seperate_washroom":"yes","construction_material":"concrete","water_supply":"yes","ward_no":"040","ward_name":"KHAJRANA GANESH"},{"latitude":22.73279,"longitude":75.87497,"amenity":"public_washrooms","name":"Public Toilet","hindi_name":"पब्लिक टॉयलेट","address":"Behind Chandragupt Vivah Parisar,Y.N. Road,Malva Mill Square","opening_hours":"24/7","paid":"no","staff_onsite":"no","cleanliness_schedule":"weekly","seperate_washroom":"no","construction_material":"concrete","water_supply":"irregular","ward_no":"047","ward_name":"SARDAR VALLABHBHAI"},{"latitude":22.72978,"longitude":75.87857,"amenity":"public_washrooms","name":"Public Washroom","hindi_name":"पब्लिक वाशरूम","address":"Behind Shalby Hospital, R.S . Bhandari Marg, Janjir Wala Square","opening_hours":"24/7","paid":"no","staff_onsite":"no","cleanliness_schedule":"weekly","seperate_washroom":"no","construction_material":"concrete","water_supply":"irregular","ward_no":"047","ward_name":"SARDAR VALLABHBHAI"},{"latitude":22.73267,"longitude":75.8764,"amenity":"public_washrooms","name":"Public Washroom","hindi_name":"पब्लिक वाशरूम","address":"Behind Neelkamal Talkies","opening_hours":"24/7","paid":"no","staff_onsite":"no","cleanliness_schedule":"weekly","seperate_washroom":"yes","construction_material":"concrete","water_supply":"irregular","ward_no":"047","ward_name":"SARDAR VALLABHBHAI"},{"latitude":22.73332,"longitude":75.87284,"amenity":"public_washrooms","name":"Sulabh Complex","hindi_name":"सुलभ कॉम्प्लेक्स","address":"Malva Mill ,Anaj Mandi","opening_hours":"Mo-Su 04:00-22:00","paid":"yes","staff_onsite":"yes","cleanliness_schedule":"daily","seperate_washroom":"yes","construction_material":"concrete","water_supply":"yes","ward_no":"047","ward_name":"SARDAR VALLABHBHAI"},{"latitude":22.73091,"longitude":75.87317,"amenity":"public_washrooms","name":"Public Wahroom","hindi_name":"पब्लिक वाशरूम","address":"Zone-9,Bambai Ki Chall,Indore","opening_hours":"24/7","paid":"no","staff_onsite":"no","cleanliness_schedule":"daily","seperate_washroom":"yes","construction_material":"concrete","water_supply":"yes","ward_no":"047","ward_name":"SARDAR VALLABHBHAI"},{"latitude":22.73175,"longitude":75.87978,"amenity":"public_washrooms","name":"Public Washroom SBM","hindi_name":"पब्लिक वाशरूम एस बी एम","address":"488, Lala Ka Bagicha, Amar Tekri","opening_hours":"24/7","paid":"no","staff_onsite":"no","cleanliness_schedule":"daily","seperate_washroom":"yes","construction_material":"concrete","water_supply":"yes","ward_no":"046","ward_name":"SOMNATH"},{"latitude":22.72789,"longitude":75.88673,"amenity":"public_washrooms","name":"Sulabh Complex","hindi_name":"सुलभ कॉम्प्लेक्स","address":"Behind Industry House, Palasiya, Indore","opening_hours":"Mo-Su 04:00-22:00","paid":"yes","staff_onsite":"yes","cleanliness_schedule":"daily","seperate_washroom":"yes","construction_material":"concrete","water_supply":"yes","ward_no":"043","ward_name":"SHRINAGAR"},{"latitude":22.74003,"longitude":75.87154,"amenity":"public_washrooms","name":"Sulabh Complex","hindi_name":"सुलभ कॉम्प्लेक्स","address":"Firoj Gandhi Nagar, Subhash Nagar Road, Indore","opening_hours":"24/7","paid":"yes","staff_onsite":"yes","cleanliness_schedule":"daily","seperate_washroom":"yes","construction_material":"concrete","water_supply":"yes","ward_no":"056","ward_name":"SNEHALATA GANJ"},{"latitude":22.7398,"longitude":75.87241,"amenity":"public_washrooms","name":"Swach Bharat Abhiyaan","hindi_name":"स्वच्छ भारत अभियान","address":"New Jeevan Ki Fail, Indore.","opening_hours":"Mo-Su 4:00-22:00","paid":"yes","staff_onsite":"yes","cleanliness_schedule":"daily","seperate_washroom":"no","construction_material":"concrete","water_supply":"yes","ward_no":"056","ward_name":"SNEHALATA GANJ"},{"latitude":22.74069,"longitude":75.87441,"amenity":"public_washrooms","name":"Swach Bharat Abhiyaan","hindi_name":"स्वच्छ भारत अभियान","address":"Near Janta Quarter, Indore","opening_hours":"24/7","paid":"yes","staff_onsite":"yes","cleanliness_schedule":"daily","seperate_washroom":"yes","construction_material":"concrete","water_supply":"yes","ward_no":"025","ward_name":"NANDA NAGAR"},{"latitude":22.74722,"longitude":75.89443,"amenity":"public_washrooms","name":"Sulabh Complex","hindi_name":"सुलभ कॉम्प्लेक्स","address":"Near Hotel Country Inn, Agra Bombay Road, Scheme No. 54","opening_hours":"Mo-Su 04:00-22:00","paid":"yes","staff_onsite":"yes","cleanliness_schedule":"daily","seperate_washroom":"yes","construction_material":"concrete","water_supply":"yes","ward_no":"031","ward_name":"MAHARAJA CHATRASAL"},{"latitude":22.74627,"longitude":75.89815,"amenity":"public_washrooms","name":"Sulabh Complex","hindi_name":"सुलभ कॉम्प्लेक्स","address":"Malviya Nagar, Zone No. 8, Ward No.30","opening_hours":"24/7","paid":"yes","staff_onsite":"yes","cleanliness_schedule":"daily","seperate_washroom":"yes","construction_material":"concrete","water_supply":"yes","ward_no":"031","ward_name":"MAHARAJA CHATRASAL"},{"latitude":22.73747,"longitude":75.89398,"amenity":"public_washrooms","name":"SBM Toilet","hindi_name":"एस बी एम टॉयलेट","address":"Press Complex, Behind Laurel's School International","opening_hours":"24/7","paid":"no","staff_onsite":"no","cleanliness_schedule":"weekly","seperate_washroom":"yes","construction_material":"concrete","water_supply":"yes","ward_no":"030","ward_name":"SANT RAVIDAS"},{"latitude":22.74125,"longitude":75.89266,"amenity":"public_washrooms","name":"SBM Toilet","hindi_name":"एस बी एम टॉयलेट","address":"Agra Bombay Road, Near Shreemaya Residency","opening_hours":"24/7","paid":"no","staff_onsite":"no","cleanliness_schedule":"weekly","seperate_washroom":"yes","construction_material":"concrete","water_supply":"yes","ward_no":"030","ward_name":"SANT RAVIDAS"},{"latitude":22.74091,"longitude":75.90268,"amenity":"public_washrooms","name":"Sulabh Complex","hindi_name":"सुलभ कॉम्प्लेक्स","address":"Ring Road Square, Dheeraj Nagar, Scheme No.94, Sector ED","opening_hours":"24/7","paid":"yes","staff_onsite":"yes","cleanliness_schedule":"daily","seperate_washroom":"yes","construction_material":"concrete","water_supply":"yes","ward_no":"037","ward_name":"SAI KRUPA"},{"latitude":22.74188,"longitude":75.90222,"amenity":"public_washrooms","name":"SBM Toilet","hindi_name":"एस बी एम टॉयलेट","address":"MR 9 Square Service Road, Dheeraj Nagar, Ram Krishna Bagh,","opening_hours":"24/7","paid":"no","staff_onsite":"no","cleanliness_schedule":"weekly","seperate_washroom":"yes","construction_material":"concrete","water_supply":"yes","ward_no":"030","ward_name":"SANT RAVIDAS"},{"latitude":22.74878,"longitude":75.90312,"amenity":"public_washrooms","name":"SBM Complex","hindi_name":"एस बी एम टॉयलेट","address":"Indian Oil Petrol Pump, Near Radisson Blue Hotel, Ananda Colony","opening_hours":"Mo-Su 07:00-00:00","paid":"no","staff_onsite":"no","cleanliness_schedule":"weekly","seperate_washroom":"yes","construction_material":"concrete","water_supply":"yes","ward_no":"031","ward_name":"MAHARAJA CHATRASAL"},{"latitude":22.7362,"longitude":75.88579,"amenity":"public_washrooms","name":"SBM","hindi_name":"एस बी एम","address":"HIG Colony, Indore","opening_hours":"24/7","paid":"no","staff_onsite":"no","cleanliness_schedule":"weekly","seperate_washroom":"no","construction_material":"concrete","water_supply":"yes","ward_no":"045","ward_name":"DR. BHIMRAO AMBEDAR"},{"latitude":22.74154,"longitude":75.88248,"amenity":"public_washrooms","name":"Sulabh Shochalay","hindi_name":"सुलभ शौचालय","address":"Patnipura Main Road, Church Gate, Indore","opening_hours":"Mo-Su 4:00-22:00","paid":"yes","staff_onsite":"yes","cleanliness_schedule":"daily","seperate_washroom":"yes","construction_material":"concrete","water_supply":"yes","ward_no":"044","ward_name":"H.I.G."},{"latitude":22.7456,"longitude":75.88619,"amenity":"public_washrooms","name":"Sulabh Complex","hindi_name":"सुलभ कॉम्प्लेक्स","address":"Astha cinema Road, Nanda Nagar, Indore","opening_hours":"Mo-Su 4:00-22:00","paid":"yes","staff_onsite":"yes","cleanliness_schedule":"daily","seperate_washroom":"yes","construction_material":"concrete","water_supply":"yes","ward_no":"028","ward_name":"MA TULJA BHAVANI"},{"latitude":22.744,"longitude":75.89594,"amenity":"public_washrooms","name":"SBM Toilet","hindi_name":"एस बी एम टॉयलेट","address":"Behind C21 Mall, Vijay Nagar","opening_hours":"24/7","paid":"no","staff_onsite":"no","cleanliness_schedule":"weekly","seperate_washroom":"no","construction_material":"concrete","water_supply":"yes","ward_no":"031","ward_name":"MAHARAJA CHATRASAL"},{"latitude":22.74763,"longitude":75.89255,"amenity":"public_washrooms","name":"Sulabh Complex","hindi_name":"सुलभ कॉम्प्लेक्स","address":"Zone No.7, Ward No.29, Ware House Rodd, Badi Bhamori,","opening_hours":"Mo-Su 05:00-23:00","paid":"yes","staff_onsite":"yes","cleanliness_schedule":"daily","seperate_washroom":"yes","construction_material":"concrete","water_supply":"yes","ward_no":"029","ward_name":"DR. SHYAM PRASAD MUKHARJI"},{"latitude":22.74702,"longitude":75.90296,"amenity":"public_washrooms","name":"Sulabh Complex","hindi_name":"सुलभ कॉम्प्लेक्स","address":"Near Khajrana Square, Service Road, Bhusa Mandi, Ananda Colony,","opening_hours":"Mo-Su 05:00-23:00","paid":"no","staff_onsite":"yes","cleanliness_schedule":"daily","seperate_washroom":"yes","construction_material":"concrete","water_supply":"yes","ward_no":"031","ward_name":"MAHARAJA CHATRASAL"},{"latitude":22.72533,"longitude":75.89261,"amenity":"public_washrooms","name":"Sulabh Complex","hindi_name":"सुलभ कॉम्प्लेक्स","address":"Near PWD Office, Palasiya","opening_hours":"Mo-Su 04:00-22:00","paid":"yes","staff_onsite":"yes","cleanliness_schedule":"daily","seperate_washroom":"yes","construction_material":"concrete","water_supply":"yes","ward_no":"043","ward_name":"SHRINAGAR"},{"latitude":22.71905,"longitude":75.89483,"amenity":"public_washrooms","name":"SBM Toilet","hindi_name":"एस बी एम टॉयलेट","address":"Tilak Nagar, Vinoba Nagar","opening_hours":"24/7","paid":"no","staff_onsite":"no","cleanliness_schedule":"weekly","seperate_washroom":"yes","construction_material":"concrete","water_supply":"yes","ward_no":"049","ward_name":"TILAKNAGAR"},{"latitude":22.70749,"longitude":75.90042,"amenity":"public_washrooms","name":"SBM Toilet","hindi_name":"एस बी एम टॉयलेट","address":"Godhra Highway, Pipliyahana","opening_hours":"24/7","paid":"no","staff_onsite":"no","cleanliness_schedule":"weekly","seperate_washroom":"yes","construction_material":"concrete","water_supply":"yes","ward_no":"050","ward_name":"BRAJESHVARI"},{"latitude":22.7141,"longitude":75.87097,"amenity":"public_washrooms","name":"Sulab Shouchalaya","hindi_name":"सुलब शौचालय","address":"Zone 11, Choti Gwal Toli","opening_hours":"24/7","paid":"yes","staff_onsite":"yes","cleanliness_schedule":"daily","seperate_washroom":"yes","construction_material":"concrete","water_supply":"yes","ward_no":"055","ward_name":"SAUTH TUKOGANJ"},{"latitude":22.71664,"longitude":75.87001,"amenity":"public_washrooms","name":"SBM","hindi_name":"एस बी एम","address":"Choti line, Choti Gwal Toli","opening_hours":"24/7","paid":"no","staff_onsite":"no","cleanliness_schedule":"weekly","seperate_washroom":"yes","construction_material":"concrete","water_supply":"no","ward_no":"055","ward_name":"SAUTH TUKOGANJ"},{"latitude":22.71545,"longitude":75.87559,"amenity":"public_washrooms","name":"Sulab Shouchalaya","hindi_name":"सुलब शौचालय","address":"South Toukogang","opening_hours":"24/7","paid":"no","staff_onsite":"no","cleanliness_schedule":"weekly","seperate_washroom":"yes","construction_material":"concrete","water_supply":"irregular","ward_no":"055","ward_name":"SAUTH TUKOGANJ"},{"latitude":22.71406,"longitude":75.88371,"amenity":"public_washrooms","name":"Sulab Shouchalaya","hindi_name":"सुलब शौचालय","address":"Infront Of MGM college, AB Road","opening_hours":"24/7","paid":"yes","staff_onsite":"yes","cleanliness_schedule":"daily","seperate_washroom":"yes","construction_material":"concrete","water_supply":"yes","ward_no":"048","ward_name":"GITA BHAVAN"},{"latitude":22.74273,"longitude":75.87609,"amenity":"public_washrooms","name":"SBM Toilet","hindi_name":"एस बी एम टॉयलेट","address":"Near Jaora Compound, Indore","opening_hours":"24/7","paid":"no","staff_onsite":"no","cleanliness_schedule":"daily","seperate_washroom":"yes","water_supply":"yes","ward_no":"025","ward_name":"NANDA NAGAR"},{"latitude":22.74273,"longitude":75.87609,"amenity":"public_washrooms","name":"Sulabh Complex","hindi_name":"सुलभ कॉम्प्लेक्स","address":"MY Hospital Rd, Opposite Indrasan Building, Jaora Compound, Ushaganj, Murai Mohalla, Indore","opening_hours":"Mo-Su 04:00-22:00","paid":"no","staff_onsite":"no","cleanliness_schedule":"daily","seperate_washroom":"yes","construction_material":"concrete","water_supply":"yes","ward_no":"025","ward_name":"NANDA NAGAR"},{"latitude":22.74273,"longitude":75.87609,"amenity":"public_washrooms","name":"Sulabh Complex","hindi_name":"सुलभ कॉम्प्लेक्स","address":"Near 2 number school ground, Murai Mohalla, Indore,","opening_hours":"Mo-Fr 04:00-22:00","paid":"yes","staff_onsite":"yes","cleanliness_schedule":"daily","seperate_washroom":"yes","construction_material":"concrete","water_supply":"yes","ward_no":"025","ward_name":"NANDA NAGAR"},{"latitude":22.74273,"longitude":75.87609,"amenity":"public_washrooms","name":"Sulabh ComplEX","hindi_name":"सुलभ कॉम्प्लेक्स","address":"Anaj Mandi, Chhavni Mohalla,Indore","opening_hours":"Mo-Su 04:00-22:00","paid":"yes","staff_onsite":"yes","cleanliness_schedule":"daily","seperate_washroom":"yes","construction_material":"concrete","water_supply":"yes","ward_no":"025","ward_name":"NANDA NAGAR"},{"latitude":22.74273,"longitude":75.87609,"amenity":"public_washrooms","name":"SBM Toilet","hindi_name":"एस बी एम टॉयलेट","address":"Badi Gwaltoli Rd, Rajgarh Kothi, Manorama Ganj, Indore","opening_hours":"24/7","paid":"no","staff_onsite":"no","cleanliness_schedule":"weekly","seperate_washroom":"yes","construction_material":"concrete","water_supply":"yes","ward_no":"025","ward_name":"NANDA NAGAR"},{"latitude":22.74273,"longitude":75.87609,"amenity":"public_washrooms","name":"SBM Toilet","hindi_name":"एस बी एम टॉयलेट","address":"Godhra Hwy, Near Agriculture College, White Church Colony, Residency Area, Indore","opening_hours":"24/7","paid":"no","staff_onsite":"no","cleanliness_schedule":"weekly","seperate_washroom":"yes","construction_material":"concrete","water_supply":"yes","ward_no":"025","ward_name":"NANDA NAGAR"},{"latitude":22.74273,"longitude":75.87609,"amenity":"public_washrooms","name":"SBM Toilet","hindi_name":"एस बी एम टॉयलेट","address":"Agra Bombay Rd, Bada Nehru Stadium, Opposite SBI Main Branch, Jaora Compound, Indore","opening_hours":"24/7","paid":"no","staff_onsite":"no","cleanliness_schedule":"weekly","seperate_washroom":"yes","construction_material":"concrete","water_supply":"yes","ward_no":"025","ward_name":"NANDA NAGAR"},{"latitude":22.72408,"longitude":75.88189,"amenity":"public_washrooms","name":"Sulabh Complex","hindi_name":"सुलभ कॉम्प्लेक्स","address":"R S Bhandari Marg, Diamond Trade Centre, Diamond Colony,Mahatma Gandhi Road","opening_hours":"24/7","paid":"yes","staff_onsite":"yes","cleanliness_schedule":"daily","seperate_washroom":"yes","construction_material":"concrete","water_supply":"yes","ward_no":"047","ward_name":"SARDAR VALLABHBHAI"},{"latitude":22.72024,"longitude":75.87199,"amenity":"public_washrooms","name":"Sulabh Complex","hindi_name":"सुलभ कॉम्प्लेक्स","address":"High Court Square, Mahatma Gandhi Road, Indore","opening_hours":"24/7","paid":"yes","staff_onsite":"yes","cleanliness_schedule":"daily","seperate_washroom":"yes","construction_material":"concrete","water_supply":"yes","ward_no":"055","ward_name":"SAUTH TUKOGANJ"},{"latitude":22.72254,"longitude":75.87218,"amenity":"public_washrooms","name":"Swachh Bharat Mission","hindi_name":"स्वच्छ भारत मिशन","address":"Dhenu Market Road, Saste Nagar, Nehru Park 2, Shivaji Nagar , Indore","opening_hours":"24/7","paid":"no","staff_onsite":"no","cleanliness_schedule":"daily","seperate_washroom":"yes","construction_material":"concrete","water_supply":"yes","ward_no":"047","ward_name":"SARDAR VALLABHBHAI"},{"latitude":22.72464,"longitude":75.87223,"amenity":"public_washrooms","name":"Swachh Bharat Mission","hindi_name":"स्वच्छ भारत मिशन","address":"Saste Nagar, Nehru Park 2, SGSITS Road, Indore","opening_hours":"24/7","paid":"no","staff_onsite":"no","cleanliness_schedule":"daily","seperate_washroom":"yes","construction_material":"concrete","water_supply":"yes","ward_no":"047","ward_name":"SARDAR VALLABHBHAI"},{"latitude":22.72629,"longitude":75.87795,"amenity":"public_washrooms","name":"Swachh Bharat Mission","hindi_name":"स्वच्छ भारत मिशन","address":"New Parasia Extension, Race Course Road, Indore","opening_hours":"24/7","paid":"no","staff_onsite":"no","cleanliness_schedule":"daily","seperate_washroom":"no","construction_material":"concrete","water_supply":"yes","ward_no":"047","ward_name":"SARDAR VALLABHBHAI"},{"latitude":22.72496,"longitude":75.87517,"amenity":"public_washrooms","name":"Swachh Bharat Mission","hindi_name":"स्वच्छ भारत मिशन","address":"Near Lantern Square, Race Course Road, Indore","opening_hours":"24/7","paid":"no","staff_onsite":"no","cleanliness_schedule":"daily","seperate_washroom":"yes","construction_material":"concrete","water_supply":"yes","ward_no":"047","ward_name":"SARDAR VALLABHBHAI"},{"latitude":22.72456,"longitude":75.88179,"amenity":"public_washrooms","name":"Swachh Bharat Mission","hindi_name":"स्वच्छ भारत मिशन","address":"Diamond Trade Centre,R S Bhandari Mary,Mahatma Gandhi Road","opening_hours":"24/7","paid":"no","staff_onsite":"no","cleanliness_schedule":"daily","seperate_washroom":"no","construction_material":"concrete","water_supply":"yes","ward_no":"047","ward_name":"SARDAR VALLABHBHAI"},{"latitude":22.72216,"longitude":75.87385,"amenity":"public_washrooms","name":"Swachh Bharat Mission","hindi_name":"स्वच्छ भारत मिशन","address":"Near Vishal Mega Mart, Yashwant Niwas Road, Indore","opening_hours":"24/7","paid":"no","staff_onsite":"no","cleanliness_schedule":"daily","seperate_washroom":"yes","construction_material":"concrete","water_supply":"yes","ward_no":"047","ward_name":"SARDAR VALLABHBHAI"},{"latitude":22.72185,"longitude":75.87035,"amenity":"public_washrooms","name":"Sulabh Complex","hindi_name":"सुलभ कॉम्प्लेक्स","address":"Nehru Park, Saste Nagar, Indore","opening_hours":"Mo-Su 04:00-22:00","paid":"yes","staff_onsite":"yes","cleanliness_schedule":"daily","seperate_washroom":"yes","construction_material":"concrete","water_supply":"yes","ward_no":"047","ward_name":"SARDAR VALLABHBHAI"},{"latitude":22.72365,"longitude":75.88493,"amenity":"public_washrooms","name":"Swachh Bharat Mission","hindi_name":"स्वच्छ भारत मिशन","address":"Infornt of Hotel Kanchan Tilak , Near 56 Dukan , Parasia Square , Indore","opening_hours":"24/7","paid":"no","staff_onsite":"no","cleanliness_schedule":"daily","seperate_washroom":"no","construction_material":"fibre","water_supply":"yes","ward_no":"047","ward_name":"SARDAR VALLABHBHAI"},{"latitude":22.71886,"longitude":75.8933,"amenity":"public_washrooms","name":"Sulabh Complex","hindi_name":"सुलभ कॉम्प्लेक्स","address":"Zone No.11, Ward No.49, Tilak Nagar","opening_hours":"24/7","paid":"yes","staff_onsite":"yes","cleanliness_schedule":"daily","seperate_washroom":"yes","construction_material":"concrete","water_supply":"yes","ward_no":"049","ward_name":"TILAKNAGAR"},{"latitude":22.71926,"longitude":75.89405,"amenity":"public_washrooms","name":"Sulabh Complex","hindi_name":"सुलभ कॉम्प्लेक्स","address":"Zone No.10, Ward No.42, Tilak Nagar","opening_hours":"24/7","paid":"no","staff_onsite":"no","cleanliness_schedule":"daily","seperate_washroom":"yes","construction_material":"concrete","water_supply":"yes","ward_no":"042","ward_name":"SWAMI VIVEKANAND"},{"latitude":22.7258,"longitude":75.88617,"amenity":"public_washrooms","name":"Sulabh Complex","hindi_name":"सुलभ कॉम्प्लेक्स","address":"Harijan Colony, New Parasia, Indore","opening_hours":"Mo-Su 06:00-21:00","paid":"yes","staff_onsite":"yes","cleanliness_schedule":"daily","seperate_washroom":"yes","construction_material":"concrete","water_supply":"yes","ward_no":"047","ward_name":"SARDAR VALLABHBHAI"},{"latitude":22.71883,"longitude":75.89989,"amenity":"public_washrooms","name":"SBM Toilet","hindi_name":"एस बी एम टॉयलेट","address":"Sector A, Tilak Nagar Main Road,Near SKPS","opening_hours":"24/7","paid":"no","staff_onsite":"no","cleanliness_schedule":"weekly","seperate_washroom":"no","construction_material":"fibre","water_supply":"yes","ward_no":"049","ward_name":"TILAKNAGAR"},{"latitude":22.71861,"longitude":75.89764,"amenity":"public_washrooms","name":"SBM Toilet","hindi_name":"एस बी एम टॉयलेट","address":"Sector A, Tilak Nagar Main Road, Savindnagar","opening_hours":"24/7","paid":"no","staff_onsite":"no","cleanliness_schedule":"weekly","seperate_washroom":"yes","construction_material":"concrete","water_supply":"yes","ward_no":"049","ward_name":"TILAKNAGAR"},{"latitude":22.72337,"longitude":75.88843,"amenity":"public_washrooms","name":"Sulabh Complex","hindi_name":"सुलभ कॉम्प्लेक्स","address":"Infront of Sun View Residency, Old Palasia, Indore","opening_hours":"Mo-Su 04:00-22:00","paid":"yes","staff_onsite":"yes","cleanliness_schedule":"daily","seperate_washroom":"yes","construction_material":"concrete","water_supply":"yes","ward_no":"048","ward_name":"GITA BHAVAN"},{"latitude":22.72124,"longitude":75.89378,"amenity":"public_washrooms","name":"Swach Bharat Abhiyaan","hindi_name":"स्वच्छ भारत अभियान","address":"Vinobha Nagar, Indore","opening_hours":"24/7","paid":"no","staff_onsite":"no","cleanliness_schedule":"daily","seperate_washroom":"no","construction_material":"concrete","water_supply":"irregular","ward_no":"042","ward_name":"SWAMI VIVEKANAND"},{"latitude":22.70923,"longitude":75.87546,"amenity":"public_washrooms","name":"Sulabh Complex","hindi_name":"सुलभ कॉम्प्लेक्स","address":"RNT Marg, Murai Mohalla, Chhawni, Indore","opening_hours":"Mo-Su 4:00-22:00","paid":"yes","staff_onsite":"yes","cleanliness_schedule":"daily","seperate_washroom":"yes","construction_material":"concrete","water_supply":"yes","ward_no":"055","ward_name":"SAUTH TUKOGANJ"},{"latitude":22.71109,"longitude":75.87307,"amenity":"public_washrooms","name":"SBM","hindi_name":"एस बी एम","address":"Near Indus World School, Sanyogita Ganj, Chawani, Indore","opening_hours":"24/7","paid":"no","staff_onsite":"no","cleanliness_schedule":"daily","seperate_washroom":"no","construction_material":"concrete","water_supply":"yes","ward_no":"055","ward_name":"SAUTH TUKOGANJ"},{"latitude":22.70841,"longitude":75.87672,"amenity":"public_washrooms","name":"Sulabh Complex","hindi_name":"सुलभ कॉम्प्लेक्स","address":"Ushaganj, Chhawni, Indore","opening_hours":"Mo-Su 4:00-22:00","paid":"yes","staff_onsite":"yes","cleanliness_schedule":"daily","seperate_washroom":"yes","construction_material":"concrete","water_supply":"yes","ward_no":"055","ward_name":"SAUTH TUKOGANJ"},{"latitude":22.70751,"longitude":75.87825,"amenity":"public_washrooms","name":"SBM","hindi_name":"एस बी एम","address":"GPO Square, Opposite Sanyogitaganj Police Station,Indore","opening_hours":"24/7","paid":"no","staff_onsite":"no","cleanliness_schedule":"daily","seperate_washroom":"no","construction_material":"concrete","water_supply":"yes","ward_no":"063","ward_name":"NAVLAKHA"},{"latitude":22.70772,"longitude":75.87482,"amenity":"public_washrooms","name":"SBM","hindi_name":"एस बी एम","address":"Chhawni Road, Parsi Mohalla, Indore","opening_hours":"24/7","paid":"no","staff_onsite":"no","cleanliness_schedule":"daily","seperate_washroom":"yes","construction_material":"concrete","water_supply":"yes","ward_no":"062","ward_name":"RAVJI BAZAR"},{"latitude":22.70827,"longitude":75.88211,"amenity":"public_washrooms","name":"SBM","hindi_name":"एस बी एम","address":"Residency Area, Near CGI Ground, Indore","opening_hours":"24/7","paid":"no","staff_onsite":"no","cleanliness_schedule":"daily","seperate_washroom":"no","construction_material":"concrete","water_supply":"yes","ward_no":"054","ward_name":"RESIDENCY"},{"latitude":22.7101,"longitude":75.88007,"amenity":"public_washrooms","name":"SBM","hindi_name":"एस बी एम","address":"Opposite Laxmi Motors, Nehru Park AB Road, Indore","opening_hours":"24/7","paid":"no","staff_onsite":"no","cleanliness_schedule":"daily","seperate_washroom":"yes","construction_material":"concrete","water_supply":"yes","ward_no":"055","ward_name":"SAUTH TUKOGANJ"},{"latitude":22.71496,"longitude":75.87105,"amenity":"public_washrooms","name":"Sulabh complex","hindi_name":"सुलभ कॉम्प्लेक्स","address":"Sardar Patel Circle, Indore","opening_hours":"4:00-22:00","paid":"yes","staff_onsite":"yes","cleanliness_schedule":"daily","seperate_washroom":"yes","construction_material":"concrete","water_supply":"yes","ward_no":"055","ward_name":"SAUTH TUKOGANJ"},{"latitude":22.71756,"longitude":75.87926,"amenity":"public_washrooms","name":"Sulabh Complex","hindi_name":"सुलभ कॉम्प्लेक्स","address":"C R P Line","opening_hours":"Mo-Su 4:00-22:00","paid":"yes","staff_onsite":"yes","cleanliness_schedule":"daily","seperate_washroom":"yes","construction_material":"concrete","water_supply":"yes","ward_no":"055","ward_name":"SAUTH TUKOGANJ"},{"latitude":22.71422,"longitude":75.88808,"amenity":"public_washrooms","name":"SBM","hindi_name":"एस बी एम","address":"Near Barapathar mandir,indore","opening_hours":"24/7","paid":"no","staff_onsite":"no","cleanliness_schedule":"daily","seperate_washroom":"yes","construction_material":"concrete","water_supply":"yes","ward_no":"048","ward_name":"GITA BHAVAN"},{"latitude":22.70237,"longitude":75.86339,"amenity":"public_washrooms","name":"SBM Toilet","hindi_name":"एस बी एम टॉयलेट","address":"BK Sindhi Colony","opening_hours":"24/7","paid":"no","staff_onsite":"no","cleanliness_schedule":"weekly","seperate_washroom":"yes","construction_material":"concrete","water_supply":"yes","ward_no":"065","ward_name":"SANT KANWARRAM"},{"latitude":22.70172,"longitude":75.86371,"amenity":"public_washrooms","name":"Sulabh Complex","hindi_name":"सुलभ कॉम्प्लेक्स","address":"Tower Chauraha, Icchapur Road, Navlakha, Sindhi Colony","opening_hours":"Mo-Su 05:00-24:00","paid":"yes","staff_onsite":"yes","cleanliness_schedule":"daily","seperate_washroom":"yes","construction_material":"concrete","water_supply":"yes","ward_no":"065","ward_name":"SANT KANWARRAM"},{"latitude":22.71667,"longitude":75.83648,"amenity":"public_washrooms","name":"Sulab Shouchalaya","hindi_name":"सुलब शौचालय","address":"Indra Nagar","opening_hours":"24/7","paid":"yes","staff_onsite":"yes","cleanliness_schedule":"daily","seperate_washroom":"yes","construction_material":"concrete","water_supply":"yes","ward_no":"006","ward_name":"MALHARGANJ"},{"latitude":22.71299,"longitude":75.83858,"amenity":"public_washrooms","name":"Sulab Shouchalaya","hindi_name":"सुलब शौचालय","address":"Indian Petrol Pump, Dhar Road","opening_hours":"24/7","paid":"no","staff_onsite":"no","cleanliness_schedule":"weekly","seperate_washroom":"yes","construction_material":"concrete","water_supply":"irregular","ward_no":"070","ward_name":"LOKNAYAK NAGAR"},{"latitude":22.71149,"longitude":75.84037,"amenity":"public_washrooms","name":"SBM","hindi_name":"एस बी एम","address":"Raj Mohalla, Dhar Road","opening_hours":"24/7","paid":"no","staff_onsite":"no","cleanliness_schedule":"weekly","seperate_washroom":"yes","construction_material":"concrete","water_supply":"irregular","ward_no":"071","ward_name":"DRAVID NAGAR"},{"latitude":22.70671,"longitude":75.82937,"amenity":"public_washrooms","name":"Sulab Shouchalaya","hindi_name":"सुलब शौचालय","address":"Mechanic Nagar","opening_hours":"24/7","paid":"no","staff_onsite":"yes","cleanliness_schedule":"daily","seperate_washroom":"yes","construction_material":"concrete","water_supply":"yes","ward_no":"083","ward_name":"GUSHMATA NAGAR"},{"latitude":22.71688,"longitude":75.84267,"amenity":"public_washrooms","name":"Sulab shouchalaya","hindi_name":"सुलब शौचालय","address":"North Raj Mohalla","opening_hours":"24/7","paid":"no","staff_onsite":"no","cleanliness_schedule":"weekly","seperate_washroom":"yes","construction_material":"concrete","water_supply":"irregular","ward_no":"069","ward_name":"JAWAHAR MARG"},{"latitude":22.70758,"longitude":75.84673,"amenity":"public_washrooms","name":"Sulab Shouchalaya","hindi_name":"सुलब शौचालय","address":"Arjun Pura, Mahu Naka","opening_hours":"24/7","paid":"no","staff_onsite":"yes","cleanliness_schedule":"daily","seperate_washroom":"yes","construction_material":"concrete","water_supply":"yes","ward_no":"067","ward_name":"MAHARAJA HOLKAR"},{"latitude":22.70546,"longitude":75.84458,"amenity":"public_washrooms","name":"Sulab shouchalaya","hindi_name":"सुलब शौचालय","address":"Mahu Naka","opening_hours":"24/7","paid":"yes","staff_onsite":"yes","cleanliness_schedule":"daily","seperate_washroom":"yes","construction_material":"concrete","water_supply":"yes","ward_no":"067","ward_name":"MAHARAJA HOLKAR"},{"latitude":22.70606,"longitude":75.84227,"amenity":"public_washrooms","name":"SBM","hindi_name":"एस बी एम","address":"Mahu Naka","opening_hours":"24/7","paid":"no","staff_onsite":"no","cleanliness_schedule":"weekly","seperate_washroom":"yes","construction_material":"concrete","water_supply":"no","ward_no":"071","ward_name":"DRAVID NAGAR"},{"latitude":22.7048,"longitude":75.84341,"amenity":"public_washrooms","name":"SBM","hindi_name":"एस बी एम","address":"Mahu Naka Circle","opening_hours":"24/7","paid":"no","staff_onsite":"no","cleanliness_schedule":"weekly","seperate_washroom":"yes","construction_material":"concrete","water_supply":"irregular","ward_no":"071","ward_name":"DRAVID NAGAR"},{"latitude":22.70425,"longitude":75.84259,"amenity":"public_washrooms","name":"SBM","hindi_name":"एस बी एम","address":"Mahunakka Circle, Indore","opening_hours":"24/7","paid":"no","staff_onsite":"no","cleanliness_schedule":"daily","seperate_washroom":"no","construction_material":"concrete","water_supply":"yes","ward_no":"071","ward_name":"DRAVID NAGAR"},{"latitude":22.70465,"longitude":75.84235,"amenity":"public_washrooms","name":"SBM","hindi_name":"एस बी एम","address":"Maharana Pratap Chouk","opening_hours":"24/7","paid":"no","staff_onsite":"no","cleanliness_schedule":"weekly","seperate_washroom":"yes","construction_material":"concrete","water_supply":"irregular","ward_no":"071","ward_name":"DRAVID NAGAR"},{"latitude":22.70475,"longitude":75.84535,"amenity":"public_washrooms","name":"SBM","hindi_name":"एस बी एम","address":"Ram nagar","opening_hours":"24/7","paid":"no","staff_onsite":"no","cleanliness_schedule":"daily","seperate_washroom":"no","construction_material":"concrete","water_supply":"irregular","ward_no":"072","ward_name":"LOKMANYA NAGAR"},{"latitude":22.71521,"longitude":75.84098,"amenity":"public_washrooms","name":"Sulabh Complex","hindi_name":"सुलभ कॉम्प्लेक्स","address":"177, Rajmohola Square","opening_hours":"Mo-Su 4:00-22:00","paid":"yes","staff_onsite":"yes","cleanliness_schedule":"daily","seperate_washroom":"yes","construction_material":"concrete","water_supply":"yes","ward_no":"070","ward_name":"LOKNAYAK NAGAR"},{"latitude":22.7152,"longitude":75.84039,"amenity":"public_washrooms","name":"SBM","hindi_name":"एस बी एम","address":"Rajmoholla Sq.","opening_hours":"24/7","paid":"no","staff_onsite":"no","cleanliness_schedule":"daily","seperate_washroom":"no","construction_material":"concrete","water_supply":"yes","ward_no":"070","ward_name":"LOKNAYAK NAGAR"},{"latitude":22.71684,"longitude":75.83606,"amenity":"public_washrooms","name":"SBM","hindi_name":"एस बी एम","address":"Indra Nagar","opening_hours":"24/7","paid":"no","staff_onsite":"no","cleanliness_schedule":"daily","seperate_washroom":"no","construction_material":"concrete","water_supply":"irregular","ward_no":"006","ward_name":"MALHARGANJ"},{"latitude":22.71259,"longitude":75.83957,"amenity":"public_washrooms","name":"Sulabh Complex","hindi_name":"सुलभ कॉम्प्लेक्स","address":"Labre bheru, Near Gangwal bus stand","opening_hours":"Mo-Su 4:00-22:00","paid":"yes","staff_onsite":"yes","cleanliness_schedule":"daily","seperate_washroom":"yes","construction_material":"concrete","water_supply":"yes","ward_no":"070","ward_name":"LOKNAYAK NAGAR"},{"latitude":22.70925,"longitude":75.83273,"amenity":"public_washrooms","name":"Sulabh Complex","hindi_name":"सुलभ कॉम्प्लेक्स","address":"Gadriya Moholla, Near Rajmoholla","opening_hours":"Mo-Su 04:00-22:00","paid":"no","staff_onsite":"yes","cleanliness_schedule":"daily","seperate_washroom":"yes","construction_material":"concrete","water_supply":"yes","ward_no":"070","ward_name":"LOKNAYAK NAGAR"},{"latitude":22.71294,"longitude":75.84126,"amenity":"public_washrooms","name":"SBM","hindi_name":"एस बी एम","address":"Gangwal Bus Stand, Indore","opening_hours":"24/7","paid":"no","staff_onsite":"no","cleanliness_schedule":"daily","seperate_washroom":"yes","construction_material":"concrete","water_supply":"yes","ward_no":"071","ward_name":"DRAVID NAGAR"},{"latitude":22.71134,"longitude":75.84534,"amenity":"public_washrooms","name":"Sulabh Complex","hindi_name":"सुलभ कॉम्प्लेक्स","address":"Zone 2, Kanjar Moholla","opening_hours":"Mo-Su 4:00-22:00","paid":"no","staff_onsite":"yes","cleanliness_schedule":"daily","seperate_washroom":"yes","construction_material":"concrete","water_supply":"yes","ward_no":"069","ward_name":"JAWAHAR MARG"},{"latitude":22.71504,"longitude":75.84533,"amenity":"public_washrooms","name":"Sulabh Complex","hindi_name":"सुलभ कॉम्प्लेक्स","address":"Janganpura, Jawahar Marg","opening_hours":"Mo-Su 4:00-22:00","paid":"yes","staff_onsite":"yes","cleanliness_schedule":"daily","seperate_washroom":"yes","construction_material":"concrete","water_supply":"yes","ward_no":"069","ward_name":"JAWAHAR MARG"},{"latitude":22.71066,"longitude":75.84723,"amenity":"public_washrooms","name":"Sulabh Complex","hindi_name":"सुलभ कॉम्प्लेक्स","address":"Ravi Das Pura","opening_hours":"Mo-Su 4:00-22:00","paid":"no","staff_onsite":"yes","cleanliness_schedule":"daily","seperate_washroom":"yes","construction_material":"concrete","water_supply":"yes","ward_no":"068","ward_name":"BAMBAI BAZAR"},{"latitude":22.69973,"longitude":75.86736,"amenity":"public_washrooms","name":"SBM Toilet","hindi_name":"एस बी एम टॉयलेट","address":"Sapna Sangeeta Road, Navlakha, Snehnagar","opening_hours":"24/7","paid":"no","staff_onsite":"no","cleanliness_schedule":"weekly","seperate_washroom":"yes","construction_material":"concrete","water_supply":"yes","ward_no":"063","ward_name":"NAVLAKHA"},{"latitude":22.69304,"longitude":75.86685,"amenity":"public_washrooms","name":"SBM Toilet","hindi_name":"एस बी एम टॉयलेट","address":"Bhanwarkuan Square, Main Road, Behind Veda Complex","opening_hours":"24/7","paid":"no","staff_onsite":"no","cleanliness_schedule":"weekly","seperate_washroom":"no","construction_material":"concrete","water_supply":"yes","ward_no":"074","ward_name":"VISHNAPURI"},{"latitude":22.69226,"longitude":75.86797,"amenity":"public_washrooms","name":"SBM Toilet","hindi_name":"एस बी एम टॉयलेट","address":"Bhawarkuan Square, Khandwa Road, Indrapuri Colony","opening_hours":"24/7","paid":"no","staff_onsite":"no","cleanliness_schedule":"weekly","seperate_washroom":"yes","construction_material":"concrete","water_supply":"yes","ward_no":"064","ward_name":"CHITAVAD"},{"latitude":22.69219,"longitude":75.868,"amenity":"public_washrooms","name":"Sulabh Complex","hindi_name":"सुलभ कॉम्प्लेक्स","address":"Zone No.13, Ward No.74 Bhawarkuan Square, Davv Takshila Parisar","opening_hours":"Mo-Su 04:00-22:00","paid":"yes","staff_onsite":"yes","cleanliness_schedule":"daily","seperate_washroom":"yes","construction_material":"concrete","water_supply":"yes","ward_no":"064","ward_name":"CHITAVAD"},{"latitude":22.69335,"longitude":75.86821,"amenity":"public_washrooms","name":"SBM Toilet","hindi_name":"एस बी एम टॉयलेट","address":"Bhanwarkuan Square, Agra Bombay Road","opening_hours":"24/7","paid":"no","staff_onsite":"no","cleanliness_schedule":"weekly","seperate_washroom":"yes","construction_material":"fibre","water_supply":"yes","ward_no":"074","ward_name":"VISHNAPURI"},{"latitude":22.69424,"longitude":75.85528,"amenity":"public_washrooms","name":"SBM Toilet","hindi_name":"एस बी एम टॉयलेट","address":"Vishnupuri Colony","opening_hours":"24/7","paid":"no","staff_onsite":"no","cleanliness_schedule":"weekly","seperate_washroom":"yes","construction_material":"concrete","water_supply":"yes","ward_no":"073","ward_name":"LAXMANSINGH CHAUHAN"},{"latitude":22.69199,"longitude":75.8552,"amenity":"public_washrooms","name":"SBM Toilet","hindi_name":"एस बी एम टॉयलेट","address":"Manik Bagh Road, Phadnis Colony","opening_hours":"24/7","paid":"no","staff_onsite":"no","cleanliness_schedule":"weekly","seperate_washroom":"yes","construction_material":"concrete","water_supply":"yes","ward_no":"073","ward_name":"LAXMANSINGH CHAUHAN"},{"latitude":22.69826,"longitude":75.85464,"amenity":"public_washrooms","name":"Sulabh Complex","hindi_name":"सुलभ कॉम्प्लेक्स","address":"Manik Bagh Road, Veer Savarkar Market","opening_hours":"Mo-Su 04:00-22:00","paid":"yes","staff_onsite":"yes","cleanliness_schedule":"daily","seperate_washroom":"yes","construction_material":"concrete","water_supply":"yes","ward_no":"073","ward_name":"LAXMANSINGH CHAUHAN"},{"latitude":22.70029,"longitude":75.85517,"amenity":"public_washrooms","name":"SBM Toilet","hindi_name":"एस बी एम टॉयलेट","address":"Veer Savarkar Market","opening_hours":"24/7","paid":"no","staff_onsite":"no","cleanliness_schedule":"weekly","seperate_washroom":"yes","construction_material":"concrete","water_supply":"yes","ward_no":"065","ward_name":"SANT KANWARRAM"},{"latitude":22.72797,"longitude":75.86921,"amenity":"public_washrooms","name":"Sulabh Complex","hindi_name":"सुलभ कॉम्प्लेक्स","address":"Below Rajkumar Bridge, Vallabh Nagar, Indore","opening_hours":"Mo-Su 04:00-22:00","paid":"yes","staff_onsite":"yes","cleanliness_schedule":"daily","seperate_washroom":"yes","construction_material":"concrete","water_supply":"yes","ward_no":"047","ward_name":"SARDAR VALLABHBHAI"},{"latitude":22.72008,"longitude":75.86949,"amenity":"public_washrooms","name":"SBM Toilet","hindi_name":"एस बी एम टॉयलेट","address":"Near Regal Cinema, Nehru Park 2, Shivaji Nagar, Indore","opening_hours":"24/7","paid":"no","staff_onsite":"no","cleanliness_schedule":"daily","seperate_washroom":"no","construction_material":"concrete","water_supply":"yes","ward_no":"047","ward_name":"SARDAR VALLABHBHAI"},{"latitude":22.71782,"longitude":75.8692,"amenity":"public_washrooms","name":"SBM Toilet","hindi_name":"एस बी एम टॉयलेट","address":"Railway Station Road, Near Jhabua Tower Road, Chhoti Gwaltoli","opening_hours":"24/7","paid":"no","staff_onsite":"no","cleanliness_schedule":"daily","seperate_washroom":"no","construction_material":"concrete","water_supply":"yes","ward_no":"055","ward_name":"SAUTH TUKOGANJ"},{"latitude":22.71866,"longitude":75.8623,"amenity":"public_washrooms","name":"Sulabh Complex","hindi_name":"सुलभ कॉम्प्लेक्स","address":"Chogalal Ustaad Marg, Ranipura, Indore","opening_hours":"Mo-Su 04:00-22:00","paid":"yes","staff_onsite":"yes","cleanliness_schedule":"daily","seperate_washroom":"yes","construction_material":"concrete","water_supply":"yes","ward_no":"060","ward_name":"RANIPURA"},{"latitude":22.72761,"longitude":75.8693,"amenity":"public_washrooms","name":"Swachh Bharat Mission","hindi_name":"स्वच्छ भारत मिशन","address":"Behind SGSITS, Vallabh Nagar, Indore","opening_hours":"24/7","paid":"no","staff_onsite":"no","cleanliness_schedule":"daily","seperate_washroom":"no","construction_material":"concrete","water_supply":"yes","ward_no":"047","ward_name":"SARDAR VALLABHBHAI"},{"latitude":22.71871,"longitude":75.85935,"amenity":"public_washrooms","name":"SBM Toilet","hindi_name":"एस बी एम टॉयलेट","address":"Riverside Road,Ganesh Plaza","opening_hours":"24/7","paid":"no","staff_onsite":"no","cleanliness_schedule":"daily","seperate_washroom":"yes","construction_material":"fibre","water_supply":"yes","ward_no":"060","ward_name":"RANIPURA"},{"latitude":22.71765,"longitude":75.85933,"amenity":"public_washrooms","name":"Sulabh Complex","hindi_name":"सुलभ कॉम्प्लेक्स","address":"Sanjay Setu Rd, South Toda, Indore","opening_hours":"Mo-Su 04:00-10:00","paid":"yes","staff_onsite":"yes","cleanliness_schedule":"daily","seperate_washroom":"yes","construction_material":"concrete","water_supply":"yes","ward_no":"060","ward_name":"RANIPURA"},{"latitude":22.72659,"longitude":75.86931,"amenity":"public_washrooms","name":"Swachh Bharat Mission","hindi_name":"स्वच्छ भारत मिशन","address":"In front of Railway Platform, Vallabh Nagar, Indore","opening_hours":"24/7","paid":"no","staff_onsite":"no","cleanliness_schedule":"daily","seperate_washroom":"yes","construction_material":"concrete","water_supply":"yes","ward_no":"047","ward_name":"SARDAR VALLABHBHAI"},{"latitude":22.72403,"longitude":75.86907,"amenity":"public_washrooms","name":"Swachh Bharat Mission","hindi_name":"स्वच्छ भारत मिशन","address":"Nehru Park Road, Vallabh Nagar, Indore","opening_hours":"24/7","paid":"no","staff_onsite":"no","cleanliness_schedule":"daily","seperate_washroom":"no","construction_material":"concrete","water_supply":"yes","ward_no":"047","ward_name":"SARDAR VALLABHBHAI"},{"latitude":22.72313,"longitude":75.86149,"amenity":"public_washrooms","name":"Sulabh Complex","hindi_name":"सुलभ कॉम्प्लेक्स","address":"Ganji compound, Devi Ahilya Marg, Jail Road, Indore","opening_hours":"24/7","paid":"yes","staff_onsite":"yes","cleanliness_schedule":"daily","seperate_washroom":"yes","construction_material":"concrete","water_supply":"yes","ward_no":"057","ward_name":"DEVI AHILYABAI"},{"latitude":22.72523,"longitude":75.86504,"amenity":"public_washrooms","name":"Swachh Bharat Mission","hindi_name":"स्वच्छ भारत मिशन","address":"208, Nayaypura Main Road, Indore","opening_hours":"24/7","paid":"no","staff_onsite":"no","cleanliness_schedule":"daily","seperate_washroom":"no","construction_material":"concrete","water_supply":"yes","ward_no":"056","ward_name":"SNEHALATA GANJ"},{"latitude":22.72721,"longitude":75.86755,"amenity":"public_washrooms","name":"SBM Toilet","hindi_name":"एस बी एम टॉयलेट","address":"Patthar Godown, Near Rajkumar Bridge, Snehlataganj, Indore","opening_hours":"24/7","paid":"no","staff_onsite":"no","cleanliness_schedule":"daily","seperate_washroom":"no","construction_material":"concrete","water_supply":"yes","ward_no":"056","ward_name":"SNEHALATA GANJ"},{"latitude":22.71994,"longitude":75.86872,"amenity":"public_washrooms","name":"Swachh Bharat Mission","hindi_name":"स्वच्छ भारत मिशन","address":"Near Regal talkies, Regal Square, Indore","opening_hours":"24/7","paid":"no","staff_onsite":"no","cleanliness_schedule":"daily","seperate_washroom":"no","construction_material":"concrete","water_supply":"yes","ward_no":"047","ward_name":"SARDAR VALLABHBHAI"},{"latitude":22.71976,"longitude":75.86922,"amenity":"public_washrooms","name":"Sulabh Complex","hindi_name":"सुलभ कॉम्प्लेक्स","address":"Mahatma Gandhi Road, Shastri Market, Shivaji Nagar, Indore","opening_hours":"Mo-Su 04:00-22:00","paid":"yes","staff_onsite":"yes","cleanliness_schedule":"daily","seperate_washroom":"yes","construction_material":"concrete","water_supply":"yes","ward_no":"055","ward_name":"SAUTH TUKOGANJ"},{"latitude":22.71774,"longitude":75.86911,"amenity":"public_washrooms","name":"Sulabh Complex","hindi_name":"सुलभ कॉम्प्लेक्स","address":"Railway Station Road, Choto Gwaltoli, Indore","opening_hours":"24/7","paid":"yes","staff_onsite":"yes","cleanliness_schedule":"daily","seperate_washroom":"yes","construction_material":"concrete","water_supply":"yes","ward_no":"055","ward_name":"SAUTH TUKOGANJ"},{"latitude":22.73301,"longitude":75.86548,"amenity":"public_washrooms","name":"SBM Toilet","hindi_name":"एस बी एम टॉयलेट","address":"Near RS Bhandari Marg, Indore GPO, Indore","opening_hours":"24/7","paid":"no","staff_onsite":"no","cleanliness_schedule":"daily","seperate_washroom":"no","construction_material":"concrete","water_supply":"yes","ward_no":"056","ward_name":"SNEHALATA GANJ"},{"latitude":22.72454,"longitude":75.85888,"amenity":"public_washrooms","name":"Sulabh Complex","hindi_name":"सुलभ कॉम्प्लेक्स","address":"Fish Market, Shanti Path, Shivaji Market, Bakshi Colony, Indore","opening_hours":"Mo-Su 04:00-22:00","paid":"yes","staff_onsite":"yes","cleanliness_schedule":"daily","seperate_washroom":"yes","construction_material":"concrete","water_supply":"yes","ward_no":"057","ward_name":"DEVI AHILYABAI"},{"latitude":22.71877,"longitude":75.86518,"amenity":"public_washrooms","name":"Swachh Bharat Mission","hindi_name":"स्वच्छ भारत मिशन","address":"In fornt of Raja Ram Mohan Roy Complex, M.T.H. Compound, Indore","opening_hours":"24/7","paid":"no","staff_onsite":"no","cleanliness_schedule":"daily","seperate_washroom":"no","construction_material":"concrete","water_supply":"yes","ward_no":"057","ward_name":"DEVI AHILYABAI"},{"latitude":22.73052,"longitude":75.85732,"amenity":"public_washrooms","name":"Sulabh Complex","hindi_name":"सुलभ कॉम्प्लेक्स","address":"104, Tilak Path, Narayan Bagh, Mari Mata Square ,Indore","opening_hours":"Mo-Su 04:00-22:00","paid":"yes","staff_onsite":"yes","cleanliness_schedule":"daily","seperate_washroom":"yes","construction_material":"concrete","water_supply":"yes","ward_no":"057","ward_name":"DEVI AHILYABAI"},{"latitude":22.72897,"longitude":75.85654,"amenity":"public_washrooms","name":"Sulabh Complex","hindi_name":"सुलभ कॉम्प्लेक्स","address":"Malhar Ashram Ground, Indore","opening_hours":"Mo-Su 04:00-22:00","paid":"yes","staff_onsite":"yes","cleanliness_schedule":"daily","seperate_washroom":"yes","construction_material":"concrete","water_supply":"yes","ward_no":"058","ward_name":"IMLI BAZAR"},{"latitude":22.72381,"longitude":75.85343,"amenity":"public_washrooms","name":"Sulabh Complex","hindi_name":"सुलभ कॉम्प्लेक्स","address":"UjjainIndore Road, Mari Mata Square, Indore","opening_hours":"Mo-Su 04:00-22:00","paid":"yes","staff_onsite":"yes","cleanliness_schedule":"daily","seperate_washroom":"yes","construction_material":"concrete","water_supply":"yes","ward_no":"058","ward_name":"IMLI BAZAR"},{"latitude":22.72135,"longitude":75.85998,"amenity":"public_washrooms","name":"Swachh Bharat Mission","hindi_name":"स्वच्छ भारत मिशन","address":"Nagar Nigam Road, Indore","opening_hours":"24/7","paid":"no","staff_onsite":"no","cleanliness_schedule":"daily","seperate_washroom":"no","construction_material":"concrete","water_supply":"yes","ward_no":"057","ward_name":"DEVI AHILYABAI"},{"latitude":22.72395,"longitude":75.8617,"amenity":"public_washrooms","name":"Swachh Bharat Mission","hindi_name":"स्वच्छ भारत मिशन","address":"Netaji Subhash Marg, Near HDFCATM, Chimanbagh Chauraha, Indore","opening_hours":"24/7","paid":"no","staff_onsite":"no","cleanliness_schedule":"daily","seperate_washroom":"no","construction_material":"concrete","water_supply":"yes","ward_no":"057","ward_name":"DEVI AHILYABAI"},{"latitude":22.71978,"longitude":75.85697,"amenity":"public_washrooms","name":"Swachh Bharat Mission","hindi_name":"स्वच्छ भारत मिशन","address":"1/1, krishanpura, Tilakpath ,Indore","opening_hours":"24/7","paid":"no","staff_onsite":"no","seperate_washroom":"no","construction_material":"concrete","water_supply":"yes","ward_no":"057","ward_name":"DEVI AHILYABAI"},{"latitude":22.71835,"longitude":75.85836,"amenity":"public_washrooms","name":"Swachh Bharat Mission","hindi_name":"स्वच्छ भारत मिशन","address":"Sabji Mandi Road, Nand lal Pura, Rajwada, Indore","opening_hours":"24/7","paid":"no","staff_onsite":"yes","cleanliness_schedule":"daily","seperate_washroom":"yes","construction_material":"concrete","water_supply":"yes","ward_no":"059","ward_name":"HARSIDDHI"},{"latitude":22.72239,"longitude":75.86455,"amenity":"public_washrooms","name":"Sulabh Complex","hindi_name":"सुलभ कॉम्प्लेक्स","address":"Indore GPO, Sikh Mohalla, Indore","opening_hours":"24/7","paid":"yes","staff_onsite":"yes","cleanliness_schedule":"daily","seperate_washroom":"yes","construction_material":"concrete","water_supply":"yes","ward_no":"057","ward_name":"DEVI AHILYABAI"},{"latitude":22.72367,"longitude":75.86441,"amenity":"public_washrooms","name":"Swachh Bharat Mission","hindi_name":"स्वच्छ भारत मिशन","address":"149/1, Nyay Pura, Indore","opening_hours":"24/7","paid":"no","staff_onsite":"no","cleanliness_schedule":"daily","seperate_washroom":"yes","construction_material":"concrete","water_supply":"yes","ward_no":"056","ward_name":"SNEHALATA GANJ"},{"latitude":22.72182,"longitude":75.86372,"amenity":"public_washrooms","name":"Swachh Bharat Mission","hindi_name":"स्वच्छ भारत मिशन","address":"Near District Court, Sikh Mohalla Main Road, Indore","opening_hours":"24/7","paid":"no","staff_onsite":"no","cleanliness_schedule":"daily","seperate_washroom":"no","construction_material":"concrete","water_supply":"yes","ward_no":"057","ward_name":"DEVI AHILYABAI"},{"latitude":22.72053,"longitude":75.8636,"amenity":"public_washrooms","name":"Swachh Bharat Mission","hindi_name":"स्वच्छ भारत मिशन","address":"873, Sikh Mohalla, Indore","opening_hours":"24/7","paid":"no","staff_onsite":"no","cleanliness_schedule":"daily","seperate_washroom":"no","construction_material":"concrete","water_supply":"yes","ward_no":"057","ward_name":"DEVI AHILYABAI"},{"latitude":22.72466,"longitude":75.86279,"amenity":"public_washrooms","name":"Swachh Bharat Mission","hindi_name":"स्वच्छ भारत मिशन","address":"Near Sushila Complex, Indore GPO, Indore","opening_hours":"24/7","paid":"no","staff_onsite":"no","cleanliness_schedule":"daily","seperate_washroom":"no","construction_material":"concrete","water_supply":"yes","ward_no":"056","ward_name":"SNEHALATA GANJ"},{"latitude":22.72644,"longitude":75.86251,"amenity":"public_washrooms","name":"Swachh Bharat Mission","hindi_name":"स्वच्छ भारत मिशन","address":"5, I.D.A. Market, Jail Road, Indore","opening_hours":"24/7","paid":"no","staff_onsite":"no","cleanliness_schedule":"daily","seperate_washroom":"no","construction_material":"concrete","water_supply":"yes","ward_no":"057","ward_name":"DEVI AHILYABAI"},{"latitude":22.72673,"longitude":75.86258,"amenity":"public_washrooms","name":"Sulabh Complex","hindi_name":"सुलभ कॉम्प्लेक्स","address":"15,Jail Road , Nagar Nigam Market, Chikmanglur Square, Indore","opening_hours":"Mo-Su 04:00-22:00","paid":"yes","staff_onsite":"yes","cleanliness_schedule":"daily","seperate_washroom":"yes","construction_material":"concrete","water_supply":"yes","ward_no":"057","ward_name":"DEVI AHILYABAI"},{"latitude":22.72891,"longitude":75.86306,"amenity":"public_washrooms","name":"Sulabh Complex","hindi_name":"सुलभ कॉम्प्लेक्स","address":"DRP Line Ground, Devi Ahilya Marg, Indore","opening_hours":"Mo-Su 04:00-22:00","paid":"yes","staff_onsite":"yes","cleanliness_schedule":"daily","seperate_washroom":"yes","construction_material":"concrete","water_supply":"yes","ward_no":"057","ward_name":"DEVI AHILYABAI"},{"latitude":22.72389,"longitude":75.85898,"amenity":"public_washrooms","name":"Swachh Bharat Mission","hindi_name":"स्वच्छ भारत मिशन","address":"Near Nagar Nigam Machli Market, Shanti Path Road, Indore","opening_hours":"24/7","paid":"no","staff_onsite":"no","cleanliness_schedule":"daily","seperate_washroom":"no","construction_material":"concrete","water_supply":"yes","ward_no":"057","ward_name":"DEVI AHILYABAI"},{"latitude":22.72742,"longitude":75.85979,"amenity":"public_washrooms","name":"Swachh Bharat Mission","hindi_name":"स्वच्छ भारत मिशन","address":"Shanti Path, D.R.P. Line , Indore","opening_hours":"24/7","paid":"no","staff_onsite":"no","cleanliness_schedule":"daily","seperate_washroom":"no","construction_material":"concrete","water_supply":"yes","ward_no":"057","ward_name":"DEVI AHILYABAI"},{"latitude":22.72289,"longitude":75.85771,"amenity":"public_washrooms","name":"Swachh Bharat Mission","hindi_name":"स्वच्छ भारत मिशन","address":"174, Netaji Subhash Marg, Ram Bagh Corner, Indore","opening_hours":"24/7","paid":"no","staff_onsite":"no","cleanliness_schedule":"daily","seperate_washroom":"no","construction_material":"concrete","water_supply":"yes","ward_no":"057","ward_name":"DEVI AHILYABAI"},{"latitude":22.72263,"longitude":75.85367,"amenity":"public_washrooms","name":"Sulabh Complex","hindi_name":"सुलभ कॉम्प्लेक्स","address":"65, Netaji Subhash Marg, Imli Bazar, Indore","opening_hours":"Mo-Su 04:00-22:00","paid":"yes","staff_onsite":"yes","cleanliness_schedule":"daily","seperate_washroom":"yes","construction_material":"concrete","water_supply":"yes","ward_no":"058","ward_name":"IMLI BAZAR"},{"latitude":22.72231,"longitude":75.85162,"amenity":"public_washrooms","name":"Swachh Bharat Mission","hindi_name":"स्वच्छ भारत मिशन","address":"Dhruv Tower, Netaji Subhash Marg, Indore","opening_hours":"24/7","paid":"no","staff_onsite":"no","cleanliness_schedule":"daily","seperate_washroom":"no","construction_material":"concrete","water_supply":"yes","ward_no":"058","ward_name":"IMLI BAZAR"},{"latitude":22.72151,"longitude":75.84998,"amenity":"public_washrooms","name":"Swachh Bharat Mission","hindi_name":"स्वच्छ भारत मिशन","address":"Behind C.S.P. Office, Bawali Chowk, Maharaja Tukoji Rao Holkar Cloth Market, Indore","opening_hours":"24/7","paid":"no","staff_onsite":"no","cleanliness_schedule":"daily","seperate_washroom":"no","construction_material":"concrete","water_supply":"yes","ward_no":"008","ward_name":"JUNA RISALA"},{"latitude":22.72336,"longitude":75.84836,"amenity":"public_washrooms","name":"Swachh Bharat Mission","hindi_name":"स्वच्छ भारत मिशन","address":"Near Neelkanth Colony, Netaji Subhash Marg, Juna Risala, Indore","opening_hours":"24/7","paid":"no","staff_onsite":"no","cleanliness_schedule":"daily","seperate_washroom":"no","construction_material":"concrete","water_supply":"no","ward_no":"007","ward_name":"JANTA COLONY"},{"latitude":22.72236,"longitude":75.85294,"amenity":"public_washrooms","name":"Swachh Bharat Mission","hindi_name":"स्वच्छ भारत मिशन","address":"Near Kusum SNTATI Theatre, Juna Risala, Indore","opening_hours":"24/7","paid":"no","staff_onsite":"no","cleanliness_schedule":"daily","seperate_washroom":"no","construction_material":"concrete","water_supply":"yes","ward_no":"058","ward_name":"IMLI BAZAR"},{"latitude":22.72322,"longitude":75.8553,"amenity":"public_washrooms","name":"Sulabh Complex","hindi_name":"सुलभ कॉम्प्लेक्स","address":"Martand Chowk, Netaji Subhash Marg, Indore","opening_hours":"24/7","paid":"no","staff_onsite":"yes","cleanliness_schedule":"daily","seperate_washroom":"yes","construction_material":"concrete","water_supply":"yes","ward_no":"057","ward_name":"DEVI AHILYABAI"},{"latitude":22.72107,"longitude":75.84633,"amenity":"public_washrooms","name":"Swachh Bharat Mission","hindi_name":"स्वच्छ भारत मिशन","address":"1, Malhar Ganj , Kila Road, Badali Chowk, Indore","opening_hours":"24/7","paid":"no","staff_onsite":"no","cleanliness_schedule":"daily","seperate_washroom":"no","construction_material":"concrete","water_supply":"yes","ward_no":"008","ward_name":"JUNA RISALA"},{"latitude":22.72128,"longitude":75.84777,"amenity":"public_washrooms","name":"Swachh Bharat Mission","hindi_name":"स्वच्छ भारत मिशन","address":"42/2, Malhar Paltan, Malhar Ganj, Indore","opening_hours":"24/7","paid":"no","staff_onsite":"no","cleanliness_schedule":"daily","seperate_washroom":"no","construction_material":"concrete","water_supply":"yes","ward_no":"008","ward_name":"JUNA RISALA"},{"latitude":22.71825,"longitude":75.84233,"amenity":"public_washrooms","name":"Swachh Bharat Mission","hindi_name":"स्वच्छ भारत मिशन","address":"Acharya Transport Services, Kailash Marg, North Raj Mohalla, Malhar Ganj, Indore","opening_hours":"24/7","paid":"no","staff_onsite":"no","cleanliness_schedule":"daily","seperate_washroom":"no","construction_material":"concrete","water_supply":"yes","ward_no":"006","ward_name":"MALHARGANJ"},{"latitude":22.71905,"longitude":75.84591,"amenity":"public_washrooms","name":"Swachh Bharat Mission","hindi_name":"स्वच्छ भारत मिशन","address":"105-106, Malhar Ganj Main Road, Malhar Ganj, Indore","opening_hours":"24/7","paid":"no","staff_onsite":"no","cleanliness_schedule":"daily","seperate_washroom":"no","construction_material":"concrete","water_supply":"yes","ward_no":"008","ward_name":"JUNA RISALA"},{"latitude":22.70294,"longitude":75.83997,"amenity":"public_washrooms","name":"SBM","hindi_name":"एस बी एम","address":"Opposite Corporation Bank, Ranjeet Hanuman Road, Near Mahunaka Square, Indore","opening_hours":"24/7","paid":"no","staff_onsite":"no","cleanliness_schedule":"daily","seperate_washroom":"yes","construction_material":"concrete","water_supply":"yes","ward_no":"071","ward_name":"DRAVID NAGAR"},{"latitude":22.71018,"longitude":75.85893,"amenity":"public_washrooms","name":"SBM Toilet","hindi_name":"एस बी एम टॉयलेट","address":"Bhaat Mohalla, Pagnis Paga, Indore","opening_hours":"Mo-Su 04:00-22:00","paid":"no","staff_onsite":"yes","cleanliness_schedule":"daily","seperate_washroom":"yes","construction_material":"concrete","water_supply":"yes","ward_no":"061","ward_name":"TATYA SARVATE"},{"latitude":22.70782,"longitude":75.85919,"amenity":"public_washrooms","name":"Sulabh Complex","hindi_name":"सुलभ कॉम्प्लेक्स","address":"Jabraan Colony Square,Indore","opening_hours":"Mo-Su 04:00-22:00","paid":"yes","staff_onsite":"yes","cleanliness_schedule":"daily","seperate_washroom":"yes","construction_material":"concrete","water_supply":"yes","ward_no":"061","ward_name":"TATYA SARVATE"},{"latitude":22.70436,"longitude":75.85569,"amenity":"public_washrooms","name":"SBM Toilet","hindi_name":"एस बी एम टॉयलेट","address":"Manik Bagh Main Road, Indore","opening_hours":"24/7","paid":"no","staff_onsite":"no","cleanliness_schedule":"weekly","seperate_washroom":"yes","construction_material":"fibre","water_supply":"yes","ward_no":"066","ward_name":"SHAHID HEMU COLONY"},{"latitude":22.69199,"longitude":75.83745,"amenity":"public_washrooms","name":"SBM","hindi_name":"एस बी एम","address":"Annapurna Road, Near Fashion Era, Indore","opening_hours":"24/7","paid":"no","staff_onsite":"no","cleanliness_schedule":"daily","seperate_washroom":"yes","construction_material":"concrete","water_supply":"yes","ward_no":"082","ward_name":"SUDAMA NAGAR"},{"latitude":22.70785,"longitude":75.85526,"amenity":"public_washrooms","name":"Sulabh Complex","hindi_name":"सुलभ कॉम्प्लेक्स","address":"Ganji Compound,Collectorate Square, Indore","opening_hours":"Mo-Su 04:00-22:00","paid":"yes","staff_onsite":"yes","cleanliness_schedule":"daily","seperate_washroom":"yes","construction_material":"concrete","water_supply":"yes","ward_no":"066","ward_name":"SHAHID HEMU COLONY"},{"latitude":22.7082,"longitude":75.85114,"amenity":"public_washrooms","name":"SBM Toilet","hindi_name":"एस बी एम टॉयलेट","address":"Jairampur Colony, Indore","opening_hours":"24/7","paid":"no","staff_onsite":"no","cleanliness_schedule":"monthly","seperate_washroom":"yes","construction_material":"concrete","water_supply":"yes","ward_no":"067","ward_name":"MAHARAJA HOLKAR"},{"latitude":22.70828,"longitude":75.85412,"amenity":"public_washrooms","name":"SBM Toilet","hindi_name":"एस बी एम टॉयलेट","address":"Collectorate Square, Indore","opening_hours":"24/7","paid":"no","staff_onsite":"no","cleanliness_schedule":"weekly","seperate_washroom":"yes","construction_material":"concrete","water_supply":"yes","ward_no":"059","ward_name":"HARSIDDHI"},{"latitude":22.69707,"longitude":75.83965,"amenity":"public_washrooms","name":"Sulabh Complex","hindi_name":"सुलभ कॉम्प्लेक्स","address":"Dusshera Maidan, Opposite Axis Bank, Annapurna Road, Indore","opening_hours":"Mo-Su 4:00-22:00","paid":"yes","staff_onsite":"yes","cleanliness_schedule":"daily","seperate_washroom":"yes","construction_material":"concrete","water_supply":"yes","ward_no":"072","ward_name":"LOKMANYA NAGAR"},{"latitude":22.69668,"longitude":75.83438,"amenity":"public_washrooms","name":"SBM","hindi_name":"एस बी एम","address":"Near Chhatrapati Shivaji School, Narendra Tiwari Marg, Indore","opening_hours":"24/7","paid":"no","staff_onsite":"no","cleanliness_schedule":"daily","seperate_washroom":"yes","construction_material":"concrete","water_supply":"yes","ward_no":"071","ward_name":"DRAVID NAGAR"},{"latitude":22.71095,"longitude":75.85294,"amenity":"public_washrooms","name":"SBM Toilet","hindi_name":"एस बी एम टॉयलेट","address":"Near 62/3, Janata Colony, Chhatribagh, Indore","opening_hours":"24/7","paid":"no","staff_onsite":"no","cleanliness_schedule":"weekly","seperate_washroom":"yes","construction_material":"concrete","water_supply":"yes","ward_no":"059","ward_name":"HARSIDDHI"},{"latitude":22.71168,"longitude":75.85552,"amenity":"public_washrooms","name":"SBM Toilet","hindi_name":"एस बी एम टॉयलेट","address":"Motitabela Main Road, Indore","opening_hours":"24/7","paid":"no","staff_onsite":"no","cleanliness_schedule":"weekly","seperate_washroom":"yes","construction_material":"concrete","water_supply":"yes","ward_no":"059","ward_name":"HARSIDDHI"},{"latitude":22.71244,"longitude":75.85574,"amenity":"public_washrooms","name":"SBM Toilet","hindi_name":"एस बी एम टॉयलेट","address":"Motitabela Main Road, Indore","opening_hours":"24/7","paid":"no","staff_onsite":"no","cleanliness_schedule":"weekly","seperate_washroom":"yes","construction_material":"concrete","water_supply":"yes","ward_no":"059","ward_name":"HARSIDDHI"},{"latitude":22.70992,"longitude":75.86226,"amenity":"public_washrooms","name":"SBM Toilet","hindi_name":"एस बी एम टॉयलेट","address":"Jabran Colony, Near Raoji Bazar Police Station, Indore","opening_hours":"24/7","paid":"no","staff_onsite":"no","cleanliness_schedule":"weekly","seperate_washroom":"yes","construction_material":"fibre","water_supply":"yes","ward_no":"061","ward_name":"TATYA SARVATE"},{"latitude":22.69651,"longitude":75.84077,"amenity":"public_washrooms","name":"SBM","hindi_name":"एस बी एम","address":"Opposite. Dashera Maiden, Annapurna Road, Usha Nagar, Vijay Syndicate Colony, Indore","opening_hours":"24/7","paid":"no","staff_onsite":"no","cleanliness_schedule":"daily","seperate_washroom":"yes","construction_material":"concrete","water_supply":"yes","ward_no":"072","ward_name":"LOKMANYA NAGAR"},{"latitude":22.70705,"longitude":75.86265,"amenity":"public_washrooms","name":"SBM Toilet","hindi_name":"एस बी एम टॉयलेट","address":"Prakash Ka Bagicha, Juni Indore, Indore","opening_hours":"Mo-Su 04:00-23:00","paid":"no","staff_onsite":"yes","cleanliness_schedule":"daily","seperate_washroom":"yes","construction_material":"concrete","water_supply":"yes","ward_no":"061","ward_name":"TATYA SARVATE"},{"latitude":22.70635,"longitude":75.86601,"amenity":"public_washrooms","name":"Sulabh Complex","hindi_name":"सुलभ कॉम्प्लेक्स","address":"103, Near Shri Ram Metals, Navlakha Road, Loha Mandi, Indore","opening_hours":"Mo-Su 04:00-22:00","paid":"yes","staff_onsite":"yes","cleanliness_schedule":"daily","seperate_washroom":"yes","construction_material":"concrete","water_supply":"yes","ward_no":"062","ward_name":"RAVJI BAZAR"},{"latitude":22.70832,"longitude":75.86717,"amenity":"public_washrooms","name":"Sulabh Complex","hindi_name":"सुलभ कॉम्प्लेक्स","address":"Navlakha Road, Chhavni, Indore","opening_hours":"24/7","paid":"yes","staff_onsite":"yes","cleanliness_schedule":"daily","seperate_washroom":"yes","construction_material":"concrete","water_supply":"yes","ward_no":"062","ward_name":"RAVJI BAZAR"},{"latitude":22.70896,"longitude":75.86372,"amenity":"public_washrooms","name":"Sulabh Complex","hindi_name":"सुलभ कॉम्प्लेक्स","address":"Radha Govind Ka Bagicha, Gaddi Adda, Indore","opening_hours":"Mo-Su 04:00-22:00","paid":"yes","staff_onsite":"yes","cleanliness_schedule":"daily","seperate_washroom":"yes","construction_material":"concrete","water_supply":"yes","ward_no":"061","ward_name":"TATYA SARVATE"},{"latitude":22.70895,"longitude":75.8637,"amenity":"public_washrooms","name":"SBM Toilet","hindi_name":"एस बी एम टॉयलेट","address":"Gaddi Adda, Indore","opening_hours":"24/7","paid":"no","staff_onsite":"no","cleanliness_schedule":"weekly","seperate_washroom":"no","construction_material":"concrete","water_supply":"yes","ward_no":"061","ward_name":"TATYA SARVATE"},{"latitude":22.71131,"longitude":75.86397,"amenity":"public_washrooms","name":"SBM Toilet","hindi_name":"एस बी एम टॉयलेट","address":"Chandra Baga, Gadi Adda, Indore","opening_hours":"24/7","paid":"no","staff_onsite":"no","cleanliness_schedule":"weekly","seperate_washroom":"yes","construction_material":"fibre","water_supply":"yes","ward_no":"062","ward_name":"RAVJI BAZAR"},{"latitude":22.71085,"longitude":75.86613,"amenity":"public_washrooms","name":"Sulabh Complex","hindi_name":"सुलभ कॉम्प्लेक्स","address":"Kumavat Pura, Raoji Bazar, Juni Indore, Indore","opening_hours":"Mo-Su 04:00-22:00","paid":"yes","staff_onsite":"yes","cleanliness_schedule":"daily","seperate_washroom":"yes","construction_material":"concrete","water_supply":"yes","ward_no":"062","ward_name":"RAVJI BAZAR"},{"latitude":22.71346,"longitude":75.86435,"amenity":"public_washrooms","name":"Sulabh Complex","hindi_name":"सुलभ कॉम्प्लेक्स","address":"Hathipura Square, Siyaganj, Indore","opening_hours":"Mo-Su 04:00-23:00","paid":"yes","staff_onsite":"yes","cleanliness_schedule":"daily","seperate_washroom":"yes","construction_material":"concrete","water_supply":"yes","ward_no":"060","ward_name":"RANIPURA"},{"latitude":22.71146,"longitude":75.86009,"amenity":"public_washrooms","name":"SBM Toilet","hindi_name":"एस बी एम टॉयलेट","address":"Near Shani Mandir, Juni Indore, Indore","opening_hours":"24/7","paid":"no","staff_onsite":"no","cleanliness_schedule":"monthly","seperate_washroom":"no","construction_material":"concrete","water_supply":"yes","ward_no":"061","ward_name":"TATYA SARVATE"},{"latitude":22.70897,"longitude":75.85118,"amenity":"public_washrooms","name":"SBM Toilet","hindi_name":"एस बी एम टॉयलेट","address":"Jairampur Colony, Near Chhatribagh, Indore","opening_hours":"24/7","paid":"no","staff_onsite":"no","cleanliness_schedule":"weekly","seperate_washroom":"no","construction_material":"concrete","water_supply":"yes","ward_no":"067","ward_name":"MAHARAJA HOLKAR"},{"latitude":22.7107,"longitude":75.84728,"amenity":"public_washrooms","name":"SBM Toilet","hindi_name":"एस बी एम टॉयलेट","address":"Ravidaspura, Chhatribagh, Indore","opening_hours":"Mo-Sa 05:00-22:00","paid":"no","staff_onsite":"yes","cleanliness_schedule":"daily","seperate_washroom":"yes","construction_material":"concrete","water_supply":"yes","ward_no":"068","ward_name":"BAMBAI BAZAR"},{"latitude":22.7116,"longitude":75.84973,"amenity":"public_washrooms","name":"SBM Toilet","hindi_name":"एस बी एम टॉयलेट","address":"Chhatribagh Main Road, Indore","opening_hours":"24/7","paid":"no","staff_onsite":"no","cleanliness_schedule":"weekly","seperate_washroom":"no","construction_material":"concrete","water_supply":"yes","ward_no":"067","ward_name":"MAHARAJA HOLKAR"},{"latitude":22.71379,"longitude":75.85024,"amenity":"public_washrooms","name":"SBM Toilet","hindi_name":"एस बी एम टॉयलेट","address":"Kagdipura Road, Bombay Bazar, Indore","opening_hours":"24/7","paid":"no","staff_onsite":"no","cleanliness_schedule":"weekly","seperate_washroom":"no","construction_material":"concrete","water_supply":"yes","ward_no":"068","ward_name":"BAMBAI BAZAR"},{"latitude":22.71538,"longitude":75.84986,"amenity":"public_washrooms","name":"SBM Toilet","hindi_name":"एस बी एम टॉयलेट","address":"Jawahar Marg, Chouthmal Colony, Nursingh Bazar, Indore","opening_hours":"24/7","paid":"no","staff_onsite":"no","cleanliness_schedule":"weekly","seperate_washroom":"no","construction_material":"concrete","water_supply":"yes","ward_no":"068","ward_name":"BAMBAI BAZAR"},{"latitude":22.71769,"longitude":75.84888,"amenity":"public_washrooms","name":"SBM Toilet","hindi_name":"एस बी एम टॉयलेट","address":"Sitlamata Bazar, Kapda Market, Indore","opening_hours":"24/7","paid":"no","staff_onsite":"no","cleanliness_schedule":"monthly","seperate_washroom":"no","construction_material":"fibre","water_supply":"yes","ward_no":"069","ward_name":"JAWAHAR MARG"},{"latitude":22.71653,"longitude":75.85108,"amenity":"public_washrooms","name":"Sulabh Complex","hindi_name":"सुलभ कॉम्प्लेक्स","address":"Sarafa Bazar Main Road, Indore","opening_hours":"24/7","paid":"yes","staff_onsite":"yes","cleanliness_schedule":"daily","seperate_washroom":"yes","construction_material":"concrete","water_supply":"yes","ward_no":"069","ward_name":"JAWAHAR MARG"},{"latitude":22.69949,"longitude":75.85236,"amenity":"public_washrooms","name":"SBM","hindi_name":"एस बी एम","address":"Roopram Nagar Main Road, Indore","opening_hours":"24/7","paid":"no","staff_onsite":"no","cleanliness_schedule":"daily","seperate_washroom":"no","construction_material":"concrete","water_supply":"yes","ward_no":"066","ward_name":"SHAHID HEMU COLONY"},{"latitude":22.71296,"longitude":75.85667,"amenity":"public_washrooms","name":"Sulabh Complex","hindi_name":"सुलभ कॉम्प्लेक्स","address":"Pagnis paga, Near Harsidhi Park, Indore","opening_hours":"Mo-Su 04:00-22:00","paid":"yes","staff_onsite":"yes","cleanliness_schedule":"daily","seperate_washroom":"yes","construction_material":"concrete","water_supply":"yes","ward_no":"059","ward_name":"HARSIDDHI"},{"latitude":22.71077,"longitude":75.85628,"amenity":"public_washrooms","name":"SBM Toilet","hindi_name":"एस बी एम टॉयलेट","address":"Motitabela Main Road, Indore","opening_hours":"24/7","paid":"no","staff_onsite":"no","cleanliness_schedule":"weekly","seperate_washroom":"yes","construction_material":"concrete","water_supply":"yes","ward_no":"061","ward_name":"TATYA SARVATE"},{"latitude":22.71041,"longitude":75.85628,"amenity":"public_washrooms","name":"SBM Toilet","hindi_name":"एस बी एम टॉयलेट","address":"Motitabela Main Road,Indore","opening_hours":"Mo-Su 04:00-22:00","paid":"no","staff_onsite":"yes","cleanliness_schedule":"daily","seperate_washroom":"yes","construction_material":"concrete","water_supply":"yes","ward_no":"059","ward_name":"HARSIDDHI"},{"latitude":22.71369,"longitude":75.85869,"amenity":"public_washrooms","name":"SBM Toilet","hindi_name":"एस बी एम टॉयलेट","address":"Chandrabagha, Near Mahel Kacheri, Indore","opening_hours":"Mo-Su 04:00-22:00","paid":"no","staff_onsite":"yes","cleanliness_schedule":"daily","seperate_washroom":"yes","construction_material":"concrete","water_supply":"yes","ward_no":"060","ward_name":"RANIPURA"},{"latitude":22.71349,"longitude":75.85768,"amenity":"public_washrooms","name":"SBM Toilet","hindi_name":"एस बी एम टॉयलेट","address":"Gautam Pura,Juni Indore,Indore","opening_hours":"24/7","paid":"no","staff_onsite":"yes","cleanliness_schedule":"daily","seperate_washroom":"yes","construction_material":"concrete","water_supply":"yes","ward_no":"059","ward_name":"HARSIDDHI"},{"latitude":22.71764,"longitude":75.85935,"amenity":"public_washrooms","name":"Sulabh Complex","hindi_name":"सुलभ कॉम्प्लेक्स","address":"Sanjay setu, River Side Road,Indore","opening_hours":"Mo-Su 05:00-22:00","paid":"yes","staff_onsite":"yes","cleanliness_schedule":"daily","seperate_washroom":"yes","construction_material":"concrete","water_supply":"yes","ward_no":"060","ward_name":"RANIPURA"},{"latitude":22.71487,"longitude":75.86105,"amenity":"public_washrooms","name":"SBM Toilet","hindi_name":"एस बी एम टॉयलेट","address":"South Toda, Indore","opening_hours":"24/7","paid":"no","staff_onsite":"no","cleanliness_schedule":"weekly","seperate_washroom":"yes","construction_material":"concrete","water_supply":"yes","ward_no":"060","ward_name":"RANIPURA"},{"latitude":22.71654,"longitude":75.8675,"amenity":"public_washrooms","name":"SBM Toilet","hindi_name":"एस बी एम टॉयलेट","address":"Near Railway Station, Siyaganj, Indore","opening_hours":"24/7","paid":"no","staff_onsite":"no","cleanliness_schedule":"weekly","seperate_washroom":"yes","construction_material":"concrete","water_supply":"yes","ward_no":"060","ward_name":"RANIPURA"},{"latitude":22.71544,"longitude":75.86878,"amenity":"public_washrooms","name":"SBM Toilet","hindi_name":"एस बी एम टॉयलेट","address":"Near Railway station, choti line, Indore","opening_hours":"24/7","paid":"no","staff_onsite":"no","cleanliness_schedule":"weekly","seperate_washroom":"yes","construction_material":"concrete","water_supply":"yes","ward_no":"055","ward_name":"SAUTH TUKOGANJ"},{"latitude":22.71663,"longitude":75.87,"amenity":"public_washrooms","name":"SBM Toilet","hindi_name":"एस बी एम टॉयलेट","address":"Near Railway Station,Indore","opening_hours":"24/7","paid":"no","staff_onsite":"no","cleanliness_schedule":"weekly","seperate_washroom":"yes","construction_material":"concrete","water_supply":"yes","ward_no":"055","ward_name":"SAUTH TUKOGANJ"},{"latitude":22.71505,"longitude":75.87088,"amenity":"public_washrooms","name":"SBM Toilet","hindi_name":"एस बी एम टॉयलेट","address":"Choti Gualtoli, Indore","opening_hours":"24/7","paid":"no","staff_onsite":"no","cleanliness_schedule":"weekly","seperate_washroom":"yes","construction_material":"concrete","water_supply":"yes","ward_no":"055","ward_name":"SAUTH TUKOGANJ"},{"latitude":22.71217,"longitude":75.86991,"amenity":"public_washrooms","name":"SBM Toilet","hindi_name":"एस बी एम टॉयलेट","address":"Nasia Dharamshala, Jawai Bagh, Murai Muholla, Indore","opening_hours":"24/7","paid":"no","staff_onsite":"no","cleanliness_schedule":"weekly","seperate_washroom":"yes","construction_material":"concrete","water_supply":"yes","ward_no":"062","ward_name":"RAVJI BAZAR"},{"latitude":22.71334,"longitude":75.86805,"amenity":"public_washrooms","name":"SBM Toilet","hindi_name":"एस बी एम टॉयलेट","address":"Chhavni Road, Near Sarwate Bus Stand, Indore","opening_hours":"24/7","paid":"no","staff_onsite":"no","cleanliness_schedule":"weekly","seperate_washroom":"yes","construction_material":"concrete","water_supply":"yes","ward_no":"055","ward_name":"SAUTH TUKOGANJ"},{"latitude":22.72943,"longitude":75.83819,"amenity":"public_washrooms","name":"Public Toilet SBM","hindi_name":"पब्लिक टॉयलेट एस बी एम","address":"Main Road, Industrial Area Laxmibai Nagar","opening_hours":"24/7","paid":"no","staff_onsite":"no","cleanliness_schedule":"weekly","seperate_washroom":"yes","construction_material":"concrete","water_supply":"yes","ward_no":"013","ward_name":"SANGAM NAGAR"},{"latitude":22.73018,"longitude":75.83724,"amenity":"public_washrooms","name":"Public Toilet SBM","hindi_name":"पब्लिक टॉयलेट एस बी एम","address":"Chota Bangarda Road, Lamxibai Nagar , Anaj Mandi","opening_hours":"24/7","paid":"no","staff_onsite":"no","cleanliness_schedule":"weekly","seperate_washroom":"yes","construction_material":"concrete","water_supply":"no","ward_no":"013","ward_name":"SANGAM NAGAR"},{"latitude":22.73187,"longitude":75.83509,"amenity":"public_washrooms","name":"Public Toilet SBM","hindi_name":"पब्लिक टॉयलेट एस बी एम","address":"Chota Bangarda Road, Anaj Mandi, Laxmibai Nagar","opening_hours":"24/7","paid":"no","staff_onsite":"no","cleanliness_schedule":"daily","seperate_washroom":"yes","construction_material":"fibre","water_supply":"yes","ward_no":"013","ward_name":"SANGAM NAGAR"},{"latitude":22.73049,"longitude":75.84127,"amenity":"public_washrooms","name":"Public Toilet SBM","hindi_name":"पब्लिक टॉयलेट एस बी एम","address":"Laxmibai Nagar Road,Industrial Area Laxmibai Nagar","opening_hours":"24/7","paid":"no","staff_onsite":"no","cleanliness_schedule":"weekly","seperate_washroom":"yes","construction_material":"concrete","water_supply":"yes","ward_no":"009","ward_name":"VRINDAVAN"},{"latitude":22.72167,"longitude":75.83682,"amenity":"public_washrooms","name":"Public Toilet SBM","hindi_name":"पब्लिक टॉयलेट एस बी एम","address":"Mahaveer Bagh, Vindhyanchal Nagar, Airport Road","opening_hours":"24/7","paid":"no","staff_onsite":"no","cleanliness_schedule":"weekly","seperate_washroom":"yes","construction_material":"concrete","water_supply":"yes","ward_no":"007","ward_name":"JANTA COLONY"},{"latitude":22.72187,"longitude":75.84456,"amenity":"public_washrooms","name":"Sulabh Complex","hindi_name":"सुलभ कॉम्प्लेक्स","address":"Netaji Subhash Marg, Janata Colony","opening_hours":"Mo-Su 04:00-22:00","paid":"yes","staff_onsite":"yes","cleanliness_schedule":"daily","seperate_washroom":"yes","construction_material":"concrete","water_supply":"yes","ward_no":"007","ward_name":"JANTA COLONY"},{"latitude":22.72291,"longitude":75.84554,"amenity":"public_washrooms","name":"Public Toilet SBM","hindi_name":"पब्लिक टॉयलेट एस बी एम","address":"Netaji Subhash Marg, Jinshi Square, Agrasen Nagar","opening_hours":"24/7","paid":"no","staff_onsite":"no","cleanliness_schedule":"weekly","seperate_washroom":"no","construction_material":"concrete","water_supply":"no","ward_no":"008","ward_name":"JUNA RISALA"},{"latitude":22.72921,"longitude":75.80596,"amenity":"public_washrooms","name":"Swach Bharatiya Abhiyaan","hindi_name":"स्वच्छ भारत अभियान","address":"Airport- Bijasan Road, Indore.","opening_hours":"24/7","paid":"no","staff_onsite":"no","cleanliness_schedule":"weekly","seperate_washroom":"yes","construction_material":"concrete","water_supply":"irregular","ward_no":"014","ward_name":"ASHOK NAGAR"},{"latitude":22.73026,"longitude":75.80899,"amenity":"public_washrooms","name":"Swacch Bharat Abhiyaan","hindi_name":"स्वच्छ भारत अभियान","address":"Near Airport Selfie Point, Airport Road, Indore.","opening_hours":"24/7","paid":"no","staff_onsite":"no","cleanliness_schedule":"weekly","seperate_washroom":"yes","construction_material":"concrete","water_supply":"irregular","ward_no":"015","ward_name":"BIJASAN"},{"latitude":22.72927,"longitude":75.81378,"amenity":"public_washrooms","name":"Swacch Bharat Abhiyaan","hindi_name":"स्वच्छ भारत अभियान","address":"Airport Road, Indore","opening_hours":"24/7","paid":"no","staff_onsite":"no","cleanliness_schedule":"daily","seperate_washroom":"yes","construction_material":"concrete","water_supply":"irregular","ward_no":"015","ward_name":"BIJASAN"},{"latitude":22.72895,"longitude":75.81542,"amenity":"public_washrooms","name":"Swacch Bharat Abhiyaan","hindi_name":"स्वच्छ भारत अभियान","address":"Near Airport Police Station, Aerodrome Road, Indore.","opening_hours":"Mo-Su 4:00-22:00","paid":"yes","staff_onsite":"yes","cleanliness_schedule":"daily","seperate_washroom":"yes","construction_material":"concrete","water_supply":"yes","ward_no":"004","ward_name":"SUKHDEV NAGAR"},{"latitude":22.72683,"longitude":75.83859,"amenity":"public_washrooms","name":"Swacch Bharat Abhiyaan","hindi_name":"स्वच्छ भारत अभियान","address":"Kila Maidan, Ramakrishan Ashram Marg, Airport Road, Indore","opening_hours":"24/7","paid":"no","staff_onsite":"no","cleanliness_schedule":"weekly","seperate_washroom":"no","construction_material":"concrete","water_supply":"irregular","ward_no":"007","ward_name":"JANTA COLONY"},{"latitude":22.72735,"longitude":75.84079,"amenity":"public_washrooms","name":"Sulabh Complex","hindi_name":"सुलभ कॉम्प्लेक्स","address":"Near Wire Factory(Tata Steels), Kila Maidan Marg, Indore.","opening_hours":"Mo-Sa 4:00-22:00","paid":"yes","staff_onsite":"yes","cleanliness_schedule":"daily","seperate_washroom":"yes","construction_material":"concrete","water_supply":"yes","ward_no":"007","ward_name":"JANTA COLONY"},{"latitude":22.72707,"longitude":75.84139,"amenity":"public_washrooms","name":"Swachh Bharat Abhiyaan","hindi_name":"स्वच्छ भारत अभियान","address":"Near Wire Factory, Kila Maidan Marg, indore","opening_hours":"24/7","paid":"no","staff_onsite":"no","cleanliness_schedule":"daily","seperate_washroom":"no","construction_material":"concrete","water_supply":"yes","ward_no":"013","ward_name":"SANGAM NAGAR"},{"latitude":22.72246,"longitude":75.83486,"amenity":"public_washrooms","name":"Swacch Bharat Abhiyaan","hindi_name":"स्वच्छ भारत अभियान","address":"APTC, Agrasen Nagar, Kila Maidan Road, Indore","opening_hours":"24/7","paid":"no","staff_onsite":"no","cleanliness_schedule":"daily","seperate_washroom":"yes","construction_material":"concrete","water_supply":"yes","ward_no":"007","ward_name":"JANTA COLONY"},{"latitude":22.71805,"longitude":75.83687,"amenity":"public_washrooms","name":"Swachh Bharat Abhiyaan","hindi_name":"स्वच्छ भारत अभियान","address":"Panchkuiya Road, Behind Bhooteshwar Mandir, Indira Colony, Indore","opening_hours":"24/7","paid":"no","staff_onsite":"no","cleanliness_schedule":"daily","seperate_washroom":"no","construction_material":"concrete","water_supply":"yes","ward_no":"006","ward_name":"MALHARGANJ"},{"latitude":22.72386,"longitude":75.82866,"amenity":"public_washrooms","name":"Swacch Bharat Abhiyaan","hindi_name":"स्वच्छ भारत अभियान","address":"Opposite Mohta Bagh , Airport Road, Indore.","opening_hours":"24/7","paid":"no","staff_onsite":"no","cleanliness_schedule":"daily","seperate_washroom":"yes","construction_material":"concrete","water_supply":"yes","ward_no":"007","ward_name":"JANTA COLONY"},{"latitude":22.72562,"longitude":75.84614,"amenity":"public_washrooms","name":"Swacch Bharat Abhiyaan","hindi_name":"स्वच्छ भारत अभियान","address":"VIP Road, Neelkanth Colony, Indore.","opening_hours":"24/7","paid":"no","staff_onsite":"no","cleanliness_schedule":"daily","seperate_washroom":"no","construction_material":"concrete","water_supply":"yes","ward_no":"009","ward_name":"VRINDAVAN"},{"latitude":22.72289,"longitude":75.84595,"amenity":"public_washrooms","name":"Swacch Bharat Abhiyaan","hindi_name":"स्वच्छ भारत अभियान","address":"Subhash Marg Main Road, Jinsi, Indore.","opening_hours":"24/7","paid":"no","staff_onsite":"no","cleanliness_schedule":"daily","seperate_washroom":"no","construction_material":"concrete","water_supply":"yes","ward_no":"008","ward_name":"JUNA RISALA"},{"latitude":22.71966,"longitude":75.8477,"amenity":"public_washrooms","name":"Swacch Bharat Abhiyaan","hindi_name":"स्वच्छ भारत अभियान","address":"Near Malharganj Police Station, Malharganj, Indore.","opening_hours":"24/7","paid":"no","staff_onsite":"no","cleanliness_schedule":"daily","seperate_washroom":"no","construction_material":"concrete","water_supply":"yes","ward_no":"008","ward_name":"JUNA RISALA"},{"latitude":22.71742,"longitude":75.84753,"amenity":"public_washrooms","name":"Sulabh Complex","hindi_name":"सुलभ कॉम्प्लेक्स","address":"Cloth Market, 47, Yashwant Ganj, Indore.","opening_hours":"Mo-Su 4:00-22:00","paid":"yes","staff_onsite":"yes","cleanliness_schedule":"daily","seperate_washroom":"yes","construction_material":"concrete","water_supply":"yes","ward_no":"069","ward_name":"JAWAHAR MARG"},{"latitude":22.69382,"longitude":75.82737,"amenity":"public_washrooms","name":"SBM","hindi_name":"एस बी एम","address":"Phooti Kothi Square, Opposite Pukhraj Palace, Indore","opening_hours":"24/7","paid":"no","staff_onsite":"no","cleanliness_schedule":"daily","seperate_washroom":"yes","construction_material":"concrete","water_supply":"yes","ward_no":"083","ward_name":"GUSHMATA NAGAR"},{"latitude":22.74711,"longitude":75.85599,"amenity":"public_washrooms","name":"SBM","hindi_name":"एस बी एम","address":"Lakshmi Bai Nagar, Near Lakshmi Bai Railway Station","opening_hours":"24/7","paid":"no","staff_onsite":"yes","cleanliness_schedule":"daily","seperate_washroom":"yes","construction_material":"concrete","water_supply":"yes","ward_no":"011","ward_name":"BHAGIRATHPURA"},{"latitude":22.7474,"longitude":75.86582,"amenity":"public_washrooms","name":"Sulabh Complex","hindi_name":"सुलभ कॉम्प्लेक्स","address":"Kumar Moholla, Bhagirathpura","opening_hours":"24/7","paid":"no","staff_onsite":"no","cleanliness_schedule":"daily","seperate_washroom":"yes","construction_material":"concrete","water_supply":"yes","ward_no":"023","ward_name":"SWARGIYA RAJESH JOSHI"},{"latitude":22.74516,"longitude":75.8495,"amenity":"public_washrooms","name":"SBM","hindi_name":"एस बी एम","address":"Baneshwar Kund","opening_hours":"24/7","paid":"no","staff_onsite":"no","cleanliness_schedule":"daily","seperate_washroom":"yes","construction_material":"concrete","water_supply":"yes","ward_no":"010","ward_name":"BANGANGA"},{"latitude":22.74286,"longitude":75.85091,"amenity":"public_washrooms","name":"Sulabh Complex","hindi_name":"सुलभ कॉम्प्लेक्स","address":"Band Ganga","opening_hours":"Mo-Su 04:00-22:00","paid":"yes","staff_onsite":"yes","cleanliness_schedule":"daily","seperate_washroom":"yes","construction_material":"concrete","water_supply":"yes","ward_no":"010","ward_name":"BANGANGA"},{"latitude":22.7291,"longitude":75.81393,"amenity":"public_washrooms","name":"Swachh Bharat Toilet","hindi_name":"स्वच्छ भारत टॉयलेट ","address":"Aerodrum Road, Near Punchshil Nagar, Indore","opening_hours":"24/7","paid":"no","staff_onsite":"no","cleanliness_schedule":"weekly","seperate_washroom":"yes","construction_material":"concrete","water_supply":"yes","ward_no":"014","ward_name":"ASHOK NAGAR"},{"latitude":22.7303,"longitude":75.80911,"amenity":"public_washrooms","name":"Swachh Bharat Toilet","hindi_name":"स्वच्छ भारत टॉयलेट ","address":"Aerodrum Road, Near Airport Road, Indore","opening_hours":"24/7","paid":"no","staff_onsite":"no","cleanliness_schedule":"weekly","seperate_washroom":"yes","construction_material":"concrete","water_supply":"yes","ward_no":"015","ward_name":"BIJASAN"},{"latitude":22.7466,"longitude":75.8622,"amenity":"public_washrooms","name":"SVM Toilet","hindi_name":"एस बी एम टॉयलेट","address":"Bhagirathpura","opening_hours":"24/7","paid":"no","staff_onsite":"no","cleanliness_schedule":"weekly","seperate_washroom":"yes","construction_material":"concrete","water_supply":"no","ward_no":"011","ward_name":"BHAGIRATHPURA"},{"latitude":22.75161,"longitude":75.84945,"amenity":"public_washrooms","name":"Sulabh Complex","hindi_name":"सुलभ कॉम्प्लेक्स","address":"Badganga Bridge","opening_hours":"Mo-Su 4:00-22:00","paid":"yes","staff_onsite":"yes","cleanliness_schedule":"daily","seperate_washroom":"yes","construction_material":"concrete","water_supply":"yes","ward_no":"019","ward_name":"VISHVAKARMA"},{"latitude":22.74441,"longitude":75.85115,"amenity":"public_washrooms","name":"SVM Toilet","hindi_name":"एस बी एम टॉयलेट","address":"Baanganga","opening_hours":"24/7","paid":"no","staff_onsite":"no","cleanliness_schedule":"weekly","seperate_washroom":"yes","construction_material":"concrete","water_supply":"irregular","ward_no":"010","ward_name":"BANGANGA"},{"latitude":22.75112,"longitude":75.80711,"amenity":"public_washrooms","name":"SBM","hindi_name":"एस बी एम","address":"Chhota Bangarda Main Road, Indore","opening_hours":"24/7","paid":"no","staff_onsite":"no","cleanliness_schedule":"daily","seperate_washroom":"yes","construction_material":"concrete","water_supply":"yes","ward_no":"016","ward_name":"NANDBAG"},{"latitude":22.74566,"longitude":75.84671,"amenity":"public_washrooms","name":"Sulabh Complex","hindi_name":"सुलभ कॉम्प्लेक्स","address":"Zone No.4, Ward No.12, Maharana Pratap Nagar","opening_hours":"24/7","paid":"no","staff_onsite":"yes","cleanliness_schedule":"daily","seperate_washroom":"yes","construction_material":"concrete","water_supply":"yes","ward_no":"012","ward_name":"GOVIND COLONY"},{"latitude":22.74728,"longitude":75.83997,"amenity":"public_washrooms","name":"SBM Toilet","hindi_name":"एस बी एम टॉयलेट","address":"Ganesh Baag Colony Main Road, Kushwah Nagar","opening_hours":"24/7","paid":"no","staff_onsite":"no","cleanliness_schedule":"weekly","seperate_washroom":"yes","construction_material":"concrete","water_supply":"yes","ward_no":"012","ward_name":"GOVIND COLONY"},{"latitude":22.75467,"longitude":75.86843,"amenity":"public_washrooms","name":"SBM Toilet","hindi_name":"एस बी एम टॉयलेट","address":"Gauri Nagar Main Road, DDU Nagar, Sukhlia, Indore","opening_hours":"24/7","paid":"no","staff_onsite":"no","cleanliness_schedule":"daily","seperate_washroom":"yes","construction_material":"concrete","water_supply":"yes","ward_no":"023","ward_name":"SWARGIYA RAJESH JOSHI"},{"latitude":22.73064,"longitude":75.85733,"amenity":"public_washrooms","name":"Sulabh Complex","hindi_name":"सुलभ कॉम्प्लेक्स","address":"Near Humpty Dumpty School, Rambagh","opening_hours":"Mo-Su 04:00-22:00","paid":"yes","staff_onsite":"yes","cleanliness_schedule":"daily","seperate_washroom":"yes","construction_material":"concrete","water_supply":"yes","ward_no":"057","ward_name":"DEVI AHILYABAI"},{"latitude":22.74027,"longitude":75.84804,"amenity":"public_washrooms","name":"Public Washroom SBM","hindi_name":"पब्लिक वाशरूम एस बी एम","address":"Kila Maidan Road,Vrindavan Colony Square","opening_hours":"24/7","paid":"no","staff_onsite":"no","cleanliness_schedule":"monthly","seperate_washroom":"no","construction_material":"concrete","water_supply":"no","ward_no":"009","ward_name":"VRINDAVAN"},{"latitude":22.73802,"longitude":75.8497,"amenity":"public_washrooms","name":"Public Washroom SBM","hindi_name":"पब्लिक वाशरूम एस बी एम","address":"Near Kabristan, Banganga Road, Kumar Khedi","opening_hours":"24/7","paid":"no","staff_onsite":"no","cleanliness_schedule":"weekly","seperate_washroom":"yes","construction_material":"concrete","water_supply":"yes","ward_no":"010","ward_name":"BANGANGA"},{"latitude":22.74019,"longitude":75.83627,"amenity":"public_washrooms","name":"Swachh Bharat Mission","hindi_name":"स्वच्छ भारत मिशन","address":"Sangam Nagar, Scheme no 51, Indore","opening_hours":"24/7","paid":"no","staff_onsite":"no","cleanliness_schedule":"daily","seperate_washroom":"no","construction_material":"fibre","water_supply":"yes","ward_no":"013","ward_name":"SANGAM NAGAR"},{"latitude":22.7373,"longitude":75.84682,"amenity":"public_washrooms","name":"Swacch Bharat Mission","hindi_name":"स्वच्छ भारत मिशन","address":"50, Kamla Nehru Colony, Indore.","opening_hours":"24/7","paid":"no","staff_onsite":"no","cleanliness_schedule":"daily","seperate_washroom":"no","construction_material":"concrete","water_supply":"yes","ward_no":"009","ward_name":"VRINDAVAN"},{"latitude":22.73989,"longitude":75.84299,"amenity":"public_washrooms","name":"Swacch Bharat Mission","hindi_name":"स्वच्छ भारत मिशन","address":"Laaturbaag, Near Waste Decompose Station, Indore","opening_hours":"24/7","paid":"no","staff_onsite":"no","cleanliness_schedule":"daily","seperate_washroom":"yes","construction_material":"concrete","water_supply":"yes","ward_no":"009","ward_name":"VRINDAVAN"},{"latitude":22.73324,"longitude":75.84125,"amenity":"public_washrooms","name":"Swacch Bharat Mission","hindi_name":"स्वच्छ भारत मिशन","address":"Near laxmipuri Nala, Kalka Mandir Road, Industrial Area laxmibai Nagar, Indore.","opening_hours":"24/7","paid":"no","staff_onsite":"no","cleanliness_schedule":"daily","seperate_washroom":"yes","construction_material":"concrete","water_supply":"yes","ward_no":"009","ward_name":"VRINDAVAN"},{"latitude":22.73305,"longitude":75.86543,"amenity":"public_washrooms","name":"Swacch Bharat Mission","hindi_name":"स्वच्छ भारत मिशन","address":"Snehlataganj, Bhandari Mill, Under Bhandari Bridge, Indore.","opening_hours":"24/7","paid":"no","staff_onsite":"no","cleanliness_schedule":"daily","seperate_washroom":"no","construction_material":"concrete","water_supply":"yes","ward_no":"056","ward_name":"SNEHALATA GANJ"},{"latitude":22.73072,"longitude":75.86076,"amenity":"public_washrooms","name":"Sulabh Complex","hindi_name":"सुलभ कॉम्प्लेक्स","address":"DRP Line, Shanti Path, Raam Bagh Road, Indore.","opening_hours":"Mo-Su 4:00-22:00","paid":"yes","staff_onsite":"yes","cleanliness_schedule":"daily","seperate_washroom":"yes","construction_material":"concrete","water_supply":"yes","ward_no":"057","ward_name":"DEVI AHILYABAI"},{"latitude":22.73683,"longitude":75.85686,"amenity":"public_washrooms","name":"SwacchBharat Mission","hindi_name":"#N/A","address":"Near Jawahar Ice Factory, Pologround, Indore.","opening_hours":"Mo-Su 4:00-22:00","paid":"yes","staff_onsite":"yes","cleanliness_schedule":"daily","seperate_washroom":"yes","construction_material":"concrete","water_supply":"yes","ward_no":"057","ward_name":"DEVI AHILYABAI"},{"latitude":22.73364,"longitude":75.86069,"amenity":"public_washrooms","name":"Swacch Bharat Mission","hindi_name":"स्वच्छ भारत मिशन","address":"Bhandari Mill, Opposite Govt. Ahilaya Ashram H.S. School, Pologround, Indore.","opening_hours":"24/7","paid":"no","staff_onsite":"no","cleanliness_schedule":"daily","seperate_washroom":"yes","construction_material":"concrete","water_supply":"yes","ward_no":"057","ward_name":"DEVI AHILYABAI"},{"latitude":22.73416,"longitude":75.85718,"amenity":"public_washrooms","name":"Swacch Bharat Mission","hindi_name":"स्वच्छ भारत मिशन","address":"Tilak Path, Narayan Bagh, Near Police Petrol Pump Station, Pologround, Indore.","opening_hours":"24/7","paid":"no","staff_onsite":"no","cleanliness_schedule":"daily","seperate_washroom":"yes","construction_material":"concrete","water_supply":"yes","ward_no":"057","ward_name":"DEVI AHILYABAI"},{"latitude":22.73981,"longitude":75.85575,"amenity":"public_washrooms","name":"Swacch Bharat Mission","hindi_name":"स्वच्छ भारत मिशन","address":"Pologround, Near Cement Factory, Ujjain Road, Indore.","opening_hours":"24/7","paid":"no","staff_onsite":"no","cleanliness_schedule":"weekly","seperate_washroom":"yes","construction_material":"concrete","water_supply":"irregular","ward_no":"057","ward_name":"DEVI AHILYABAI"},{"latitude":22.73368,"longitude":75.84935,"amenity":"public_washrooms","name":"Swacch Bharat Mission","hindi_name":"स्वच्छ भारत मिशन","address":"Mari Mata Square, Near Bansiwala Restaurant, Indore.","opening_hours":"24/7","paid":"no","staff_onsite":"no","cleanliness_schedule":"daily","seperate_washroom":"no","construction_material":"concrete","water_supply":"yes","ward_no":"058","ward_name":"IMLI BAZAR"},{"latitude":22.73258,"longitude":75.8475,"amenity":"public_washrooms","name":"Swacch Bharat Mission","hindi_name":"स्वच्छ भारत मिशन","address":"Near Brahmbag Colony, VIP Road, Indore.","opening_hours":"24/7","paid":"no","staff_onsite":"no","cleanliness_schedule":"daily","seperate_washroom":"yes","construction_material":"concrete","water_supply":"yes","ward_no":"009","ward_name":"VRINDAVAN"},{"latitude":22.74007,"longitude":75.8529,"amenity":"public_washrooms","name":"Swacch BharatMission","hindi_name":"#N/A","address":"Badal Ka Bhtaa, Banganga Road, Ujjain Road, Pologround, Indore.","opening_hours":"24/7","paid":"no","staff_onsite":"no","cleanliness_schedule":"daily","seperate_washroom":"yes","construction_material":"concrete","water_supply":"yes","ward_no":"010","ward_name":"BANGANGA"},{"latitude":22.73414,"longitude":75.85051,"amenity":"public_washrooms","name":"Swacch Bharat Mission","hindi_name":"स्वच्छ भारत मिशन","address":"Mari Mata Square, VIP Road, Indore.","opening_hours":"24/7","paid":"no","staff_onsite":"no","cleanliness_schedule":"daily","seperate_washroom":"yes","construction_material":"concrete","water_supply":"yes","ward_no":"057","ward_name":"DEVI AHILYABAI"},{"latitude":22.76739,"longitude":75.89761,"amenity":"public_washrooms","name":"SBM","hindi_name":"एस बी एम","address":"Scheme Number 78, Sector C, Nai Sadak, Indore","opening_hours":"24/7","paid":"no","staff_onsite":"no","cleanliness_schedule":"daily","seperate_washroom":"no","construction_material":"fibre","water_supply":"yes","ward_no":"034","ward_name":"SHAHID BHAGATSINGH"},{"latitude":22.77157,"longitude":75.90147,"amenity":"public_washrooms","name":"SBM","hindi_name":"एस बी एम","address":"AB Road, Niranjanpur Square, Indore","opening_hours":"24/7","paid":"no","staff_onsite":"no","cleanliness_schedule":"daily","seperate_washroom":"no","construction_material":"concrete","water_supply":"yes","ward_no":"034","ward_name":"SHAHID BHAGATSINGH"},{"latitude":22.78262,"longitude":75.90925,"amenity":"public_washrooms","name":"SBM","hindi_name":"एस बी एम","address":"Panchal Compound, Lasudia Mori, Indore","opening_hours":"24/7","paid":"no","staff_onsite":"no","cleanliness_schedule":"daily","seperate_washroom":"yes","construction_material":"concrete","water_supply":"yes","ward_no":"035","ward_name":"LASUDIYA MORI"},{"latitude":22.77041,"longitude":75.90894,"amenity":"public_washrooms","name":"Sulabh Complex","hindi_name":"सुलभ कॉम्प्लेक्स","address":"Nipania Square, Village Pipliya Kumar, Lasudiya Mori, Indore","opening_hours":"Mo-Su 4:00-22:00","paid":"yes","staff_onsite":"yes","cleanliness_schedule":"daily","seperate_washroom":"yes","construction_material":"concrete","water_supply":"yes","ward_no":"036","ward_name":"NIPANIYA"},{"latitude":22.77249,"longitude":75.90193,"amenity":"public_washrooms","name":"SBM","hindi_name":"एस बी एम","address":"Niranjanpur Square, Dewan Naka, Indore","opening_hours":"24/7","paid":"no","staff_onsite":"no","cleanliness_schedule":"daily","seperate_washroom":"yes","construction_material":"concrete","water_supply":"yes","ward_no":"035","ward_name":"LASUDIYA MORI"},{"latitude":22.77516,"longitude":75.89275,"amenity":"public_washrooms","name":"Sulabh Complex","hindi_name":"सुलभ कॉम्प्लेक्स","address":"Niranjanpur Sabji Mandi, Near Niranjanpur Square, Indore.","opening_hours":"Mo-Su 4:00-22:00","paid":"yes","staff_onsite":"yes","cleanliness_schedule":"daily","seperate_washroom":"yes","construction_material":"concrete","water_supply":"yes","ward_no":"034","ward_name":"SHAHID BHAGATSINGH"},{"latitude":22.7758,"longitude":75.89132,"amenity":"public_washrooms","name":"Sulabh Complex","hindi_name":"सुलभ कॉम्प्लेक्स","address":"Khalsa Chowk, Niranjanpur, Indore.","opening_hours":"Mo-Su 4:00-22:00","paid":"no","staff_onsite":"yes","cleanliness_schedule":"daily","seperate_washroom":"yes","construction_material":"concrete","water_supply":"yes","ward_no":"034","ward_name":"SHAHID BHAGATSINGH"},{"latitude":22.76939,"longitude":75.88705,"amenity":"public_washrooms","name":"Swacch Bharat Mission","hindi_name":"स्वच्छ भारत मिशन","address":"Near Rajiv Avas Square, Part-1, Scheme no. 78, Indore.","opening_hours":"24/7","paid":"no","staff_onsite":"no","cleanliness_schedule":"daily","seperate_washroom":"no","construction_material":"concrete","water_supply":"yes","ward_no":"032","ward_name":"ATAL BIHARI VAJPEYI"},{"latitude":22.77408,"longitude":75.88407,"amenity":"public_washrooms","name":"Swacch bharat Mission","hindi_name":"स्वच्छ भारत मिशन","address":"Niranjanpur Kabit Khedi Main Road, Scheme no. 136, Indore.","opening_hours":"24/7","paid":"no","staff_onsite":"no","cleanliness_schedule":"monthly","seperate_washroom":"yes","construction_material":"concrete","water_supply":"no","ward_no":"034","ward_name":"SHAHID BHAGATSINGH"},{"latitude":22.76691,"longitude":75.91609,"amenity":"public_washrooms","name":"Swachh Bharat Mission","hindi_name":"स्वच्छ भारत मिशन","address":"In front of Bhavans' Prominent School, Bombay Hospital service Road,Nipania, Indore","opening_hours":"24/7","paid":"no","staff_onsite":"no","seperate_washroom":"no","construction_material":"concrete","water_supply":"yes","ward_no":"036","ward_name":"NIPANIYA"},{"latitude":22.73628,"longitude":75.91451,"amenity":"public_washrooms","name":"SBM","hindi_name":"एस बी एम","address":"Bengali Colony Near Khajrana Mandir","opening_hours":"24/7","paid":"no","staff_onsite":"no","cleanliness_schedule":"daily","seperate_washroom":"yes","construction_material":"concrete","water_supply":"yes","ward_no":"038","ward_name":"HAJI COLONY"},{"latitude":22.73467,"longitude":75.91337,"amenity":"public_washrooms","name":"SBM","hindi_name":"एस बी एम","address":"Goya Road Khajrana","opening_hours":"24/7","paid":"no","staff_onsite":"no","cleanliness_schedule":"daily","seperate_washroom":"yes","construction_material":"concrete","water_supply":"yes","ward_no":"038","ward_name":"HAJI COLONY"},{"latitude":22.73543,"longitude":75.91571,"amenity":"public_washrooms","name":"Sulabh Complex","hindi_name":"सुलभ कॉम्प्लेक्स","address":"Harun Colony Khajarana","opening_hours":"Mo-Su 04:00-22:00","paid":"yes","staff_onsite":"yes","cleanliness_schedule":"daily","seperate_washroom":"yes","construction_material":"concrete","water_supply":"yes","ward_no":"039","ward_name":"NAHAR SHAHVALI"},{"latitude":22.74709,"longitude":75.91756,"amenity":"public_washrooms","name":"SBM Toilet","hindi_name":"एस बी एम टॉयलेट","address":"Kushabhau Thakrey Marg, Guru Nanak Nagar, Khajrana,","opening_hours":"24/7","paid":"no","staff_onsite":"no","cleanliness_schedule":"weekly","seperate_washroom":"no","construction_material":"concrete","water_supply":"yes","ward_no":"038","ward_name":"HAJI COLONY"},{"latitude":22.7463,"longitude":75.92308,"amenity":"public_washrooms","name":"SBM Toilet","hindi_name":"एस बी एम टॉयलेट","address":"Near Chitragupt Square, Scheme No. 134, Nipania","opening_hours":"24/7","paid":"no","staff_onsite":"no","cleanliness_schedule":"weekly","seperate_washroom":"yes","construction_material":"concrete","water_supply":"yes","ward_no":"039","ward_name":"NAHAR SHAHVALI"},{"latitude":22.74626,"longitude":75.92328,"amenity":"public_washrooms","name":"Sulabh Complex","hindi_name":"सुलभ कॉम्प्लेक्स","address":"Kushabhau Thakre Marg, Scheme No.134, Near Chitragupt Square","opening_hours":"Mo-Su: 05:00-23:00","paid":"yes","staff_onsite":"yes","cleanliness_schedule":"daily","seperate_washroom":"yes","construction_material":"concrete","water_supply":"yes","ward_no":"039","ward_name":"NAHAR SHAHVALI"},{"latitude":22.74497,"longitude":75.9287,"amenity":"public_washrooms","name":"Sulabh Complex","hindi_name":"सुलभ कॉम्प्लेक्स","address":"Scheme 134, Near County Walk Township, Nipania","opening_hours":"Mo-Su 04:00-22:00","paid":"yes","staff_onsite":"yes","cleanliness_schedule":"daily","seperate_washroom":"yes","construction_material":"concrete","water_supply":"yes","ward_no":"039","ward_name":"NAHAR SHAHVALI"},{"latitude":22.74533,"longitude":75.92885,"amenity":"public_washrooms","name":"SBM Toilet","hindi_name":"एस बी एम टॉयलेट","address":"Scheme 134, County Walk Township, Opposite BOI Zonal Office, Nipania","opening_hours":"24/7","paid":"no","staff_onsite":"no","cleanliness_schedule":"weekly","seperate_washroom":"yes","construction_material":"concrete","water_supply":"yes","ward_no":"039","ward_name":"NAHAR SHAHVALI"},{"latitude":22.76665,"longitude":75.90002,"amenity":"public_washrooms","name":"Swacch Bharat Toilet","hindi_name":"स्वच्छ भारत टॉयलेट","address":"Scheme No 114, New Road, Opposite Mahindra Showroom, Vijay Nagar, Indore","opening_hours":"24/7","paid":"no","staff_onsite":"no","cleanliness_schedule":"weekly","seperate_washroom":"yes","construction_material":"fibre","water_supply":"yes","ward_no":"034","ward_name":"SHAHID BHAGATSINGH"},{"latitude":22.77167,"longitude":75.90138,"amenity":"public_washrooms","name":"Sulabh Complex","hindi_name":"सुलभ कॉम्प्लेक्स","address":"Dewas Naka, A B Road, Indore","opening_hours":"Mo-Su 04:00-22:00","paid":"yes","staff_onsite":"yes","cleanliness_schedule":"daily","seperate_washroom":"yes","construction_material":"concrete","water_supply":"yes","ward_no":"034","ward_name":"SHAHID BHAGATSINGH"},{"latitude":22.77497,"longitude":75.89837,"amenity":"public_washrooms","name":"Sulabh Complex","hindi_name":"सुलभ कॉम्प्लेक्स","address":"MR 9, Scheme No. 78, Near Dewas Naka, Indore","opening_hours":"Mo-Su 04:00-22:00","paid":"yes","staff_onsite":"yes","cleanliness_schedule":"daily","seperate_washroom":"yes","construction_material":"concrete","water_supply":"yes","ward_no":"034","ward_name":"SHAHID BHAGATSINGH"},{"latitude":22.77099,"longitude":75.90385,"amenity":"public_washrooms","name":"Sulabh Complex","hindi_name":"सुलभ कॉम्प्लेक्स","address":"A B Road, Dewas Naka, Indore","opening_hours":"Mo-Su 04:00-22:00","paid":"yes","staff_onsite":"yes","cleanliness_schedule":"daily","seperate_washroom":"yes","construction_material":"concrete","water_supply":"yes","ward_no":"031","ward_name":"MAHARAJA CHATRASAL"},{"latitude":22.77133,"longitude":75.90202,"amenity":"public_washrooms","name":"Swacch Bhaarat Toilet","hindi_name":"स्वछ भारत टॉयलेट","address":"Dewas Naka Square, Indore","opening_hours":"24/7","paid":"no","staff_onsite":"no","cleanliness_schedule":"weekly","seperate_washroom":"yes","construction_material":"concrete","water_supply":"yes","ward_no":"031","ward_name":"MAHARAJA CHATRASAL"},{"latitude":22.77503,"longitude":75.9031,"amenity":"public_washrooms","name":"Swacch Bharat Toilet","hindi_name":"स्वच्छ भारत टॉयलेट","address":"A B Road,Near Dewas Naka, Indore","opening_hours":"24/7","paid":"no","staff_onsite":"no","cleanliness_schedule":"weekly","seperate_washroom":"yes","construction_material":"fibre","water_supply":"yes","ward_no":"035","ward_name":"LASUDIYA MORI"},{"latitude":22.73845,"longitude":75.79186,"amenity":"public_washrooms","name":"Swachh Bharat Mission","hindi_name":"स्वच्छ भारत मिशन","address":"Saheed Mangal Pandey Dwar, Gandhi Nagar, Bada Bangarda, Indore","opening_hours":"24/7","paid":"no","staff_onsite":"no","cleanliness_schedule":"daily","seperate_washroom":"no","construction_material":"concrete","water_supply":"yes"},{"latitude":22.74149,"longitude":75.79235,"amenity":"public_washrooms","name":"Swachh Bharat Mission","hindi_name":"स्वच्छ भारत मिशन","address":"Parasram Marg, Bohra Colony, Gandhi Nagar, Indore","opening_hours":"24 7","paid":"no","staff_onsite":"no","cleanliness_schedule":"daily","seperate_washroom":"yes","construction_material":"concrete","water_supply":"yes","ward_no":"015","ward_name":"BIJASAN"},{"latitude":22.73576,"longitude":75.79518,"amenity":"public_washrooms","name":"Sulabh Complex","hindi_name":"सुलभ कॉम्प्लेक्स","address":"Mars Square, Super Corridor, Indore","opening_hours":"Mo-Su 04:00-22:00","paid":"no","staff_onsite":"yes","cleanliness_schedule":"daily","seperate_washroom":"yes","construction_material":"concrete","water_supply":"yes","ward_no":"015","ward_name":"BIJASAN"},{"latitude":22.79208,"longitude":75.90802,"amenity":"public_washrooms","name":"SBM","hindi_name":"एस बी एम","address":"Lasudia Mori A B Road","opening_hours":"24/7","paid":"no","staff_onsite":"no","cleanliness_schedule":"daily","seperate_washroom":"no","construction_material":"concrete","water_supply":"yes","ward_no":"035","ward_name":"LASUDIYA MORI"},{"latitude":22.79743,"longitude":75.91127,"amenity":"public_washrooms","name":"Sulabh Complex","hindi_name":"सुलभ कॉम्प्लेक्स","address":"A B Road Mangliya","opening_hours":"Mo-Su 4:00-22:00","paid":"yes","staff_onsite":"yes","cleanliness_schedule":"daily","seperate_washroom":"yes","construction_material":"concrete","water_supply":"yes","ward_no":"035","ward_name":"LASUDIYA MORI"},{"latitude":22.78264,"longitude":75.90924,"amenity":"public_washrooms","name":"SBM","hindi_name":"एस बी एम","address":"Talab Road Lasudia Mori","opening_hours":"24/7","paid":"no","staff_onsite":"no","cleanliness_schedule":"daily","seperate_washroom":"no","construction_material":"concrete","water_supply":"yes","ward_no":"035","ward_name":"LASUDIYA MORI"},{"latitude":22.75304,"longitude":75.80449,"amenity":"public_washrooms","name":"Swacch Bharat Mission","hindi_name":"स्वच्छ भारत मिशन","address":"Super Corridor, Chota Bangarda Road, Indore.","opening_hours":"24/7","paid":"no","staff_onsite":"no","cleanliness_schedule":"weekly","seperate_washroom":"yes","construction_material":"concrete","water_supply":"yes","ward_no":"015","ward_name":"BIJASAN"},{"latitude":22.74092,"longitude":75.79175,"amenity":"public_washrooms","name":"Swacch Bharat Mission","hindi_name":"स्वच्छ भारत मिशन","address":"Parsaram Marg, Behind Maruti Nandan Hospital,Gandhi Nagar, Indore.","opening_hours":"24/7","paid":"no","staff_onsite":"no","cleanliness_schedule":"daily","seperate_washroom":"yes","construction_material":"concrete","water_supply":"yes","ward_no":"015","ward_name":"BIJASAN"},{"latitude":22.75119,"longitude":75.8072,"amenity":"public_washrooms","name":"Public Washroom SBM","hindi_name":"पब्लिक वाशरूम एस बी एम","address":"Near Nariman City, Chota Bangarda Road","opening_hours":"24/7","paid":"no","staff_onsite":"no","cleanliness_schedule":"monthly","seperate_washroom":"yes","construction_material":"concrete","water_supply":"yes","ward_no":"016","ward_name":"NANDBAG"},{"latitude":22.6731,"longitude":75.90704,"amenity":"public_washrooms","name":"SBM","hindi_name":"एस बी एम","address":"Dev Guradiya Road","opening_hours":"24/7","paid":"no","staff_onsite":"no","cleanliness_schedule":"monthly","seperate_washroom":"yes","construction_material":"concrete","water_supply":"irregular","ward_no":"075","ward_name":"PALDA"},{"latitude":22.67518,"longitude":75.90911,"amenity":"public_washrooms","name":"Sulab Shouchalaya","hindi_name":"सुलब शौचालय","address":"RTO Office, Pattar Mundla","opening_hours":"Mo-Su 10:00-17:00","paid":"no","staff_onsite":"yes","cleanliness_schedule":"daily","seperate_washroom":"yes","construction_material":"concrete","water_supply":"yes","ward_no":"075","ward_name":"PALDA"},{"latitude":22.68572,"longitude":75.87334,"amenity":"public_washrooms","name":"Sulabh Complex","hindi_name":"सुलभ कॉम्प्लेक्स","address":"IT Park Square, Khandwa Road, Indore","opening_hours":"Mo-Su 4:00-22:00","paid":"yes","staff_onsite":"yes","cleanliness_schedule":"daily","seperate_washroom":"yes","construction_material":"concrete","water_supply":"yes","ward_no":"064","ward_name":"CHITAVAD"},{"latitude":22.68093,"longitude":75.86533,"amenity":"public_washrooms","name":"Sulabh Complex","hindi_name":"सुलभ कॉम्प्लेक्स","address":"50, Nanak Palace, Pipliya Road, Indore","opening_hours":"Mo-Su 04:00-22:00","paid":"yes","staff_onsite":"yes","cleanliness_schedule":"daily","seperate_washroom":"yes","construction_material":"concrete","water_supply":"yes","ward_no":"074","ward_name":"VISHNAPURI"},{"latitude":22.69686,"longitude":75.87901,"amenity":"public_washrooms","name":"Swachh Bharat Toilet","hindi_name":"स्वच्छ भारत टॉयलेट ","address":"Navlakha Main Road, Near Navlakha Square, Indore","opening_hours":"24/7","paid":"no","staff_onsite":"no","cleanliness_schedule":"weekly","seperate_washroom":"yes","construction_material":"concrete","water_supply":"yes","ward_no":"064","ward_name":"CHITAVAD"},{"latitude":22.67385,"longitude":75.88039,"amenity":"public_washrooms","name":"Sulabh Complex","hindi_name":"सुलभ कॉम्प्लेक्स","address":"Zone No.19, Ward No.75, Khandwa Road","opening_hours":"Mo-Su 05:00-23:00","paid":"yes","staff_onsite":"yes","cleanliness_schedule":"weekly","seperate_washroom":"yes","construction_material":"concrete","water_supply":"yes","ward_no":"075","ward_name":"PALDA"},{"latitude":22.6727,"longitude":75.88055,"amenity":"public_washrooms","name":"SBM Toilet","hindi_name":"एस बी एम टॉयलेट","address":"Khandwa Road, Rani Bagh Main, Opposite Gourav Hospital","opening_hours":"24/7","paid":"no","staff_onsite":"no","cleanliness_schedule":"weekly","seperate_washroom":"yes","construction_material":"concrete","water_supply":"yes","ward_no":"077","ward_name":"BILAWALI"},{"latitude":22.68131,"longitude":75.89579,"amenity":"public_washrooms","name":"Public Washroom SBM","hindi_name":"पब्लिक वाशरूम एस बी एम","address":"Tejaji Chowk, Dinesh Nagar, Palda","opening_hours":"24/7","paid":"no","staff_onsite":"no","cleanliness_schedule":"weekly","seperate_washroom":"yes","construction_material":"concrete","water_supply":"yes","ward_no":"075","ward_name":"PALDA"},{"latitude":22.69112,"longitude":75.89798,"amenity":"public_washrooms","name":"Public Washroom SBM","hindi_name":"पब्लिक वाशरूम एस बी एम","address":"Eastern Ring Rd, Khisnpuri Colony, Babul Nagar","opening_hours":"24/7","paid":"no","staff_onsite":"no","cleanliness_schedule":"weekly","seperate_washroom":"no","construction_material":"concrete","water_supply":"no","ward_no":"051","ward_name":"BHAGVATI NAGAR"},{"latitude":22.68768,"longitude":75.8844,"amenity":"public_washrooms","name":"Sulabh Complex","hindi_name":"सुलभ कॉम्प्लेक्स","address":"Teen Imli Bus Stand, Teen Imli Square, Indore.","opening_hours":"Mo-su 4:00-22:00","paid":"yes","staff_onsite":"yes","cleanliness_schedule":"daily","seperate_washroom":"yes","construction_material":"concrete","water_supply":"yes","ward_no":"064","ward_name":"CHITAVAD"},{"latitude":22.68848,"longitude":75.88391,"amenity":"public_washrooms","name":"Swacch Bharat Mission","hindi_name":"स्वच्छ भारत मिशन","address":"Anand Nagar, Navlakha, Indore.","opening_hours":"24/7","paid":"no","staff_onsite":"no","cleanliness_schedule":"weekly","seperate_washroom":"no","construction_material":"concrete","water_supply":"yes","ward_no":"064","ward_name":"CHITAVAD"},{"latitude":22.68852,"longitude":75.88525,"amenity":"public_washrooms","name":"Swacch Bharat Mission","hindi_name":"स्वच्छ भारत मिशन","address":"Teen Imli Square, Palda Main Road, lndore.","opening_hours":"24/7","paid":"no","staff_onsite":"no","cleanliness_schedule":"daily","seperate_washroom":"yes","construction_material":"concrete","water_supply":"yes","ward_no":"064","ward_name":"CHITAVAD"},{"latitude":22.68969,"longitude":75.88462,"amenity":"public_washrooms","name":"Sulabh Complex","hindi_name":"सुलभ कॉम्प्लेक्स","address":"Teen Imli Square, Navlakha, Indore","opening_hours":"Mo-su 4:00-22:00","paid":"yes","staff_onsite":"yes","cleanliness_schedule":"daily","seperate_washroom":"yes","construction_material":"concrete","water_supply":"yes","ward_no":"053","ward_name":"DR. MAULANA AZAD NAGAR"},{"latitude":22.68989,"longitude":75.892,"amenity":"public_washrooms","name":"Swacch Bharat Mission","hindi_name":"स्वच्छ भारत मिशन","address":"NearSBI ATM, Eastern Ring Road, Indore.","opening_hours":"24/7","paid":"no","staff_onsite":"no","cleanliness_schedule":"daily","seperate_washroom":"yes","construction_material":"concrete","water_supply":"yes","ward_no":"052","ward_name":"MUSAKHEDI"},{"latitude":22.69223,"longitude":75.8988,"amenity":"public_washrooms","name":"Sulabh Complex","hindi_name":"सुलभ कॉम्प्लेक्स","address":"Mayur Nagar, Musakhedi Square, Indore.","opening_hours":"Mo-su 4:00-22:00","paid":"yes","staff_onsite":"yes","cleanliness_schedule":"daily","seperate_washroom":"yes","construction_material":"concrete","water_supply":"yes","ward_no":"052","ward_name":"MUSAKHEDI"},{"latitude":22.79775,"longitude":75.91706,"amenity":"public_washrooms","name":"SBM Toilet","hindi_name":"एस बी एम टॉयलेट","address":"Talawali Chanda","opening_hours":"24/7","paid":"no","staff_onsite":"no","cleanliness_schedule":"weekly","seperate_washroom":"no","construction_material":"concrete","water_supply":"yes","ward_no":"035","ward_name":"LASUDIYA MORI"},{"latitude":22.77635,"longitude":75.8466,"amenity":"public_washrooms","name":"Swachh Bharat Toilet","hindi_name":"स्वच्छ भारत टॉयलेट ","address":"Mazdur Chowk, Ujjain - Indore Rd, Sector C, Sanwer Road Industrial Area, Indore","opening_hours":"Mo-Su 04:00-22:00","paid":"yes","staff_onsite":"yes","cleanliness_schedule":"daily","seperate_washroom":"yes","construction_material":"concrete","water_supply":"yes","ward_no":"018","ward_name":"SANT KABIR"},{"latitude":22.78548,"longitude":75.85241,"amenity":"public_washrooms","name":"Swachh Bharat Toilet","hindi_name":"स्वच्छ भारत टॉयलेट ","address":"M R 10 Main Road, Indore","opening_hours":"24/7","paid":"no","staff_onsite":"no","cleanliness_schedule":"weekly","seperate_washroom":"yes","construction_material":"concrete","water_supply":"yes","ward_no":"018","ward_name":"SANT KABIR"},{"latitude":22.79158,"longitude":75.84744,"amenity":"public_washrooms","name":"Sulabh Complex","hindi_name":"सुलभ कॉम्प्लेक्स","address":"Ujjain-Indore Road, Karol Bagh Square, Sanwer Road, Indore","opening_hours":"24/7","paid":"yes","staff_onsite":"yes","seperate_washroom":"yes","construction_material":"concrete","water_supply":"yes","ward_no":"018","ward_name":"SANT KABIR"},{"latitude":22.78955,"longitude":75.84754,"amenity":"public_washrooms","name":"Swachh Bharat Toilet","hindi_name":"स्वच्छ भारत टॉयलेट ","address":"Lavkush Square, Ujjain-Indore Road, Indore","opening_hours":"24/7","paid":"no","staff_onsite":"no","cleanliness_schedule":"weekly","seperate_washroom":"yes","construction_material":"concrete","water_supply":"yes","ward_no":"019","ward_name":"VISHVAKARMA"},{"latitude":22.78052,"longitude":75.85362,"amenity":"public_washrooms","name":"Swachh Bharat Toilet","hindi_name":"स्वच्छ भारत टॉयलेट ","address":"Sector F, Industrial Area, Sanwer Road, Indore","opening_hours":"24/7","paid":"no","staff_onsite":"no","cleanliness_schedule":"weekly","seperate_washroom":"yes","construction_material":"fibre","water_supply":"yes","ward_no":"019","ward_name":"VISHVAKARMA"},{"latitude":22.77706,"longitude":75.85492,"amenity":"public_washrooms","name":"Swacch Bharat Toilet","hindi_name":"स्वच्छ भारत टॉयलेट","address":"Sector F, Industrial Area, Sanwer Road, Indore","opening_hours":"24/7","paid":"no","staff_onsite":"no","cleanliness_schedule":"weekly","seperate_washroom":"yes","construction_material":"fibre","water_supply":"yes","ward_no":"019","ward_name":"VISHVAKARMA"},{"latitude":22.80362,"longitude":75.91579,"amenity":"public_washrooms","name":"Sulabh Complex","hindi_name":"सुलभ कॉम्प्लेक्स","address":"Mangliya, AB Road","opening_hours":"Mo-Su 04:00-22:00","paid":"yes","staff_onsite":"yes","cleanliness_schedule":"daily","seperate_washroom":"yes","construction_material":"concrete","water_supply":"yes","ward_no":"035","ward_name":"LASUDIYA MORI"},{"latitude":22.77729,"longitude":75.84536,"amenity":"public_washrooms","name":"Sulabh Complex","hindi_name":"सुलभ कॉम्प्लेक्स","address":"Sector C, Industrial Area, Indore","opening_hours":"24/7","paid":"no","staff_onsite":"no","cleanliness_schedule":"daily","seperate_washroom":"yes","construction_material":"concrete","water_supply":"yes","ward_no":"018","ward_name":"SANT KABIR"},{"latitude":22.79022,"longitude":75.84662,"amenity":"public_washrooms","name":"Sulabh Complex","hindi_name":"सुलभ कॉम्प्लेक्स","address":"Luv-Kush Square, Super Corridor, Sanwer Road, Indore","opening_hours":"24/7","paid":"no","staff_onsite":"yes","cleanliness_schedule":"daily","seperate_washroom":"yes","construction_material":"concrete","water_supply":"yes","ward_no":"018","ward_name":"SANT KABIR"},{"latitude":22.77753,"longitude":75.85593,"amenity":"public_washrooms","name":"Sulabh Conplex","hindi_name":"सुलभ काम्प्लेक्स","address":"Sector F, Industrial Area Sanwer Road, Indore","opening_hours":"Mo-Su 4:00-22:00","paid":"no","staff_onsite":"yes","cleanliness_schedule":"daily","seperate_washroom":"yes","construction_material":"concrete","water_supply":"yes","ward_no":"019","ward_name":"VISHVAKARMA"},{"latitude":22.76448,"longitude":75.84529,"amenity":"public_washrooms","name":"Swacch Bharat Mission","hindi_name":"स्वच्छ भारत मिशन","address":"Near Ujjain Road, Sector- B, Industrial Area, Sanwer Road, Indore.","opening_hours":"24/7","paid":"no","staff_onsite":"no","cleanliness_schedule":"daily","seperate_washroom":"no","construction_material":"concrete","water_supply":"yes","ward_no":"018","ward_name":"SANT KABIR"},{"latitude":22.77103,"longitude":75.84833,"amenity":"public_washrooms","name":"Swacch Bharat Mission","hindi_name":"स्वच्छ भारत मिशन","address":"Sanwer Road, Sector-C, Industrial Area, Ujjain Road, Indore.","opening_hours":"24/7","paid":"no","staff_onsite":"no","cleanliness_schedule":"daily","seperate_washroom":"yes","construction_material":"concrete","water_supply":"yes","ward_no":"019","ward_name":"VISHVAKARMA"},{"latitude":22.76623,"longitude":75.84786,"amenity":"public_washrooms","name":"Sulabh Complex","hindi_name":"सुलभ कॉम्प्लेक्स","address":"Modern Square, Sector-C, Industrial Area, Sanwer Road, Ujjain Road, Indore.","opening_hours":"Mo-Su 4:00-22:00","paid":"yes","staff_onsite":"yes","cleanliness_schedule":"daily","seperate_washroom":"yes","construction_material":"concrete","water_supply":"yes","ward_no":"019","ward_name":"VISHVAKARMA"},{"latitude":22.76316,"longitude":75.84831,"amenity":"public_washrooms","name":"Sulabh Complex","hindi_name":"सुलभ कॉम्प्लेक्स","address":"Banganga Ganeshpuri, Sanwer Road, Ujjain Road, Indore.","opening_hours":"Mo-Su 4:00-22:00","paid":"yes","staff_onsite":"yes","cleanliness_schedule":"daily","seperate_washroom":"yes","construction_material":"concrete","water_supply":"yes","ward_no":"019","ward_name":"VISHVAKARMA"},{"latitude":22.75357,"longitude":75.84767,"amenity":"public_washrooms","name":"Swacch Bharat Mission","hindi_name":"स्वच्छ भारत मिशन","address":"Sector-A, Industrial Area, Sanwer Road,Ujjain Road, Indore.","opening_hours":"24/7","paid":"no","staff_onsite":"no","cleanliness_schedule":"daily","seperate_washroom":"yes","construction_material":"concrete","water_supply":"yes","ward_no":"018","ward_name":"SANT KABIR"},{"latitude":22.76878,"longitude":75.84752,"amenity":"public_washrooms","name":"Sulabh Complex","hindi_name":"सुलभ कॉम्प्लेक्स","address":"Near Kupatra Moti Baba Aashram, Narvar","opening_hours":"Mo-Su 04:00-22:00","paid":"yes","staff_onsite":"yes","cleanliness_schedule":"daily","seperate_washroom":"yes","construction_material":"concrete","water_supply":"yes","ward_no":"018","ward_name":"SANT KABIR"},{"latitude":22.68996,"longitude":75.91344,"amenity":"public_washrooms","name":"Sulabh Complex","hindi_name":"सुलभ कॉम्प्लेक्स","address":"Shiv Nagar Basti, Musakhedi","opening_hours":"Mo-Su 04:00-22:00","paid":"yes","staff_onsite":"yes","cleanliness_schedule":"daily","seperate_washroom":"yes","construction_material":"concrete","water_supply":"yes","ward_no":"051","ward_name":"BHAGVATI NAGAR"},{"latitude":22.68739,"longitude":75.90546,"amenity":"public_washrooms","name":"Sulabh Complex","hindi_name":"सुलभ कॉम्प्लेक्स","address":"Bhagwati Nagar, Nemawar Road","opening_hours":"Mo-Su 04:00-22:00","paid":"yes","staff_onsite":"yes","cleanliness_schedule":"daily","seperate_washroom":"yes","construction_material":"concrete","water_supply":"yes","ward_no":"051","ward_name":"BHAGVATI NAGAR"},{"latitude":22.6879,"longitude":75.89946,"amenity":"public_washrooms","name":"Public Washroom SBM","hindi_name":"पब्लिक वाशरूम एस बी एम","address":"Nemawar Road, Palda","opening_hours":"24/7","paid":"no","staff_onsite":"no","cleanliness_schedule":"monthly","seperate_washroom":"yes","construction_material":"concrete","water_supply":"no","ward_no":"051","ward_name":"BHAGVATI NAGAR"},{"latitude":22.69364,"longitude":75.90076,"amenity":"public_washrooms","name":"Sulabh Complex","hindi_name":"सुलभ कॉम्प्लेक्स","address":"Musakhedi square, ward no. 54,","opening_hours":"Mo-Su 4:00-22:00","paid":"yes","staff_onsite":"yes","cleanliness_schedule":"daily","seperate_washroom":"yes","construction_material":"concrete","water_supply":"yes","ward_no":"054","ward_name":"RESIDENCY"},{"latitude":22.70918,"longitude":75.81886,"amenity":"public_washrooms","name":"Sulabh Complex","hindi_name":"सुलभ कॉम्प्लेक्स","address":"Friends Colony, Sirpur, Indore","opening_hours":"24/7","paid":"no","staff_onsite":"yes","cleanliness_schedule":"daily","seperate_washroom":"yes","construction_material":"concrete","water_supply":"yes","ward_no":"001","ward_name":"SIRPUR"},{"latitude":22.70713,"longitude":75.8241,"amenity":"public_washrooms","name":"Sulabh Complex","hindi_name":"सुलभ कॉम्प्लेक्स","address":"Chandan Nagar Square, Ring Road, Indore","opening_hours":"Mo-Su 4:00-22:00","paid":"yes","staff_onsite":"yes","cleanliness_schedule":"daily","seperate_washroom":"yes","construction_material":"concrete","water_supply":"yes","ward_no":"001","ward_name":"SIRPUR"},{"latitude":22.70468,"longitude":75.81813,"amenity":"public_washrooms","name":"Sulabh Complex","hindi_name":"सुलभ कॉम्प्लेक्स","address":"Sirpur Lake, Dhar Road, Indore","opening_hours":"Mo-Su 4:00-22:00","paid":"no","staff_onsite":"yes","cleanliness_schedule":"daily","seperate_washroom":"yes","construction_material":"concrete","water_supply":"yes","ward_no":"001","ward_name":"SIRPUR"},{"latitude":22.70517,"longitude":75.81612,"amenity":"public_washrooms","name":"Sulabh Complex","hindi_name":"सुलभ कॉम्प्लेक्स","address":"Near Sirpur Talab, Dhar Road, Indore","opening_hours":"Mo-Su 4:00-22:00","paid":"no","staff_onsite":"yes","cleanliness_schedule":"daily","seperate_washroom":"yes","construction_material":"concrete","water_supply":"yes","ward_no":"001","ward_name":"SIRPUR"},{"latitude":22.70385,"longitude":75.81218,"amenity":"public_washrooms","name":"Sulabh Complex","hindi_name":"सुलभ कॉम्प्लेक्स","address":"Near Sirpur Talab, Opposite Noorani Nagar, Dhar Road, Indore","opening_hours":"Mo-Su 4:00-22:00","paid":"yes","staff_onsite":"yes","cleanliness_schedule":"daily","seperate_washroom":"yes","construction_material":"concrete","water_supply":"yes","ward_no":"085","ward_name":"PRAJAPAT NAGAR"}]}