{"veterinaries":[{"latitude":22.735567,"longitude":75.88721788,"amenity":"veterinary","type":"private","name":"Dr BS Chadda","name_hindi":"डॉ। बीएस चड्डा","opening_hours":"Mo-Fr 9:00-13:00;18:00-21:00","address":"Nehru Nagar","mobile":7316563006,"ward_no":"45","ward_name":"DR. BHIMRAO AMBEDAR"},{"latitude":22.71447808,"longitude":75.89199798,"amenity":"veterinary","type":"private","name":"Dr. Nigam Pet Clinic","name_hindi":"डॉ निगम पेट् क्लिनिक","opening_hours":"Mo-Fr 12:00-21:00","address":"88 Tirupati Nager Infront Of Deepak Kirana Store Near Saint Paul School, Geeta Bhavan, Lalaram Nagar, Indore","mobile":9893243012,"ward_no":"48","ward_name":"GITA BHAVAN"},{"latitude":22.71699032,"longitude":75.90497154,"amenity":"veterinary","type":"private","name":"Dr. Rajesh Kanungo Vet Clinic","name_hindi":"डॉ. राजेश कानूनगो वेट क्लिनिक","opening_hours":"Mo-Su 19:00-21:00","address":"44 A, Goyal Nagar, Sector A, Tilak Nagar","mobile":9425346498,"ward_no":"49","ward_name":"TILAKNAGAR"},{"latitude":22.71724457,"longitude":75.89851751,"amenity":"veterinary","type":"private","name":"Dr. Sandeep Nanavati's Pet Clinic","name_hindi":"डॉ. संदीप नानावतीस पेट क्लिनिक","opening_hours":"Mo-Sa 19:00-21:00, Su 8:00-10:00","address":"304,Tilak Nagar,Near Shvetambar Jain Mandir,Sector A,Indore","mobile":9826013667,"ward_no":"49","ward_name":"TILAKNAGAR"},{"latitude":22.71744351,"longitude":75.8751412,"amenity":"veterinary","type":"private","name":"Goswami Dr Gopalgiri Ishwargiri","name_hindi":"गोस्वामी डॉ. गोपालगिरी ईश्वरगिरी","opening_hours":"Mo-Sa 11:00-15:00","address":"58, Swarna Vatika, South Tukoganj, Sriram Nagar, Indore","mobile":9425380061,"ward_no":"55","ward_name":"SAUTH TUKOGANJ"},{"latitude":22.72843678,"longitude":75.8675837,"amenity":"veterinary","type":"public","name":"Government Veterinary Hospital And Polyclinic","name_hindi":"गवर्नमेंट वेटरनरी हॉस्पिटल एंड पालीक्लिनिक","opening_hours":"Mo-Su 07:00-18:00","address":"Patthar Godam Road, Below Rajkumar Bridge, Snehlataganj,Indore","mobile":7312543312,"ward_no":"56","ward_name":"SNEHALATA GANJ"},{"latitude":22.72865102,"longitude":75.89432408,"amenity":"veterinary","type":"private","name":"Interpet The Pets Clinic","name_hindi":"इंटेरपेट द पेट्स क्लिनिक","opening_hours":"Mo-Sa 10:00-21:00","address":"59, Shrinagar, Anand Bazar Rd, Square, Indore","mobile":9826018283,"ward_no":"43","ward_name":"SHRINAGAR"},{"latitude":22.71526708,"longitude":75.87396569,"amenity":"veterinary","type":"private","name":"Jain Cow Urine Therapy Health Clinic","name_hindi":"#N/A","opening_hours":"Mo-Sa 11:00-16:30","address":"165,Rnt Marg,Indore","mobile":7313069100,"ward_no":"55","ward_name":"SAUTH TUKOGANJ"},{"latitude":22.75767345,"longitude":75.9058327,"amenity":"veterinary","type":"private","name":"My Pet Clinic","name_hindi":"माय पेट क्लीनिक","opening_hours":"Mo-Sa 15:00-21:00","address":"Shilmala Building,Sch No 94","mobile":8980677159,"ward_no":"37","ward_name":"SAI KRUPA"},{"latitude":22.69752396,"longitude":75.83512088,"amenity":"veterinary","type":"public","name":"Myra Pet Clinic","name_hindi":"मायरा पेट क्लिनिक","opening_hours":"Mo-Sa 10:00-20:00","address":"393 Usha Nagar Ext.","mobile":9826742678,"ward_no":"71","ward_name":"DRAVID NAGAR"},{"latitude":22.7445892,"longitude":75.81735089,"amenity":"veterinary","type":"public","name":"Nagariya Pashu Palan Upkendra","name_hindi":"नगरीय पशु पालन केंद्र","opening_hours":"Mo-Sa 10:00-14:00","address":"Vill. Chotta Bangadaa, Dist.Indore","mobile":8966931520,"ward_no":"16","ward_name":"NANDBAG"},{"latitude":22.68759429,"longitude":75.82545952,"amenity":"veterinary","type":"private","name":"Panacea Veterinary Clinic","name_hindi":" पनासिया वेटरनरी क्लिनिक","opening_hours":"24/7","address":"3070 E, Near Dutt Mandir, Hawa Bangla Road, Sudhama Nagar, Indore","mobile":9630809656,"ward_no":"82","ward_name":"SUDAMA NAGAR"},{"latitude":22.68004503,"longitude":75.82882909,"amenity":"veterinary","type":"private","name":"Paresh Kumar Jain","name_hindi":"परेश कुमार जैन","opening_hours":"Mo-Fr 09:00-20:00","address":"104,Siddhipuram Colony,Indore","mobile":9406627998,"ward_no":"81","ward_name":"ANNAPURNA"},{"latitude":22.73055175,"longitude":75.89894541,"amenity":"veterinary","type":"private","name":"Pet Aid Clinic","name_hindi":"पेट एयड क्लीनिक","opening_hours":"Mo-Sa 09:00-19:00","address":"Ug5 Khajrana Main Road","mobile":"098270 48269","ward_no":"43","ward_name":"SHRINAGAR"},{"latitude":22.70661818,"longitude":75.906494,"amenity":"veterinary","type":"private","name":"Pet Clinic","name_hindi":"पेट क्लिनिक ","opening_hours":"Mo-Fr 12:00-21:00","address":"Fb -182, Scheme 94, Opposite To SBI Bank, Pipliyahana Square,Indore","mobile":9009686976,"ward_no":"41","ward_name":"KAILASHPURI"},{"latitude":22.68154171,"longitude":75.82857805,"amenity":"veterinary","type":"private","name":"Petvet Veterinary Clinic","name_hindi":"पेटवेट वेटरनरी क्लिनिक","opening_hours":"Mo-Fr 08:00-09:00;18:00-21:00, Sa-Su 10:00-14:00","address":"18-A,Surya Dev Nagar,Indore","mobile":9827092475,"ward_no":"81","ward_name":"ANNAPURNA"},{"latitude":22.70253932,"longitude":75.83962094,"amenity":"veterinary","type":"public","name":"Shaskiya Pashu sangralay","name_hindi":"शस्किया पशू संग्रलाय","address":"Ranjeet Hanuman Road","ward_no":"71","ward_name":"DRAVID NAGAR"},{"latitude":22.70390243,"longitude":75.83999917,"amenity":"veterinary","type":"public","name":"Veternery Hospital","name_hindi":"पशु चिकित्सालय","opening_hours":"24/7","address":"Mog Lines","ward_no":"71","ward_name":"DRAVID NAGAR"}]}