{"IMC":[{"latitude":22.72981171030551,"longitude":75.87748867459595,"precision":5,"amenity":"IMC office","name":"Dr Bhimrao Ambedkar Zonal Office No. 90","name_hindi":"डॉ भीमराव अंबेडकर जोनल कार्यालय क्रमांक 9 नगर पालिका निगम इंदौर","address":"Zonal Office, Race Course Road, In Front Of Mp Fertility Centre, Indore","phone":"07314986513","opening_hours":"24/7","personnel_count":170,"wardNo":"047","wardName":"SARDAR VALLABHBHAI"},{"latitude":22.726435,"longitude":75.84467500000001,"precision":1,"amenity":"IMC office","name":"Zonal Office -Zone No 1","name_hindi":"झोनल कार्यालय - झोन क्रमांक 1","address":"Kila Maidan Road","phone":"07312410120","opening_hours":"Mo-Fr10:30-17:30","personnel_count":170,"wardNo":"009","wardName":"VRINDAVAN"},{"latitude":22.76189615,"longitude":75.88448575,"precision":3.216,"amenity":"IMC office","name":"M.P Pollution Control Board Indore","name_hindi":"मध्य प्रदेश पॉल्युश। कंट्रोल बोर्ड","opening_hours":"Mon-fri 10-5 p.m","personnel_count":15,"wardNo":"032","wardName":"ATAL BIHARI VAJPEYI"}]}