{"Pharmacy":[{"latitude":22.74754855,"longitude":75.90030815,"precision":4.5509996,"amenity":"pharmacy","name":"Tarun Medical","name_hindi":"तरुण मेडिकल","adress":"102, Adarsh Meghdoot Nagar","mobile":9826271509,"wardNo":"031","wardName":"MAHARAJA CHATRASAL"},{"latitude":22.74321738,"longitude":75.89859277,"precision":4.5509996,"amenity":"pharmacy","name":"Ambika Medicose","name_hindi":"अम्बिका मेडिकोज","mobile":9713775655,"opening_hours":"Sa-Su 10:00-14:00;17:00-22:00","wardNo":"030","wardName":"SANT RAVIDAS"},{"latitude":22.74205429,"longitude":75.895714,"precision":4.5509996,"amenity":"pharmacy","name":"Life Care Medicose ","name_hindi":"लाइफ केयर मेडिकोज","adress":"Malviya Square, Colony No. 2,Mr-9","mobile":"8817701503","opening_hours":"Sa-Su 09:30-14:00;17:00-22:30","wardNo":"030","wardName":"SANT RAVIDAS"},{"latitude":22.74246247,"longitude":75.89494263,"precision":4.5509996,"amenity":"pharmacy","name":"Homeopathic Medical","name_hindi":"होम्योपैथिक दवाइयां","adress":"A-3, Chandra Nagar, Mr-9 ","mobile":"9826868297","opening_hours":"Sa-Su 10:30-12:30;19:00-21:00","wardNo":"044","wardName":"H.I.G."},{"latitude":22.74254808,"longitude":75.89502556,"precision":6.068,"amenity":"pharmacy","name":"Mitrushi Medical Stores","name_hindi":"मित्रुशी मेडिकल स्टोर्स","adress":"A-33, Chandra Nagar","mobile":"9981255455","opening_hours":"Mo-Sa 10:00-14:00;17:00-22:00","wardNo":"044","wardName":"H.I.G."},{"latitude":22.74328523,"longitude":75.89580775,"precision":4.5509996,"amenity":"pharmacy","name":"Agrawal Medical ","name_hindi":"अग्रवाल मेडिकल","adress":"124/1 Malviya Nagar","mobile":"9165600020","opening_hours":"Sa-Su 09:00-15:00;17:00-22:00","wardNo":"030","wardName":"SANT RAVIDAS"},{"latitude":22.72794656666667,"longitude":75.89418835,"precision":8,"amenity":"pharmacy","name":"Ayurvedic Medicines","name_hindi":"आयुर्वेदिक मेडिसिंस","adress":"Sneh Corner, 17-B, Bima Nagar, Anand Bazaar Chouraha","wardNo":"043","wardName":"SHRINAGAR"},{"latitude":22.72902006666667,"longitude":75.8944018,"precision":7,"amenity":"pharmacy","name":"Isha Chemist","name_hindi":"ईशा केमिस्ट","adress":"Anand Bazaar Main Road","phone":7314061879,"wardNo":"043","wardName":"SHRINAGAR"},{"latitude":22.7297692,"longitude":75.89742419999999,"precision":8,"amenity":"pharmacy","name":"Divani Medical Shopee","name_hindi":"दिव्यानि मेडिकल शॉप","adress":"Shop No. 3 Mahadev Regency Shri Nagar Extension Khajrana Main Road ","phone":7314280880,"mobile":"9754550966","opening_hours":"Mo-Sa 9:00-21:00","wardNo":"043","wardName":"SHRINAGAR"},{"latitude":22.72811501,"longitude":75.8943503,"precision":4.5509996,"amenity":"pharmacy","name":"Rx Aushadhi","name_hindi":"आर एकस औषधि","adress":"Shop No. 3 Shekher Corner 77 Shrinagar,Anand Bazar Square ,Indore","mobile":"9109141021","opening_hours":"Mo-Sa 9:00-22:00;Su 12:00-22:00","wardNo":"043","wardName":"SHRINAGAR"},{"latitude":22.73264312,"longitude":75.89429445,"precision":4.5509996,"amenity":"pharmacy","name":"Rehan Chemist","name_hindi":"रेहान केमिस्ट","adress":"32-A Anoop Nagar,Indore","mobile":"9893420653","opening_hours":"24/7","wardNo":"043","wardName":"SHRINAGAR"},{"latitude":22.72818852,"longitude":75.89479377,"precision":4.5509996,"amenity":"pharmacy","name":"Shree Giriraj Medical","name_hindi":"श्री गिरिराज मेडिकल","adress":"Ug-7,Ronak Towar,Anand Bazar,Indore","mobile":"9826800096","opening_hours":"Mo-Sa 10:00-22:00","wardNo":"043","wardName":"SHRINAGAR"},{"latitude":22.74054249,"longitude":75.89732165,"precision":3.216,"amenity":"pharmacy","name":"Lucky Medical","name_hindi":"लकी मेडिकल","adress":"Barfani Dham, Indore","mobile":"9977721118","opening_hours":"Mo-Su 09:00 - 23:00","wardNo":"030","wardName":"SANT RAVIDAS"},{"latitude":22.73804978,"longitude":75.89614292,"precision":4.288,"amenity":"pharmacy","name":"Agrawal Medical Store","name_hindi":"अग्रवाल मेडिकल स्टोर्स","adress":"644,Krishna Bagh Colony","mobile":"7000886100","email":"rameshbhati129@gmail.com","opening_hours":"Mo-Sa 9:30-23:00","wardNo":"030","wardName":"SANT RAVIDAS"},{"latitude":22.73363487,"longitude":75.88985408,"precision":9,"amenity":"pharmacy","name":"Jai. Homeo Pharmacy","name_hindi":"जय होमियो फार्मेसी","adress":"21/1 Lig Chauraha,A. B.Road Opp.Life Line Hospital","mobile":"9993103476","wardNo":"045","wardName":"DR. BHIMRAO AMBEDAR"},{"latitude":22.73228321,"longitude":75.89032067,"precision":5,"amenity":"pharmacy","name":"Life Means","name_hindi":"लाइफ मीन्स","adress":"11/6 Anoop Nagar,Opp.Chl Hospital,A. B.Road","phone":"07314003949","mobile":"9039050441","opening_hours":"Mo-Sa 9:30-22:00; Su 9:30-14:00","wardNo":"043","wardName":"SHRINAGAR"},{"latitude":22.73376595,"longitude":75.88973505,"precision":5,"amenity":"pharmacy","name":"Patel Medical Store","name_hindi":"पटेल मेडिकल स्टोर","adress":"Lig Corner","wardNo":"045","wardName":"DR. BHIMRAO AMBEDAR"},{"latitude":22.7340533,"longitude":75.88943303,"precision":5,"amenity":"pharmacy","name":"Savita Medicose","name_hindi":"सविता मेडिकोसे","mobile":"9826590033","wardNo":"045","wardName":"DR. BHIMRAO AMBEDAR"},{"latitude":22.73341217,"longitude":75.88687297,"precision":5,"amenity":"pharmacy","name":"Rama Medical Stores","name_hindi":"रमा मेडिकल स्टोर्स","wardNo":"045","wardName":"DR. BHIMRAO AMBEDAR"},{"latitude":22.7336046,"longitude":75.88664067,"precision":5,"amenity":"pharmacy","name":"Prakash Medical Store","name_hindi":"प्रकाश मेडिकल स्टोर","adress":"B-2 Mig Colony","wardNo":"045","wardName":"DR. BHIMRAO AMBEDAR"},{"latitude":22.74116762,"longitude":75.89731019,"precision":4.5509996,"amenity":"pharmacy","name":"Pratibha Medical","name_hindi":"प्रतिभा मेडिकल","adress":"221, Barfani Nagar","mobile":"9993065113","email":"mayank21436@gmail.com","opening_hours":"Mo-Sa 09:00-13:00 ; 17:00-22:00 ; Su 09:00-13:00","wardNo":"030","wardName":"SANT RAVIDAS"},{"latitude":22.74068277,"longitude":75.89732484,"precision":4.5509996,"amenity":"pharmacy","name":"Aditya Medical Store","name_hindi":"आदित्य मेडिकल स्टोर","adress":"254, Barfani Nagar,Indore","mobile":"9754039781","opening_hours":"Mo-Sa 10:00-14:00 ; 17:00-22:00","wardNo":"030","wardName":"SANT RAVIDAS"},{"latitude":22.73607955,"longitude":75.89549876,"precision":4.5509996,"amenity":"pharmacy","name":"M.R.S Pharmacy","name_hindi":"एम आर एस फार्मेसी","adress":"211/2 Malviya Nagar","mobile":"8889920066","opening_hours":"Mo-Su 09:30-10:30","wardNo":"030","wardName":"SANT RAVIDAS"},{"latitude":22.74210604,"longitude":75.8957614,"precision":4.5509996,"amenity":"pharmacy","name":"Life Care Medicose","name_hindi":"लाईफ केयर मेडिकोज","adress":"Gali No.2 Malviya Nagar Square, Indore","mobile":"8319255857","opening_hours":"Mo-Su 10:00-14:00 ; 17:00-22:30","wardNo":"030","wardName":"SANT RAVIDAS"},{"latitude":22.75814885,"longitude":75.90185987,"precision":6.068,"amenity":"pharmacy","name":"A.B Medicose","name_hindi":"ए.बी मेडिकोज","adress":"G-7 Amar Aangan, Basant Vihar, Indore","mobile":"9826091156","opening_hours":"Mo-Sa 10:00-22:00 ; Su 10:00-14:00 ; 17:00-22:00","wardNo":"031","wardName":"MAHARAJA CHATRASAL"},{"latitude":22.73785023,"longitude":75.89807494,"precision":4.5509996,"amenity":"pharmacy","name":"Samir Medical","name_hindi":"समीर मेडिकल","adress":"440, Krishna Bagh Colony, Indore","mobile":"9893113317","opening_hours":"Mo-Su 09:00-13:30 ; 17:00-22:30","wardNo":"030","wardName":"SANT RAVIDAS"},{"latitude":22.76106967,"longitude":75.90557635,"precision":4.5509996,"amenity":"pharmacy","name":"Universal Medical","name_hindi":"यूनिवर्सल मेडिकल","adress":"Wb-22, Scheme No. 94, Indore","phone":"07314047056","opening_hours":"24/7","wardNo":"031","wardName":"MAHARAJA CHATRASAL"},{"latitude":22.74012821,"longitude":75.88114872,"precision":5,"amenity":"pharmacy","name":"Anand Medical","name_hindi":"आनंद औषधि","adress":"Patni Pura Square","opening_hours":"Sunrise -Sunset","wardNo":"025","wardName":"NANDA NAGAR"},{"latitude":22.73910898,"longitude":75.88049425,"precision":5,"amenity":"pharmacy","name":"Sunita Medicos","name_hindi":"सुनीता मेडिकोज","opening_hours":"Mo - Fr 10:00 - 22:30","wardNo":"026","wardName":"JEEN MATA"},{"latitude":22.73925926,"longitude":75.88196453,"precision":5,"amenity":"pharmacy","name":"Balaji Medical","name_hindi":"बालाजी मेडिकल","adress":"Jagjivan Ram Nagar","opening_hours":"Mo - Su 10:00-14:00;17:00-22:30","wardNo":"044","wardName":"H.I.G."},{"latitude":22.73410668130964,"longitude":75.87484845891595,"precision":5,"amenity":"pharmacy","name":"New Manjeet Chemist","name_hindi":" न्यू मनजीत केमिस्ट","adress":"Plot No. 30, Scheme Number 91, Malwa Mill Chauraha, Indore","phone":"07312431212","mobile":"9424700000","email":"newmanjeetchemist.1959@gmail.com","opening_hours":"mo-su 09:30-22:30","wardNo":"047","wardName":"SARDAR VALLABHBHAI"},{"latitude":22.7318577747792,"longitude":75.87470076978207,"precision":8,"amenity":"pharmacy","name":"Malwa Medicose","name_hindi":"मालवा मेडिकोज","adress":"19/1 Yashwant Niwas Road, Silver Estate Minal Shree","opening_hours":"09:00- 13:30 ; 17:00- 21:30","wardNo":"047","wardName":"SARDAR VALLABHBHAI"},{"latitude":22.73666541,"longitude":75.88451295,"precision":5,"amenity":"pharmacy","name":"Greater Gate Whale Pharmacy","name_hindi":"\nग्रेटर गेट व्हेल नर्सिंग होम","adress":"Nehru Nagar","opening_hours":"Sunrise-sunset","wardNo":"045","wardName":"DR. BHIMRAO AMBEDAR"},{"latitude":22.73307210300118,"longitude":75.87598336860538,"precision":5,"amenity":"pharmacy","name":"Yash Medicose","name_hindi":"यश मेडिकोज","adress":"R.S Bhandari Marg, Near Malwa Mill","mobile":"9425312149","opening_hours":"mo-su 10:00 13:00; 17:00-23:00","wardNo":"047","wardName":"SARDAR VALLABHBHAI"},{"latitude":22.73328374605626,"longitude":75.87579276412725,"precision":5,"amenity":"pharmacy","name":"Anurag Medicose","name_hindi":"अनुराग मेडिकोज","adress":"91 Y.N Road Chanakya Complex","mobile":"7354567668","email":"abhishek1khandelwal@gmail.com","opening_hours":"Mo-Su 09:00- 22:00","wardNo":"047","wardName":"SARDAR VALLABHBHAI"},{"latitude":22.73584249,"longitude":75.88378156,"precision":5,"amenity":"pharmacy","name":"Shri Ram Medical Stores","name_hindi":"श्री राम मेडिकल स्टोर्स","adress":"Nehru Nagar","opening_hours":"Mo-Sa 10:30-22:00","wardNo":"026","wardName":"JEEN MATA"},{"latitude":22.73667565,"longitude":75.88566004,"precision":5,"amenity":"pharmacy","name":"New Archana Medicals","name_hindi":"नई अर्चना मेडिकल","adress":"Nehru Nagar","opening_hours":"24/7","wardNo":"044","wardName":"H.I.G."},{"latitude":22.73353050928563,"longitude":75.8756211027503,"precision":6,"amenity":"pharmacy","name":"Chhotelal Dadupanthi","name_hindi":"छोटेलाल दादूपंथी","adress":"11/2 Chanakya Complex, Near Malwa Mill, Indore","phone":"07312533812","opening_hours":"mo-sa 10:30-14:30 18:30-21:00; su 10:00-14:00","wardNo":"047","wardName":"SARDAR VALLABHBHAI"},{"latitude":22.7288417564705,"longitude":75.8792613632977,"precision":9,"amenity":"pharmacy","name":"Yadav Medical Store","name_hindi":"यादव मेडिकल स्टोर ","adress":"72, Dr R S Bhandari Marg, Indore","mobile":"9827395765","opening_hours":"Mo-Sa 10:00-23:59","wardNo":"047","wardName":"SARDAR VALLABHBHAI"},{"latitude":22.72919681388885,"longitude":75.87925415486097,"precision":5,"amenity":"pharmacy","name":"Yanish Medicose","name_hindi":" यनिश मेडिकोज","adress":"144, R S Bhandari Marg, Indore","mobile":"9893766640","opening_hours":"mo-sa 09:30-22:30","wardNo":"047","wardName":"SARDAR VALLABHBHAI"},{"latitude":22.72741021122783,"longitude":75.88062576949596,"precision":8,"amenity":"pharmacy","name":"Kirti Chemist","name_hindi":" कीर्ति केमिस्ट","adress":"7 Municipal Market, Dr R S Bhandari Marg, Indore","mobile":"9826717351","opening_hours":"mo-sa 09:00- 22:00","wardNo":"046","wardName":"SOMNATH"},{"latitude":22.73475732,"longitude":75.88822223,"precision":5,"amenity":"pharmacy","name":"Rudrapbir Medical Stores","name_hindi":"रुद्रबीर मेडिकल स्टोर्स","adress":"Agrawal Plaza Nehru Nagar Main Road","opening_hours":"Mo-fr 11:00-20:00","wardNo":"045","wardName":"DR. BHIMRAO AMBEDAR"},{"latitude":22.73398279,"longitude":75.88923849,"precision":5,"amenity":"pharmacy","name":"Savita Medicals","name_hindi":"सविता चिकित्सा","adress":"Nehru Nagar Main Road","opening_hours":"Mo - Su 10:00-21:00","wardNo":"045","wardName":"DR. BHIMRAO AMBEDAR"},{"latitude":22.73375922,"longitude":75.88981141,"precision":5,"amenity":"pharmacy","name":"Patel Medical Stores","name_hindi":"पटेल मेडिकल स्टोर","adress":"Nehru Nagar Main Road","wardNo":"045","wardName":"DR. BHIMRAO AMBEDAR"},{"latitude":22.73389433,"longitude":75.88975588,"precision":5,"amenity":"pharmacy","name":"Maya Medicos","name_hindi":"माया मेडिकोज","adress":"Nehru Nagar Main Road","opening_hours":"Mo - Su 10:00-10:00","wardNo":"045","wardName":"DR. BHIMRAO AMBEDAR"},{"latitude":22.73411731,"longitude":75.8897008,"precision":5,"amenity":"pharmacy","name":"Pulse Pharmacy","name_hindi":"पल्स फार्मेसी","adress":"Nehru Nagar Main Road","mobile":"9926328318","opening_hours":"Mo-Sa 10:00-22:00","wardNo":"045","wardName":"DR. BHIMRAO AMBEDAR"},{"latitude":22.74379211,"longitude":75.8777183,"precision":4.5509996,"amenity":"pharmacy","name":"Laxmi Medical","name_hindi":"लक्ष्मी मेडिकल","adress":"404/26 ,Dubey Colony,Nanda Nagar,Indore","mobile":"9755377684","opening_hours":"Mo-Su 10:00 -22:00","wardNo":"025","wardName":"NANDA NAGAR"},{"latitude":22.74234531,"longitude":75.87669985,"precision":4.5509996,"amenity":"pharmacy","name":"Satyasai Medical","name_hindi":"सत्यसाई मेडिकल","adress":"48/1,Nanda Nagar","mobile":"9993819319","opening_hours":"Mo-Su 09:00-23:00","wardNo":"025","wardName":"NANDA NAGAR"},{"latitude":22.74966175,"longitude":75.87410108,"precision":4.5509996,"amenity":"pharmacy","name":"Perfect Medical Store","name_hindi":"परफेक्ट मेडिकल स्टोर","adress":"331,Clerk Colony,I.T.I Square,Indore","mobile":"9926412139","opening_hours":"Mo-Sa 10:00-22:00","wardNo":"023","wardName":"SWARGIYA RAJESH JOSHI"},{"latitude":22.74970031,"longitude":75.87422677,"precision":4.5509996,"amenity":"pharmacy","name":"Akshay Medical Store","name_hindi":"अक्षय मेडिकल स्टोर","adress":"330,Clerk Colony,I.T.I Square,Indore","mobile":"9977753278","opening_hours":"Mo-Su 09:00-21:00","wardNo":"023","wardName":"SWARGIYA RAJESH JOSHI"},{"latitude":22.74966756,"longitude":75.87424648,"precision":4.5509996,"amenity":"pharmacy","name":"Chanchal Medicare Store","name_hindi":"चंचल मेडिकेयर स्टोर","adress":"328,Clerk Colony,I.T.I Square,Indore","mobile":"9644500024","opening_hours":"Mo-Su 11:00-21:00","wardNo":"023","wardName":"SWARGIYA RAJESH JOSHI"},{"latitude":22.74801817,"longitude":75.87722377,"precision":4.5509996,"amenity":"pharmacy","name":"Medicine House","name_hindi":"मेडिसिन हाउस","adress":"58/11,Nanda Nagar,Indore","mobile":"8770833155","opening_hours":"Mo-Su 09:00-20:00","wardNo":"025","wardName":"NANDA NAGAR"},{"latitude":22.74235213,"longitude":75.87641968,"precision":4.5509996,"amenity":"pharmacy","name":"Shubham Medical Stores","name_hindi":"शुभम मेडिकल स्टोर","adress":"Nanda Nagar Main Road,Indore","mobile":"9229422295","opening_hours":"Mo-Su 10:00-15:00;18:00-20:00","wardNo":"025","wardName":"NANDA NAGAR"},{"latitude":22.74241513,"longitude":75.87620555,"precision":4.5509996,"amenity":"pharmacy","name":"Shri Ji Medical","name_hindi":"श्री जी मेडिकल","adress":"Nanda Nagar Main Road,Opp. Syndicate Bank,Indore","mobile":"9893633193","opening_hours":"Mo-Su 10:00-23:00","wardNo":"025","wardName":"NANDA NAGAR"},{"latitude":22.7426305,"longitude":75.87584317,"precision":4.5509996,"amenity":"pharmacy","name":"Shri Karthik Medical","name_hindi":"श्री कार्तिक मेडिकल","adress":"S.S 61,Stadium Ground Road,Nanda Nagar,Indore","mobile":"9977348667","opening_hours":"Mo-Su 07:00-23:00","wardNo":"025","wardName":"NANDA NAGAR"},{"latitude":22.74385709,"longitude":75.8738088,"precision":4.5509996,"amenity":"pharmacy","name":"Mamta Medicos","name_hindi":"ममता मेडिकोज","adress":"1/1,Teen Pulia,Nanda Nagar Main Road,Indore","mobile":"9425910477","opening_hours":"Mo-Su 09:00-22:00","wardNo":"024","wardName":"SANT BALAJI ATH MAHARAJ"},{"latitude":22.74415078,"longitude":75.8733679,"precision":4.5509996,"amenity":"pharmacy","name":"Sneh Chemist","name_hindi":"स्नेह केमिस्ट","adress":"4-C,Subhash Nagar,Indore","phone":"07312542719","opening_hours":"Mo-Su 10:00-21:30","wardNo":"024","wardName":"SANT BALAJI ATH MAHARAJ"},{"latitude":22.74281767,"longitude":75.87095201,"precision":4.5509996,"amenity":"pharmacy","name":"Kanji Medical Store","name_hindi":"कांजी मेडिकल स्टोर","adress":"14,Shopping Complex,Subhash Nagar,Indore","mobile":"7223827026","opening_hours":"Mo-Su 10:00-22:30","wardNo":"024","wardName":"SANT BALAJI ATH MAHARAJ"},{"latitude":22.74330348,"longitude":75.87074647,"precision":4.5509996,"amenity":"pharmacy","name":"Vinit Medicos","name_hindi":"विनीत मेडिकोज","adress":"1/1,Subhash Nagar Square, Indore","opening_hours":"Mo-Su 08:00-01:00","wardNo":"023","wardName":"SWARGIYA RAJESH JOSHI"},{"latitude":22.74475904,"longitude":75.87141275,"precision":4.5509996,"amenity":"pharmacy","name":"Kailash Medicos","name_hindi":"कैलाश मेडिकोज","adress":"34/1,Pardesipura,Indore","phone":"07312545860","mobile":"9300745829","opening_hours":"Mo-Su 10:00-22:00","wardNo":"023","wardName":"SWARGIYA RAJESH JOSHI"},{"latitude":22.74497008,"longitude":75.87156,"precision":4.5509996,"amenity":"pharmacy","name":"Agrwal Medical Store","name_hindi":"अग्रवाल मेडिकल स्टोर","adress":"Paresipura Square,Indore","mobile":"9827283572","opening_hours":"Mo-Su 09:00-23:30","wardNo":"023","wardName":"SWARGIYA RAJESH JOSHI"},{"latitude":22.7451682,"longitude":75.87159522,"precision":4.5509996,"amenity":"pharmacy","name":"Amit Medical","name_hindi":"अमित मेडिकल","adress":"Pardesipura Main Square,Indore","mobile":"9826221002","opening_hours":"Mo-Su 09:00-00:00","wardNo":"023","wardName":"SWARGIYA RAJESH JOSHI"},{"latitude":22.74781827,"longitude":75.87264919,"precision":4.5509996,"amenity":"pharmacy","name":"Shri Som Medical Store","name_hindi":"श्री सोम मेडिकल स्टोर","adress":"Clerk Colony","mobile":"9893352736","opening_hours":"Mo-Su 09:00-22:30","wardNo":"023","wardName":"SWARGIYA RAJESH JOSHI"},{"latitude":22.74834599,"longitude":75.87010863,"precision":4.5509996,"amenity":"pharmacy","name":"Sainath Medicos","name_hindi":"साईनाथ मेडिकोज","adress":"432-B,Pardesipura,Indore","mobile":"9993096638","opening_hours":"Mo-Su 10:00-21:30","wardNo":"023","wardName":"SWARGIYA RAJESH JOSHI"},{"latitude":22.72976166666666,"longitude":75.87014,"precision":4,"amenity":"pharmacy","name":"Anil Medicose","name_hindi":"अनिल मेङिकोज़","adress":"63, New Dewas Road","mobile":"9993563130","opening_hours":"Mo-Sa8:30-13:00; 16:00-22:00 ;Su8:30-12:00","wardNo":"047","wardName":"SARDAR VALLABHBHAI"},{"latitude":22.731755,"longitude":75.87295999999999,"precision":4.2,"amenity":"pharmacy","name":"New Jai Minesh Medical Store","name_hindi":" न्यू जय मीनेश मेङिकल स्टोर","adress":"55, New Dewas Road","mobile":"6267369390","opening_hours":"Mo-Su11:00-23:00","wardNo":"047","wardName":"SARDAR VALLABHBHAI"},{"latitude":22.74244728,"longitude":75.88339004,"precision":4.288,"amenity":"pharmacy","name":"Divya Medicose","name_hindi":"दिवया ","adress":"Near Nanda Nagar","phone":"07314022807","opening_hours":"Mo-Su 09:00-13:00;18:00-21:00","wardNo":"028","wardName":"MA TULJA BHAVANI"},{"latitude":22.74056204,"longitude":75.88142725,"precision":3.216,"amenity":"pharmacy","name":"Suyag Medicose","name_hindi":"सुय मेडिकल","opening_hours":"Mo-Su 10:00-22:00","wardNo":"025","wardName":"NANDA NAGAR"},{"latitude":22.74034376,"longitude":75.88128748,"precision":3.216,"amenity":"pharmacy","name":"Sahil Medical","name_hindi":"साहिल मेडिकल","adress":"70/12 Nanda Nagar Square","mobile":"9425032445","opening_hours":"Mo -Su09:30-14:00;16:00-20:00","wardNo":"025","wardName":"NANDA NAGAR"},{"latitude":22.739228,"longitude":75.88226977,"precision":9.648001,"amenity":"pharmacy","name":"Pradhan Mantri Jan Aushadhi Kendra","name_hindi":"प्रधानमंत्री जनऔषधि केंद्र","adress":"Patnipura Mig Road","mobile":"8516913376","email":"rathoreraj@outlook.com","opening_hours":"Mo-Sa 10:30-22:00","wardNo":"044","wardName":"H.I.G."},{"latitude":22.73929977,"longitude":75.8804008,"precision":3.216,"amenity":"pharmacy","name":"Asha Medical","name_hindi":"आशा मेडिकल ","adress":"75/12 Patnipura Main Road Indore","mobile":"9893940594","opening_hours":"Mo-Su 09:00-00:30;","wardNo":"025","wardName":"NANDA NAGAR"},{"latitude":22.73927116,"longitude":75.88048627,"precision":9.648001,"amenity":"pharmacy","name":"Shiv Medical","name_hindi":"शिव चिकित्सा","adress":"74/12 Patni Pura Main Road","mobile":"9893734118","opening_hours":"Mo-Sa 09:30-14:30;17:00-23:00","wardNo":"025","wardName":"NANDA NAGAR"},{"latitude":22.73948738,"longitude":75.88055857,"precision":4.288,"amenity":"pharmacy","name":"Manish Medical","name_hindi":"मनीष मेडिकल","adress":"80/12Patnipura Square","mobile":"9407177714","email":"manishilu007@gmail.com","opening_hours":"Mo-Su 11:00-23:00","wardNo":"025","wardName":"NANDA NAGAR"},{"latitude":22.73897673,"longitude":75.88235717,"precision":4.288,"amenity":"pharmacy","name":"Deepali Pharma","name_hindi":"दीपाली फार्मा","adress":"11/1 Jjr Nagar  Near Patnipura Indore","phone":"0731200510","opening_hours":"Mo-Sa 10:00-22:00","wardNo":"044","wardName":"H.I.G."},{"latitude":22.73891189,"longitude":75.88247169,"precision":3.216,"amenity":"pharmacy","name":"Vip Medicos","name_hindi":"वीआईपी मेडिकोज","adress":"13/2 Jagjivan Ram Nagar","wardNo":"044","wardName":"H.I.G."},{"latitude":22.73883985,"longitude":75.88252696,"precision":3.216,"amenity":"pharmacy","name":"Geetanjali Medical Store","name_hindi":"गीतांजलि मेडिकल स्टोर","adress":"13 Jagjivan Nagar Indore","wardNo":"044","wardName":"H.I.G."},{"latitude":22.73421,"longitude":75.87487166666666,"precision":3.9,"amenity":"pharmacy","name":"Dilip Medical Store","name_hindi":"दिलीप मेङिकल स्टोर","adress":"11/12 New Dewas Road , Malwa Mill ,Indore","phone":"07312434177","mobile":"6265006694","opening_hours":"Mo-Su10:00-22:00","wardNo":"047","wardName":"SARDAR VALLABHBHAI"},{"latitude":22.73854427,"longitude":75.88306327,"precision":3.216,"amenity":"pharmacy","name":"Dr Burhanuddin Saifi Pharmacy","name_hindi":"डॉ। बुरहानुद्दीन सैफी फार्मेसी","adress":"14 Jagjivan Ram Nagar","mobile":"8269760606","opening_hours":"11:00-20:00","wardNo":"044","wardName":"H.I.G."},{"latitude":22.73657594,"longitude":75.8821737,"precision":3.216,"amenity":"pharmacy","name":"Kk Medical Store","name_hindi":"केके मेडिकल स्टोर","adress":"Nehru Nagar Indore","wardNo":"026","wardName":"JEEN MATA"},{"latitude":22.73748532,"longitude":75.88427084,"precision":3.216,"amenity":"pharmacy","name":"New Mahesh Medicos","name_hindi":"\nन्यू महेश मेडिकोज","adress":"Nehru Nagar","wardNo":"026","wardName":"JEEN MATA"},{"latitude":22.73347,"longitude":75.87589333333334,"precision":5,"amenity":"pharmacy","name":"Chetna Chemist","name_hindi":"चेतना केमिस्ट","adress":"9,Near Chanakya Complex Malwa Mill Square Indore","mobile":"9826358770","opening_hours":"Mo-Su 10:00-22:30","wardNo":"047","wardName":"SARDAR VALLABHBHAI"},{"latitude":22.73743194,"longitude":75.88533882,"precision":3.216,"amenity":"pharmacy","name":"Apna Medicos","name_hindi":"अपना मेडिकोस","adress":"Mig Colony Indore","wardNo":"044","wardName":"H.I.G."},{"latitude":22.73755908,"longitude":75.88533428,"precision":3.216,"amenity":"pharmacy","name":"Ratan Chemist","name_hindi":"रतन केमिस्ट","adress":"Mig Colony Indore","wardNo":"044","wardName":"H.I.G."},{"latitude":22.73390666666667,"longitude":75.87550666666667,"precision":5,"amenity":"pharmacy","name":"The Deepali Pharma","name_hindi":"द दीपाली फार्मा","adress":"42 / 19 Malwa Mill Square Indore","mobile":"8085400744","opening_hours":"Su-Fr 10:00-22:30","wardNo":"047","wardName":"SARDAR VALLABHBHAI"},{"latitude":22.73416146,"longitude":75.88958826,"precision":3.216,"amenity":"pharmacy","name":"Madan Medicos","name_hindi":"मदन मेडिकोज","adress":"Lig Square","wardNo":"045","wardName":"DR. BHIMRAO AMBEDAR"},{"latitude":22.73452486,"longitude":75.89013189,"precision":3.216,"amenity":"pharmacy","name":"Arogya Medicos","name_hindi":"आरोग्य मेडिकोज","adress":"Lig Square Chhoti Khajrani Indore","opening_hours":"Mo-Su 07:00-23:00","wardNo":"045","wardName":"DR. BHIMRAO AMBEDAR"},{"latitude":22.7485268,"longitude":75.86924264,"precision":4.5509996,"amenity":"pharmacy","name":"Shri Medical Store","name_hindi":"श्री मेडिकल स्टोर","adress":"Readymade Complex,Opp. White Temple,Indore ","mobile":"9111222389","opening_hours":"Mo-Su 10:00-21:30","wardNo":"023","wardName":"SWARGIYA RAJESH JOSHI"},{"latitude":22.74545644,"longitude":75.87091197,"precision":7.585,"amenity":"pharmacy","name":"Kapil Medical ","name_hindi":"कपिल मेडिकल","adress":"9/7, Pardesipura,Indore","mobile":"9826040306","opening_hours":"Mo-Su 10:00-23:00","wardNo":"023","wardName":"SWARGIYA RAJESH JOSHI"},{"latitude":22.74532985,"longitude":75.87131703,"precision":7.585,"amenity":"pharmacy","name":"New Citizen Medical Store","name_hindi":"न्यू सिटीजन मेडिकल स्टोर","adress":"3/5,Pardesipura,Indore","phone":"07312538881","wardNo":"023","wardName":"SWARGIYA RAJESH JOSHI"},{"latitude":22.74529456,"longitude":75.87163993,"precision":4.5509996,"amenity":"pharmacy","name":"Malik Medical","name_hindi":"मलिक मेडिकल","adress":"39/1,Pardesipura Square,Indore","phone":"07314030415","opening_hours":"Mo-Su 09:00-20:00","wardNo":"023","wardName":"SWARGIYA RAJESH JOSHI"},{"latitude":22.74169712,"longitude":75.87111998,"precision":4.5509996,"amenity":"pharmacy","name":"Shree Krishna Medical","name_hindi":"श्री कृष्णा मेडिकल","adress":"164,Subhash Nagar,Indore","mobile":"9630604286","opening_hours":"Mo-Su 10:00-21:30","wardNo":"024","wardName":"SANT BALAJI ATH MAHARAJ"},{"latitude":22.74162321,"longitude":75.87109691,"precision":6.068,"amenity":"pharmacy","name":"Shree Medical Store","name_hindi":"श्री मेडिकल स्टोर","adress":"61,Subhash Nagar,Indore","mobile":"9425311371","opening_hours":"Mo-Su 10:00-15:00;18:00-23:00","wardNo":"024","wardName":"SANT BALAJI ATH MAHARAJ"},{"latitude":22.73997271,"longitude":75.87134751,"precision":4.5509996,"amenity":"pharmacy","name":"Minakshi Medical","name_hindi":"मिताक्षी मेडिकल","adress":"24,Firoz Gandhi Nagar,Indore","mobile":"8224907968","opening_hours":"Mo-Su 10:00-22:00","wardNo":"024","wardName":"SANT BALAJI ATH MAHARAJ"},{"latitude":22.73927269969136,"longitude":75.88037515059114,"precision":6,"amenity":"pharmacy","name":"Asha Medicose","name_hindi":" आशा मेडिकोज","adress":"75/12 Patnipura Main Road, Indore","mobile":"9893940594","opening_hours":"mo-su 09:00-00:30","wardNo":"025","wardName":"NANDA NAGAR"},{"latitude":22.73915543686599,"longitude":75.8804564550519,"precision":5,"amenity":"pharmacy","name":"Sunita Medical","name_hindi":"सुनीता मेडिकल","adress":"49,50/12 Patnipura Square","opening_hours":"mo-su\n09:00-23:00","wardNo":"026","wardName":"JEEN MATA"},{"latitude":22.73095702,"longitude":75.88826721,"precision":7,"amenity":"pharmacy","name":"Chandrekha Pharmacy","name_hindi":"चंद्रारेखा","adress":"Phadnis Colony","opening_hours":"Mon-Sat 9:00-16:00","wardNo":"045","wardName":"DR. BHIMRAO AMBEDAR"},{"latitude":22.7423567,"longitude":75.89500362,"precision":4.5509996,"amenity":"pharmacy","name":"Matushree Medical Store","name_hindi":"मातुश्री मेडिकल स्टोर","adress":"A-33, Chandra Nagar, Indore","mobile":"9981255455","email":"mmsindore@rediffmail.com","opening_hours":"Mo-Su 10:00-23:00","wardNo":"044","wardName":"H.I.G."},{"latitude":22.73711459,"longitude":75.90090507,"precision":4.5509996,"amenity":"pharmacy","name":"Sumeru Medicose","name_hindi":"सुमेरु मेडिकोज","adress":"319, Swarn Bagh Colony, Indore","mobile":"9755805289","opening_hours":"Mo-Su 10:00-13:00 ; 18:00-22:00","wardNo":"037","wardName":"SAI KRUPA"},{"latitude":22.7416252,"longitude":75.90010484,"precision":4.5509996,"amenity":"pharmacy","name":"Kuldeep Medical","name_hindi":"कुलदीप मेडिकल","adress":"118, Hs Tower, Barfani Dham, Indore","mobile":"9977893248","opening_hours":"Mo-Su 10:30-24:00","wardNo":"030","wardName":"SANT RAVIDAS"},{"latitude":22.72680104,"longitude":75.88183711,"precision":6,"amenity":"pharmacy","name":"New Meera Chemist","name_hindi":"न्यू मीरा केमिस्ट","adress":"Krishna Tower, Janjeerwala","phone":"07314035012","mobile":"9806666718","email":"newmeerachemist@gmail.com","opening_hours":"Mon-Sat 8:30-23:00","wardNo":"043","wardName":"SHRINAGAR"},{"latitude":22.72674847,"longitude":75.88172339,"precision":6,"amenity":"pharmacy","name":"Rohit Chemist","name_hindi":"रोहित केमिस्ट","adress":"20/1 Janjeerwala","mobile":"8989699388","opening_hours":"Mon-sat 11:00-21:00","wardNo":"043","wardName":"SHRINAGAR"},{"latitude":22.7341229,"longitude":75.8896667,"precision":5,"amenity":"pharmacy","name":"Pulse Pharmacy","name_hindi":"पल्स फार्मा","adress":"Lig Square Main Road","phone":"07314072435","mobile":"9926328318","email":"pharmacypulse@gmail.com","opening_hours":"Mon-Sat 10:00-19:00","wardNo":"045","wardName":"DR. BHIMRAO AMBEDAR"},{"latitude":22.73398195,"longitude":75.88996179,"precision":5,"amenity":"pharmacy","name":"Maya Medicose","name_hindi":"माया मेडिकोज","adress":"Lig Square","opening_hours":"Mon-Sat 9:00-22:00","wardNo":"045","wardName":"DR. BHIMRAO AMBEDAR"},{"latitude":22.72726666666667,"longitude":75.86943,"precision":1.7,"amenity":"pharmacy","name":"Radha Govind And Company (Medicose And General Store)","name_hindi":"राधा गोविंद एण्ङ कम्पनी","adress":"44 45 46 Nagar Nigam Market Vallabh Nagar Indore","phone":"07314040656","email":"radhagovind@gmail.com","opening_hours":"Mo-Sa 11:00-20:00","wardNo":"047","wardName":"SARDAR VALLABHBHAI"},{"latitude":22.728425,"longitude":75.87493333333333,"precision":1.2,"amenity":"pharmacy","name":"S R Chemist","name_hindi":"एस आर केमिस्ट","adress":"Lg1 Prakash Tower, Race Course Road ","phone":"07312532755","mobile":"9826093820","opening_hours":"Mo-Sa 10:30-22:00","wardNo":"047","wardName":"SARDAR VALLABHBHAI"},{"latitude":22.731115,"longitude":75.87458666666666,"precision":2.6,"amenity":"pharmacy","name":"Shah Medicos","name_hindi":"शाह मेङिकोज़","adress":"6,Panchvati Apartment Yeshwant Niwas Road Indore","phone":"07312539013","opening_hours":"Mo-Sa 9:30-21:30","wardNo":"047","wardName":"SARDAR VALLABHBHAI"},{"latitude":22.736015,"longitude":75.87711666666668,"precision":1.6,"amenity":"pharmacy","name":"New Vinod Medical","name_hindi":"न्यु विनोद मेङिकल","adress":"228/12, Malwa Mill Near Bridge","mobile":"9893328111","opening_hours":"mo-su 10:00-23:00","wardNo":"026","wardName":"JEEN MATA"},{"latitude":22.739265,"longitude":75.88035666666666,"precision":2.1,"amenity":"pharmacy","name":"Shiv Medical","name_hindi":"शिव मेङिकल","adress":"76/12, Patnipura Square","mobile":"9893734118","opening_hours":"Mo-Su9:00-15:00 Mo-Sa17:00-23:00","wardNo":"025","wardName":"NANDA NAGAR"},{"latitude":22.7371115,"longitude":75.90083622,"precision":4.288,"amenity":"pharmacy","name":"Ashi Medicose","name_hindi":"आशी मेडिकोज","adress":"47-Swarn Bagh Colony,Indore","mobile":"9575746867","email":"golrajput110@gmail.com","opening_hours":"Mo-Su 09:00-13:00;18:00-22:30","wardNo":"037","wardName":"SAI KRUPA"},{"latitude":22.7407073,"longitude":75.90365968,"precision":4.288,"amenity":"pharmacy","name":"Kabir Medical Store","name_hindi":"कबीर मेडिकल स्टोर्स","adress":"1 Sawariya Nagar,Mr 9 Road,Indore","mobile":"9644442464","opening_hours":"Mo-Sa 10:00-22:00; Su 10:00-13:00","wardNo":"040","wardName":"KHAJRANA GANESH"},{"latitude":22.71887636,"longitude":75.89812341,"precision":4.288,"amenity":"pharmacy","name":"Jain Medical Store","name_hindi":"जैन मेडिकल दुकान","adress":"Shop No-209, Tilak Nagar Main Rd, Savindnagar, Tilak Nagar, Indore, ","mobile":"9669973877","opening_hours":"Mo-fr 8:00-22:00","wardNo":"049","wardName":"TILAKNAGAR"},{"latitude":22.71673466,"longitude":75.89570451,"precision":4.288,"amenity":"pharmacy","name":"Maa Santoshi Medical Store","name_hindi":"मां संतोषी मेडिकल दुकान","adress":"45-A Bakhtawar Ram Nagar,  Indore","mobile":"7898345601","opening_hours":"Mo-fr 10:00- 23: 00","wardNo":"049","wardName":"TILAKNAGAR"},{"latitude":22.71419121,"longitude":75.89589535,"precision":4.288,"amenity":"pharmacy","name":"Fiena General Store","name_hindi":"फ़ना सर्वोपयोगी वस्तुओं की दुकान","adress":"12, Paricharika Nagar, Sagar Appt. Indore","phone":"07314038828","mobile":"9827450438","opening_hours":"Mo-fr 10:00-23: 00","wardNo":"049","wardName":"TILAKNAGAR"},{"latitude":22.71295,"longitude":75.88428666666667,"precision":1.1,"amenity":"pharmacy","name":"Shree Medicose","name_hindi":"श्री मेङिकोज़","adress":"G/14 Regency Arcarde Navratn Bhag","mobile":"9926778383","email":"omprakash01@gmail.com","opening_hours":"Mo-Sa 9:00-21:00; Su 9:00-14:00","wardNo":"055","wardName":"SAUTH TUKOGANJ"},{"latitude":22.710545,"longitude":75.88795,"precision":1.4,"amenity":"pharmacy","name":"Soni Medicose","name_hindi":"सोनी मेङिकोज़","adress":"Robert Nursing Home, Old Sehore Old Indore","phone":"07312490222","email":"rahuldetta@gmail.com","opening_hours":"Mo-Su 8:00-22:00","wardNo":"055","wardName":"SAUTH TUKOGANJ"},{"latitude":22.70829236,"longitude":75.87579113,"precision":4.5509996,"amenity":"pharmacy","name":"Gupta Medical Store","name_hindi":"गुप्ता मेडिकल स्टोर","adress":"102 Rnt Marg,Chhawni,Indore","mobile":"9827300739","opening_hours":"Mo-Sa 9:00-21:00","wardNo":"055","wardName":"SAUTH TUKOGANJ"},{"latitude":22.70772373,"longitude":75.87536109,"precision":4.5509996,"amenity":"pharmacy","name":"Health Home Chemist","name_hindi":"हेल्थ होम केमिस्ट","adress":"138 Rnt Marg,Chhawni,Indore","mobile":"9827277594","opening_hours":"Mo-Sa 9:00-22:00","wardNo":"063","wardName":"NAVLAKHA"},{"latitude":22.70917247,"longitude":75.87582409,"precision":4.5509996,"amenity":"pharmacy","name":"Kesariya Chemist","name_hindi":"केशरिया केमिस्ट","adress":"Shop No. 109, Rnt Marg,Chhawni,Indore","phone":"07312707778","opening_hours":"Mo-Su 8:00-22:00","wardNo":"055","wardName":"SAUTH TUKOGANJ"},{"latitude":22.70991796,"longitude":75.8757021,"precision":4.5509996,"amenity":"pharmacy","name":"Jindal Medical Store","name_hindi":"जिंदल मेडिकल स्टोर","adress":"124 Rnt Marg,Chhalni,Indore","mobile":"9827630092","opening_hours":"Mo-Su 9:00-21:30","wardNo":"055","wardName":"SAUTH TUKOGANJ"},{"latitude":22.70995506,"longitude":75.87582603,"precision":4.5509996,"amenity":"pharmacy","name":"Mohanlal Pannalal Chemist","name_hindi":"महांलाल मन्नालाल केमिस्ट","adress":"125 Rnt Marg,Chhawni,Indore","opening_hours":"Mo-Sa 9:30-21:00","wardNo":"055","wardName":"SAUTH TUKOGANJ"},{"latitude":22.71099737,"longitude":75.87454143,"precision":4.5509996,"amenity":"pharmacy","name":"Puja Pharmaceutical","name_hindi":"पूजा फार्मास्यूटिकल","adress":"30/3 Mitai Mohalla,Indore","mobile":"9329216467","opening_hours":"Mo-Sa 10:00-22:00","wardNo":"055","wardName":"SAUTH TUKOGANJ"},{"latitude":22.71207434,"longitude":75.88034791,"precision":4.5509996,"amenity":"pharmacy","name":"Shri Nath Ayurvedic","name_hindi":"श्री नाथ अयरुवेदिक","adress":"45/A Jawora Compound,Indore","mobile":"8103511112","opening_hours":"Mo-Sa 9:00-21:00;Su 9:00-14:00","wardNo":"055","wardName":"SAUTH TUKOGANJ"},{"latitude":22.71255839,"longitude":75.87997138,"precision":6.068,"amenity":"pharmacy","name":"Dawa Bazar","name_hindi":"दावा बाजार","adress":"Dawa Bazar,Indore","opening_hours":"24/7","wardNo":"055","wardName":"SAUTH TUKOGANJ"},{"latitude":22.7134131,"longitude":75.87519632,"precision":4.5509996,"amenity":"pharmacy","name":"Dawa Bazar","name_hindi":"दावा बाजार","adress":"Dawa Bazar,Indore","opening_hours":"24/7","wardNo":"055","wardName":"SAUTH TUKOGANJ"},{"latitude":22.71275463,"longitude":75.8755448,"precision":6.068,"amenity":"pharmacy","name":"Dawa Bazar","name_hindi":"दावा बाजार","adress":"Dawa Bazar,Indore","opening_hours":"24/7","wardNo":"055","wardName":"SAUTH TUKOGANJ"},{"latitude":22.71893794,"longitude":75.89702377,"precision":5,"amenity":"pharmacy","name":"Agrawal Chemist","name_hindi":"अग्रवाल केमिस्ट","adress":"5,Community Hall,Tilak Nagar,Main Road","mobile":"9827328687","opening_hours":"Mo-Sa 9:00-22:30\nSu 9:00-13:00","wardNo":"049","wardName":"TILAKNAGAR"},{"latitude":22.7189596,"longitude":75.89670331,"precision":5,"amenity":"pharmacy","name":"Health Care Medical Stores","name_hindi":"हेल्थ केयर मेडिकल स्टोर्स","adress":"Tilak Nagar,Main Road","mobile":"9893893931","opening_hours":"Mo-Su 9:00-22:00","wardNo":"049","wardName":"TILAKNAGAR"},{"latitude":22.71893984,"longitude":75.89653085,"precision":5,"amenity":"pharmacy","name":"Mittal Medical Store","name_hindi":"मित्तल मेडिकल स्टोर","adress":"145,Tilak Nagar,Main Road,Indore","phone":"07312495280","opening_hours":"Mo-Sa 9:00-22:00\nSu 9:00-14:00","wardNo":"049","wardName":"TILAKNAGAR"},{"latitude":22.71891819,"longitude":75.89644563,"precision":3,"amenity":"pharmacy","name":"Goyal Medical Store","name_hindi":"गोयल मेडिकल स्टोर","adress":"145 Tilak Nagar","phone":"07314035648","opening_hours":"Mo-Sa 8:00-23:00\nSu 9:00-14:00;18:00-21:00","wardNo":"049","wardName":"TILAKNAGAR"},{"latitude":22.71906783,"longitude":75.89592521,"precision":3,"amenity":"pharmacy","name":"New Lakshmi Medicose","name_hindi":"न्यू लक्ष्मी मेडिकोसे","adress":"77,Tilak Nagar,Main Road","mobile":"9893703389","opening_hours":"Mo-Su 11:00-22:00","wardNo":"049","wardName":"TILAKNAGAR"},{"latitude":22.71918092,"longitude":75.89595793,"precision":5,"amenity":"pharmacy","name":"Shivaay Medical Store","name_hindi":"शिवाय मेडिकल स्टोर","adress":"108,Tilak Nagar","mobile":"8878142301","opening_hours":"Mo-Su 9:30-23:30","wardNo":"049","wardName":"TILAKNAGAR"},{"latitude":22.71983443,"longitude":75.89559781,"precision":5,"amenity":"pharmacy","name":"Gayatri Medicose","name_hindi":"गायत्री मेडिकोसे","adress":"571,Tialk Nagar","mobile":"9826676088","opening_hours":"Mo-Sa 11:00-23:00\nSu 11:00-14:00","wardNo":"049","wardName":"TILAKNAGAR"},{"latitude":22.71909326,"longitude":75.89648705,"precision":5,"amenity":"pharmacy","name":"Bhaskar Ayurveda","name_hindi":"भास्कर आयुर्वेद","adress":"Lg 3 Classic Centre,Tilak Nagar","mobile":"9907534477","opening_hours":"Mo-Su 10:00-22:00","wardNo":"049","wardName":"TILAKNAGAR"},{"latitude":22.71475225,"longitude":75.89978192,"precision":3,"amenity":"pharmacy","name":"Archana Medical And General Store","name_hindi":"अर्चना मेडिकल एंड जनरल स्टोर","adress":"Vandana Nagar","mobile":"9893545906","opening_hours":"Mo-Sa 8:30-23:00\nSu 8:30-14:00;17:00-21:00","wardNo":"049","wardName":"TILAKNAGAR"},{"latitude":22.71270179,"longitude":75.89993448,"precision":5,"amenity":"pharmacy","name":"Garg Medicose","name_hindi":"गर्ग मेडिकोसे","adress":"206/2 Vandana Nagar,Oppswarn Vatika Gate,Gram Piplyhana,Indore","mobile":"7869800581","wardNo":"049","wardName":"TILAKNAGAR"},{"latitude":22.71786663,"longitude":75.89992263,"precision":3,"amenity":"pharmacy","name":"Sneh Medical Stores","name_hindi":"स्नेह मेडिकल स्टोर्स","adress":"4-C Mangal Shree Apartment,Tilak Nagar","phone":"07314957158","opening_hours":"Mo-Su 9:00-22:00","wardNo":"049","wardName":"TILAKNAGAR"},{"latitude":22.71832582,"longitude":75.89994228,"precision":5,"amenity":"pharmacy","name":"Someshvar Medical Stores","name_hindi":"सोमेश्वर मेडिकल स्टोर्स","adress":"Shop No.1,B Block,Mangal Shree Apartment,303-4 Piplyhana,Indore","opening_hours":"Mo-Sa 10:00-22:00","wardNo":"049","wardName":"TILAKNAGAR"},{"latitude":22.71491665,"longitude":75.89428707,"precision":9,"amenity":"pharmacy","name":"Himalaya Medical","name_hindi":"हिमालय मेडिकल","adress":"G-9,109/110,Sahaj Tower,Geeta Nagar,Indore","mobile":"9826294466","email":"himalaymedical@gmail.com","opening_hours":"Mo-Sa 9:00-22:00\nSu 10:00-14:00","wardNo":"048","wardName":"GITA BHAVAN"},{"latitude":22.71852834,"longitude":75.88473393,"precision":8,"amenity":"pharmacy","name":"Vinay Medical","name_hindi":"विनय मेडिकल","adress":"Alankar Point","opening_hours":"Mo-Sa 10:00-19:00","wardNo":"048","wardName":"GITA BHAVAN"},{"latitude":22.71876496,"longitude":75.88663863,"precision":5,"amenity":"pharmacy","name":"Arogya Dawaiyaan","name_hindi":"आरोग्य दवाइयां","adress":"Manorama Ganj,Geeta Bhawan Main Road","mobile":"9522288103","opening_hours":"Mo-Su 07:00-23:00","wardNo":"048","wardName":"GITA BHAVAN"},{"latitude":22.71868404,"longitude":75.88746937,"precision":8,"amenity":"pharmacy","name":"Saroj Chemist","name_hindi":"सरोज केमिस्ट","adress":"Geeta Bhawan Road","opening_hours":"Mo-Sa 09:00-21:00","wardNo":"048","wardName":"GITA BHAVAN"},{"latitude":22.71818105,"longitude":75.88757895,"precision":4,"amenity":"pharmacy","name":"Gupta Medicose","name_hindi":"गुप्ता मेडिकोज","adress":"Near Geeta Bhawan Hospital","opening_hours":"Mo-Su 09:00-10:00","wardNo":"048","wardName":"GITA BHAVAN"},{"latitude":22.71745511,"longitude":75.88674223,"precision":9,"amenity":"pharmacy","name":"Generic Biokal Pvt Ltd","name_hindi":"जेनेरिक बायोकल प्राइवेट लिमिटेड","adress":"29/A, Kailash Park Colony","phone":"07314974422","opening_hours":"Mo-Su 10:30-21:00","wardNo":"048","wardName":"GITA BHAVAN"},{"latitude":22.72697714,"longitude":75.87903703,"precision":4.288,"amenity":"pharmacy","name":"Vardhman Health Specialities Private Limited","name_hindi":"वर्धमान स्वास्थ्य विशेषज्ञ प्राइवेट लिमिटेड","adress":"16/9 Tongya Compound Race Course Road","phone":"0731403662","mobile":"8889994792","opening_hours":"Mo-Sa 10:00-19:00","wardNo":"047","wardName":"SARDAR VALLABHBHAI"},{"latitude":22.72646362,"longitude":75.87945603,"precision":8.576,"amenity":"pharmacy","name":"Anu Chemist","name_hindi":"अणु फार्मेसी","adress":"Mourya Centre Race Course Road","mobile":"9425104552","opening_hours":"Mo-Sa","wardNo":"047","wardName":"SARDAR VALLABHBHAI"},{"latitude":22.71638108,"longitude":75.87628911,"precision":5.36,"amenity":"pharmacy","name":"Atharva Medicos","name_hindi":"अथर्व मेडिकोज","adress":"Dr Sarju Prasad Marg Indore","opening_hours":"24/7","wardNo":"055","wardName":"SAUTH TUKOGANJ"},{"latitude":22.71662991,"longitude":75.87681905,"precision":3.216,"amenity":"pharmacy","name":"Arogya Medical","name_hindi":"आरोग्य चिकित्सा","adress":"Dr Sarju Prasad Marg Indore","opening_hours":"Mo-Su 07:00-23:00","wardNo":"055","wardName":"SAUTH TUKOGANJ"},{"latitude":22.71835614,"longitude":75.8876832,"precision":3.216,"amenity":"pharmacy","name":"Nishi Medicos","name_hindi":"निशि मेडिकोज","adress":"In Front Of Geeta Bhavan","wardNo":"048","wardName":"GITA BHAVAN"},{"latitude":22.71835031,"longitude":75.88768798,"precision":4.288,"amenity":"pharmacy","name":"Sangita Medicos","name_hindi":"संगीता मेडिकोज","adress":"In Front Of Geeta Bhavan","wardNo":"048","wardName":"GITA BHAVAN"},{"latitude":22.70775472,"longitude":75.8771763,"precision":13,"amenity":"pharmacy","name":"Baheti Medical Store","name_hindi":"बाहेती मेडिकल स्टोर","adress":"77/3 Usha Ganj Main Road Indore","opening_hours":"Mo-Sa 10:30-22:00","wardNo":"063","wardName":"NAVLAKHA"},{"latitude":22.70776878,"longitude":75.87711646,"precision":5,"amenity":"pharmacy","name":"Ganesh Laxmi Aushadhi Bhandar","name_hindi":"गणेश लक्ष्मी आयुषी भंडार","adress":"13 Parsi Mohalla Chhawani Indore","mobile":"8819079000","opening_hours":"Mo-Su 10:00-1:00;18:00-21:00","wardNo":"063","wardName":"NAVLAKHA"},{"latitude":22.71069362,"longitude":75.87190071,"precision":5,"amenity":"pharmacy","name":" Arihant Medical","name_hindi":"अरिहंत मेडिकल","adress":"Sattanan Marg","mobile":"9993000434","opening_hours":"Mo-Sa 11:00-20:00","wardNo":"062","wardName":"RAVJI BAZAR"},{"latitude":22.71068974,"longitude":75.87189721,"precision":5,"amenity":"pharmacy","name":"Madhav Maan Medicals","name_hindi":"माधव मान मेडिकल","adress":"Sattanan Marg","opening_hours":"Mo-Sa 11:00-20:00","wardNo":"062","wardName":"RAVJI BAZAR"},{"latitude":22.71068961,"longitude":75.87187842,"precision":5,"amenity":"pharmacy","name":"Agam Nigam Chemist","name_hindi":"अगम निगम रसायनज्ञ","adress":"Sattanan Marg","opening_hours":"Mo-Sa 10:00-20:00","wardNo":"062","wardName":"RAVJI BAZAR"},{"latitude":22.70877939,"longitude":75.87580553,"precision":5,"amenity":"pharmacy","name":"Paatni Medical Stores","name_hindi":"पाटनी मेडिकल स्टोर","adress":"53 Rnt Marg","opening_hours":"Mo-Sa 10:00-21:00","wardNo":"055","wardName":"SAUTH TUKOGANJ"},{"latitude":22.71102226,"longitude":75.87580164,"precision":5,"amenity":"pharmacy","name":"Sharma Medical Store","name_hindi":"शर्मा मेडिकल स्टोर","adress":"201 Rnt Marg","mobile":"9424916000","opening_hours":"Mo-Su 11:00-20:00","wardNo":"055","wardName":"SAUTH TUKOGANJ"},{"latitude":22.71020796,"longitude":75.8780384,"precision":5,"amenity":"pharmacy","name":"Akanksha Medical Stores","name_hindi":"आकांक्षा मेडिकल स्टोर्स","adress":"Royal House Ushaganj ","mobile":"9754328222","opening_hours":"Mo-Sa 10:00-20:00","wardNo":"055","wardName":"SAUTH TUKOGANJ"},{"latitude":22.71171502,"longitude":75.87985544,"precision":5,"amenity":"pharmacy","name":"Anjani Medical","name_hindi":"अंजनी मेडिकल","adress":"50,Jawara Complex ","opening_hours":"Mo-Sa 10:00-20:00","wardNo":"055","wardName":"SAUTH TUKOGANJ"},{"latitude":22.72466637,"longitude":75.89382471,"precision":3.216,"amenity":"pharmacy","name":"Bhargavi Medicose","name_hindi":"भार्गव मेडिकोज","adress":"Surya Apartment ,Old Palasia","phone":"07314009191","opening_hours":"Mo-Sa 10:00-22:00","wardNo":"043","wardName":"SHRINAGAR"},{"latitude":22.72228541,"longitude":75.89487958,"precision":3.216,"amenity":"pharmacy","name":"Apple Chemist","name_hindi":"एप्पल केमिस्ट","adress":"40 Patrakar Colony","mobile":"9691861991","opening_hours":"Mo-Sa 10:00-16:00","wardNo":"042","wardName":"SWAMI VIVEKANAND"},{"latitude":22.7210007,"longitude":75.89515185,"precision":4.5509996,"amenity":"pharmacy","name":"Five Star Chemist","name_hindi":"फाइव स्टार कजमिस्ट","adress":"19, Tilak Nagar Main Road, Indore","mobile":"9425965548","opening_hours":"Mo-Su 09:00-21:00","wardNo":"042","wardName":"SWAMI VIVEKANAND"},{"latitude":22.72645706,"longitude":75.89432136,"precision":4.288,"amenity":"pharmacy","name":"Bakliwal Pharmacy","name_hindi":"बाकलीवाल फार्मेसी","adress":"Shiromani Apartment","opening_hours":"Mo-Sa 10:00-17:00","wardNo":"043","wardName":"SHRINAGAR"},{"latitude":22.7259441,"longitude":75.89451217,"precision":4.5509996,"amenity":"pharmacy","name":"Saket Chemist","name_hindi":"साकेत केमिस्ट","adress":"G-1,Twin Tower,Anand Bazar,Indore","phone":"07314218544","opening_hours":"Mo-Su 11:00-23:00","wardNo":"042","wardName":"SWAMI VIVEKANAND"},{"latitude":22.72692097,"longitude":75.89428802,"precision":4.5509996,"amenity":"pharmacy","name":"Jai Shree Krishna Medical Store","name_hindi":"जय श्री कृष्णा मेडिकल स्टोर","adress":"110,Shrinagar Main Road,Indore","phone":"07314002105","opening_hours":"Mo-Sa 09:00-21:00","wardNo":"043","wardName":"SHRINAGAR"},{"latitude":22.72715418,"longitude":75.89426167,"precision":4.5509996,"amenity":"pharmacy","name":"Siddhi Vinayak Chemist","name_hindi":"सिद्धि विनायक केमिस्ट","adress":"19,Anand Bazar, Indore","phone":"07314002645","opening_hours":"Mo-Su 09:00-22:00","wardNo":"043","wardName":"SHRINAGAR"},{"latitude":22.72749557,"longitude":75.89425991,"precision":6.068,"amenity":"pharmacy","name":"Arogya Retail Shop","name_hindi":"आरोग्य रिटेल शॉप","adress":"Shop No.5 ,Shopping Complex,Anand Bazar,Indore","opening_hours":"Mo-Su 08:00-22:00","wardNo":"043","wardName":"SHRINAGAR"},{"latitude":22.72262698,"longitude":75.89292256,"precision":4.288,"amenity":"pharmacy","name":"Generic Medicine Store","name_hindi":"जेनेरिक मेडिसिन स्टोर","adress":"107,Ravindra Nagar,Behind Gayatri Mandir","phone":"07312495481","mobile":"8871681056","email":"amitnarayankelkar@gmail.com","opening_hours":"Mo-Sa 11:00-21:00","wardNo":"042","wardName":"SWAMI VIVEKANAND"},{"latitude":22.72123198,"longitude":75.89495491,"precision":4.288,"amenity":"pharmacy","name":"Manish Medicose","name_hindi":"मनीष मेडिकोज","adress":"2 Tilak Nagar","phone":"07312492297","mobile":"9827730550","opening_hours":"Mo-Sa 09:00-22:00; Su 09:00-14:00","wardNo":"042","wardName":"SWAMI VIVEKANAND"},{"latitude":22.72545983,"longitude":75.89195433,"precision":4.288,"amenity":"pharmacy","name":"Homeopathic Davakhana","name_hindi":"होम्योपैथी दवाखाना","adress":"Ug-26 Naveen Tower ","mobile":"9826024097","opening_hours":"Mo-Sa 10:00-17:00","wardNo":"043","wardName":"SHRINAGAR"},{"latitude":22.72809776,"longitude":75.89434325,"precision":4.5509996,"amenity":"pharmacy","name":"Rxaushdi","name_hindi":"आर एक्स औषधी","adress":"Shekhar Corner,Indore","mobile":"9109141020","opening_hours":"Mo-Sa 09:00-22:00","wardNo":"043","wardName":"SHRINAGAR"},{"latitude":22.72662802,"longitude":75.89433128,"precision":4.5509996,"amenity":"pharmacy","name":"Vinayak Shree Medicos","name_hindi":"विनायक श्री मेडिकोज","adress":"Saraswati Apartments,Anand Bazar,Indore","phone":"07312566194","opening_hours":"Mo-Su 09:30-21:00","wardNo":"043","wardName":"SHRINAGAR"},{"latitude":22.72585458,"longitude":75.89407293,"precision":4.288,"amenity":"pharmacy","name":"New Jain Medicose","name_hindi":"न्यू जैन मेडिकोज","adress":"The Mark","phone":"07312563497","opening_hours":"Mo-Sa 10:00-17:00","wardNo":"043","wardName":"SHRINAGAR"},{"latitude":22.72730123,"longitude":75.89438517,"precision":4.288,"amenity":"pharmacy","name":"Gaurav Medical Store","name_hindi":"गौरव मेडिकल स्टोर","adress":"Anand Bazar ","mobile":"9826590067","opening_hours":"Mo-Su 11:00-23:00","wardNo":"043","wardName":"SHRINAGAR"},{"latitude":22.72365063,"longitude":75.88929976,"precision":4.288,"amenity":"pharmacy","name":"Anil Medilcal","name_hindi":"अनिल मेडिकल","adress":"Ug 6 ,Multhan Kothi,1/1 Old Palasia","mobile":"9827622177","wardNo":"048","wardName":"GITA BHAVAN"},{"latitude":22.72071264,"longitude":75.88317122,"precision":3.216,"amenity":"pharmacy","name":"Mahavir Pharna","name_hindi":"महावीर फार्मा","adress":"42,Raj Complex ,Kanchanbhag","mobile":"9926738036","wardNo":"055","wardName":"SAUTH TUKOGANJ"},{"latitude":22.72639109753072,"longitude":75.87944165803492,"precision":7,"amenity":"pharmacy","name":"Padmavati Medicose","name_hindi":" पद्मावती मेडिकोज","adress":"16, Racecourse Road, Mourya Centre, Indore","mobile":"9525073837","opening_hours":"Mo-Sa 10:00-21:30","wardNo":"047","wardName":"SARDAR VALLABHBHAI"},{"latitude":22.7255434,"longitude":75.89378842,"precision":4.288,"amenity":"pharmacy","name":"The Meera Chemist","name_hindi":"दी मीरा केमिस्ट","adress":"Ug-5 Classic Crown","phone":"07314939911","opening_hours":"Mo-Su 09:30-22:30 ","wardNo":"043","wardName":"SHRINAGAR"},{"latitude":22.72548313,"longitude":75.8948605,"precision":4.288,"amenity":"pharmacy","name":"M S Chemist","name_hindi":"ए म एस केमिस्ट","adress":"Amardarshan","mobile":"9926094587","opening_hours":"Mo-Sa 10:00-17:00","wardNo":"043","wardName":"SHRINAGAR"},{"latitude":22.72157116793096,"longitude":75.87203272618353,"precision":7,"amenity":"pharmacy","name":"Jai Maa Medicose","name_hindi":" जय मां मेडिकोज","adress":"17, Dhenu Market, Mg Road, Indore","phone":"07312532942","opening_hours":"mo-sa 10:00-22:00","wardNo":"047","wardName":"SARDAR VALLABHBHAI"},{"latitude":22.72566608,"longitude":75.88836364,"precision":4.5509996,"amenity":"pharmacy","name":"Shri Giriraj Medical Store","name_hindi":"श्री गिरीराज मेडिकल स्टोर","phone":"07312560844","mobile":"9039156000","wardNo":"043","wardName":"SHRINAGAR"},{"latitude":22.72566616,"longitude":75.88836278,"precision":4.5509996,"amenity":"pharmacy","name":"Faith And Hope Medical Stores","name_hindi":"फैथ एंड होप मेडिकल स्टोर्स","mobile":"7697179938","wardNo":"043","wardName":"SHRINAGAR"},{"latitude":22.72553596,"longitude":75.88934311,"precision":4.5509996,"amenity":"pharmacy","name":"Shifa Chemist","name_hindi":"शिफा केमिस्ट","adress":"2/2 Old Palasia ","phone":"07312560441","opening_hours":"Sa-Su 09:00-22:00","wardNo":"043","wardName":"SHRINAGAR"},{"latitude":22.72551872,"longitude":75.8894192,"precision":4.5509996,"amenity":"pharmacy","name":"Nagar Chemist","name_hindi":"नगर केमिस्ट","adress":"Opposite To Greater Kailash Nursing Home, Old Palasia ","phone":"07312563465","opening_hours":"Sa-Su 09:30-22:00","wardNo":"043","wardName":"SHRINAGAR"},{"latitude":22.72564958,"longitude":75.89179823,"precision":4.5509996,"amenity":"pharmacy","name":"Shreeji Homeopathic","name_hindi":"श्रीजी होम्योपैथिक","mobile":"9893601711","wardNo":"043","wardName":"SHRINAGAR"},{"latitude":22.72567073,"longitude":75.89193433,"precision":4.5509996,"amenity":"pharmacy","name":"Homeopathic Davaiya","name_hindi":"होम्योपैथिक दवाइयां","mobile":"9826024097","wardNo":"043","wardName":"SHRINAGAR"},{"latitude":22.7242735,"longitude":75.88926741,"precision":4.5509996,"amenity":"pharmacy","name":"The Alchimist","name_hindi":"द अल्केमिस्ट","adress":"Lg-16 Barwani Plaza","phone":"07314975930","mobile":"8263012345","wardNo":"048","wardName":"GITA BHAVAN"},{"latitude":22.72337026,"longitude":75.88862652,"precision":6.068,"amenity":"pharmacy","name":"New Pious Medical Store","name_hindi":"न्यू पियस मेडिकल स्टोर","adress":"Sun View Residency, Shop No. Ug/12,6/1,Old Palasia","wardNo":"048","wardName":"GITA BHAVAN"},{"latitude":22.72380047,"longitude":75.88570718,"precision":4.5509996,"amenity":"pharmacy","name":"New City Chemist","name_hindi":"न्यू सिटी केमिस्ट","opening_hours":"Mo-Sa 10:00-24:00","wardNo":"047","wardName":"SARDAR VALLABHBHAI"},{"latitude":22.72126232,"longitude":75.89806538,"precision":9.648001,"amenity":"pharmacy","name":"Yash Ayurvedic Stores","name_hindi":"यश आयुर्वेदिक स्टोर","adress":"Kanadiya Main Road","mobile":"9039612532","opening_hours":"Mo-Su 10:00-20:00","wardNo":"042","wardName":"SWAMI VIVEKANAND"},{"latitude":22.72069984,"longitude":75.90121741,"precision":3.216,"amenity":"pharmacy","name":"Medneed Pharma Private Limited","name_hindi":"\nमेडनीड फार्मा प्राइवेट लिमिटेड","adress":"Samvid Nagar Kanadia Main Road","phone":"07314087502","opening_hours":"10:00-22:00","wardNo":"049","wardName":"TILAKNAGAR"},{"latitude":22.72110309,"longitude":75.89892742,"precision":4.288,"amenity":"pharmacy","name":"Ravi Chemist","name_hindi":"रवि केमिस्ट","adress":"40 Samvid Nagar Kanadia Main Road","mobile":"9893441213","opening_hours":"09:00-22:00","wardNo":"049","wardName":"TILAKNAGAR"},{"latitude":22.72129907,"longitude":75.89681801,"precision":4.288,"amenity":"pharmacy","name":"Saif Chemist","name_hindi":"सैफ केमिस्ट","adress":"13 Sanvid Nagar Kanadia Main Road","phone":"07314060258","opening_hours":"10:00-22:00","wardNo":"049","wardName":"TILAKNAGAR"},{"latitude":22.72322954,"longitude":75.8966887,"precision":4.5509996,"amenity":"pharmacy","name":"Daksh Medicos","name_hindi":"दक्ष मेडिकोज","adress":"380,Samvid Nagar,Indore","phone":"07312566345","opening_hours":"Mo-Su 09:00-23:00","wardNo":"042","wardName":"SWAMI VIVEKANAND"},{"latitude":22.72294073,"longitude":75.8962513,"precision":4.288,"amenity":"pharmacy","name":"Parul Pharmacy","name_hindi":"पारुल फार्मेसी","adress":"347 Saket ","phone":"07314991651","mobile":"9907312655","email":"ankurgupta651@gmail.com","opening_hours":"24/7","wardNo":"042","wardName":"SWAMI VIVEKANAND"},{"latitude":22.72311267,"longitude":75.89507273,"precision":3.216,"amenity":"pharmacy","name":"Arpit Chemist","name_hindi":"अर्पित केमिस्ट","adress":"33 Patrakar Colony","phone":"07212561966","opening_hours":"Mo-Sa 10:30-22:00","wardNo":"042","wardName":"SWAMI VIVEKANAND"},{"latitude":22.71764477,"longitude":75.85549711,"precision":4.5509996,"amenity":"pharmacy","name":"Hariom Pharmacy","name_hindi":"हरी ॐ फार्मेसी","mobile":"9993740800","wardNo":"059","wardName":"HARSIDDHI"},{"latitude":22.71955474,"longitude":75.85549563,"precision":4.5509996,"amenity":"pharmacy","name":"Homeopathic Biochemic","name_hindi":"होम्योपैथीक बायोकेमिक","adress":"14/153, Annapurana Market, Imali Bazar","wardNo":"058","wardName":"IMLI BAZAR"},{"latitude":22.72251179,"longitude":75.84970968,"precision":4.5509996,"amenity":"pharmacy","name":"Azad Medical","name_hindi":"आज़ाद मेडिकल","adress":"135, Netaji Shubhash Marg","mobile":"9977444589","wardNo":"008","wardName":"JUNA RISALA"},{"latitude":22.72275827,"longitude":75.84931636,"precision":4.5509996,"amenity":"pharmacy","name":"Ekta Medicose","name_hindi":"एकता मेडिकोज","adress":"175/2,Juna Risala","wardNo":"008","wardName":"JUNA RISALA"},{"latitude":22.72284746,"longitude":75.84901378,"precision":4.5509996,"amenity":"pharmacy","name":"Regal Medicose","name_hindi":"रीगल मेडिकोज","adress":"132, Subhash Marg","phone":"07312454184","wardNo":"008","wardName":"JUNA RISALA"},{"latitude":22.72121511,"longitude":75.84924152,"precision":4.5509996,"amenity":"pharmacy","name":"Ekta Medical","name_hindi":"एकता मेडिकल","adress":"48/3 Chhipa Bakhal","phone":"07312450019","mobile":"9300754919","opening_hours":"Sa-Su 10:00-22:00","wardNo":"008","wardName":"JUNA RISALA"},{"latitude":22.71937188,"longitude":75.84957759,"precision":4.5509996,"amenity":"pharmacy","name":"Kulwal Medicose","name_hindi":"कुलवाल मेडिकोज","adress":"554, Mg Road, Gorakund","mobile":"9926310069","wardNo":"008","wardName":"JUNA RISALA"},{"latitude":22.71891249,"longitude":75.8510978,"precision":4.5509996,"amenity":"pharmacy","name":"Shyam Medical Store","name_hindi":"श्याम मेडिकल स्टोर","mobile":"9826418483","opening_hours":"Sa-Su 10:30-23:00","wardNo":"069","wardName":"JAWAHAR MARG"},{"latitude":22.71905805,"longitude":75.85179366,"precision":13.653,"amenity":"pharmacy","name":"Mahajan Medical","name_hindi":"महजन मेडिकल","opening_hours":"Sa-Su 10:30-22:00","wardNo":"058","wardName":"IMLI BAZAR"},{"latitude":22.71897145,"longitude":75.853265,"precision":4.5509996,"amenity":"pharmacy","name":"Narmada Medical Store","name_hindi":"नर्मदा मेडिकल स्टोर","adress":"210, Khajuri Market ","mobile":"8719859198","wardNo":"058","wardName":"IMLI BAZAR"},{"latitude":22.72292482,"longitude":75.85421909,"precision":4.5509996,"amenity":"pharmacy","name":"Satya Medicose","name_hindi":"सत्य मेडिकोज","wardNo":"057","wardName":"DEVI AHILYABAI"},{"latitude":22.72306612,"longitude":75.85777192,"precision":4.5509996,"amenity":"pharmacy","name":"Jai Medical Store","name_hindi":"जय मेडिकल स्टोर","adress":"174 , Subhash Marg","wardNo":"057","wardName":"DEVI AHILYABAI"},{"latitude":22.72469491,"longitude":75.86242551,"precision":4.5509996,"amenity":"pharmacy","name":"New Gangatri Medicose ","name_hindi":"न्यू गंगात्री मेडिकोज","mobile":"9303337162","wardNo":"056","wardName":"SNEHALATA GANJ"},{"latitude":22.68980586,"longitude":75.86403137,"precision":4.5509996,"amenity":"pharmacy","name":"Jain Medical Store","name_hindi":"जैन मेडिकल स्टोर","adress":"4,Vishnupuri Road,Indore","phone":"07314074311","opening_hours":"Mo-Sa 11:00-21:00","wardNo":"074","wardName":"VISHNAPURI"},{"latitude":22.68977545,"longitude":75.86405313,"precision":4.5509996,"amenity":"pharmacy","name":"Gurjar Healthcare","name_hindi":"गुर्जर हेल्थकेयर","adress":"Guru Kripa Apartments 4,Vishnu Puri,Indore","mobile":"8101912345","opening_hours":"24/7","wardNo":"074","wardName":"VISHNAPURI"},{"latitude":22.6914804,"longitude":75.86532754,"precision":4.5509996,"amenity":"pharmacy","name":"Kumawat Medical","name_hindi":"कुमावत मेडिकल","adress":"58,Siddharth Nagar,Indore","mobile":"7223073108","opening_hours":"Mo-Su 09:00-22:00","wardNo":"074","wardName":"VISHNAPURI"},{"latitude":22.69189288,"longitude":75.86625421,"precision":4.5509996,"amenity":"pharmacy","name":"Shri Mahakal Medicos","name_hindi":"श्री महाकाल मेडिकोज","adress":"Harshdeep Arcade,Bhawar Kuan Sqaure,Indore","opening_hours":"24/7","wardNo":"074","wardName":"VISHNAPURI"},{"latitude":22.6899864,"longitude":75.86369226,"precision":4.5509996,"amenity":"pharmacy","name":"Gurjar Medical Store","name_hindi":"गुर्जर मेडिकल स्टोर","adress":"Shiv Om Apartments,Vishnu Puri, Indore","phone":"7697264920","opening_hours":"Mo-Su 10:00-22:00","wardNo":"074","wardName":"VISHNAPURI"},{"latitude":22.69003021,"longitude":75.86352294,"precision":4.5509996,"amenity":"pharmacy","name":"Nitesh Medical Store","name_hindi":"नितेश मेडिकल स्टोर","adress":"28,Vishnu Puri,Indore","phone":"07314090175","opening_hours":"Mo-Su 09:00-23:00","wardNo":"074","wardName":"VISHNAPURI"},{"latitude":22.69052789,"longitude":75.86654099,"precision":4.5509996,"amenity":"pharmacy","name":"Deepa Medical Store","name_hindi":"दीपना मेडिकल स्टोर","adress":"75,Indrapuri, Indore","mobile":"9826615390","opening_hours":"Mo-Su 09:00-15:00;16:30-22:00","wardNo":"074","wardName":"VISHNAPURI"},{"latitude":22.69334398,"longitude":75.8674248,"precision":4.5509996,"amenity":"pharmacy","name":"Prema Medical Store","name_hindi":"प्रेमा मेडिकल स्टोर","adress":"Below Devi Ahilya Girls Hostel,Bhawarkuan,Indore","mobile":"9826009121","opening_hours":"Mo-Su 10:00-21:00","wardNo":"074","wardName":"VISHNAPURI"},{"latitude":22.69438981,"longitude":75.86638069,"precision":4.5509996,"amenity":"pharmacy","name":"Raghav Medicine Center","name_hindi":"राघव मेडिसिन सेंटर","adress":"Bhawarkuan Main Road","phone":"07314206434","opening_hours":"Mo-Su 10:00-22:00","wardNo":"065","wardName":"SANT KANWARRAM"},{"latitude":22.69426275,"longitude":75.8662383,"precision":4.5509996,"amenity":"pharmacy","name":"New Sonal Medicals","name_hindi":"न्यू सोनल मेडिकल","adress":"Bhawarkuan Main Road,Indore","mobile":"9893493517","opening_hours":"Mo-Su 09:00-23:00","wardNo":"074","wardName":"VISHNAPURI"},{"latitude":22.69867523,"longitude":75.86434427,"precision":4.5509996,"amenity":"pharmacy","name":"Om Medical Clinic","name_hindi":"ओम मेडिकल क्लिनिक","adress":"Bhawar Kuan Main Road,Indore","phone":"07312449613","opening_hours":"Mo-Su 08:00-22:00","wardNo":"065","wardName":"SANT KANWARRAM"},{"latitude":22.69919122,"longitude":75.86383296,"precision":4.5509996,"amenity":"pharmacy","name":"Vyas Medicos","name_hindi":"व्यास मेडिकोज","adress":"Bairathi Colony,Indore","opening_hours":"Mo-Su 10:00-14:00;17:00-21:00","wardNo":"065","wardName":"SANT KANWARRAM"},{"latitude":22.70035018,"longitude":75.86352172,"precision":4.5509996,"amenity":"pharmacy","name":"Ram Medical Store","name_hindi":"राम मेडिकल स्टोर","adress":"107,Bhawarkuan Main Road,Indore","mobile":"9826090844","opening_hours":"Mo-Su 10:00-22:00","wardNo":"065","wardName":"SANT KANWARRAM"},{"latitude":22.69893789,"longitude":75.8667795,"precision":4.5509996,"amenity":"pharmacy","name":"Sanjari Medical Store","name_hindi":"संजरी मेडिकल स्टोर","adress":"Prince Plaza,Sapna Sangeeta,Indore","opening_hours":"Mo-Su 10:00-22:00","wardNo":"063","wardName":"NAVLAKHA"},{"latitude":22.69922348,"longitude":75.8663997,"precision":4.5509996,"amenity":"pharmacy","name":"Hari Om Medicals","name_hindi":"हरि ओम मेडिकल्स","adress":"11-C,Prince Plaza,Sapna Sangeeta,Indore","mobile":"9713927087","opening_hours":"Mo-Sa 10:00-23:00","wardNo":"063","wardName":"NAVLAKHA"},{"latitude":22.69865757,"longitude":75.86584191,"precision":4.5509996,"amenity":"pharmacy","name":"Sagar Medical Store","name_hindi":"सागर मेडिकल स्टोर","adress":"Vidhya Chambers,Sapna Sangeeta,Indore","mobile":"9926461100","opening_hours":"Mo-Su 09:00-22:00","wardNo":"063","wardName":"NAVLAKHA"},{"latitude":22.71831129,"longitude":75.85663203,"precision":9.648001,"amenity":"pharmacy","name":"Shri Indore Ayurvedic Stores","name_hindi":"श्री इंदौर आयुर्वेदिक स्टोर","adress":"30 Bakshi Gali Rajwada Indore","phone":"07312532169","opening_hours":"11:00-22:00","wardNo":"059","wardName":"HARSIDDHI"},{"latitude":22.718385,"longitude":75.85639067,"precision":3.216,"amenity":"pharmacy","name":"Five Percent Chemist","name_hindi":"पांच प्रतिशत केमिस्ट","adress":"Veer Savarkar Market Rajwada Indore","wardNo":"059","wardName":"HARSIDDHI"},{"latitude":22.71945805,"longitude":75.8556046,"precision":9.648001,"amenity":"pharmacy","name":"Vyas Ayurvedic Stores","name_hindi":"व्यास आयुर्वेदिक स्टोर","adress":"Imli Bazar Indore","opening_hours":"10:00-22:00","wardNo":"058","wardName":"IMLI BAZAR"},{"latitude":22.7201441,"longitude":75.85530279,"precision":9.648001,"amenity":"pharmacy","name":"Roop Shree Medical Stores","name_hindi":"रूप श्री मेडिकल स्टोर्स","adress":"2 Imli Bazar Indore","opening_hours":"10:00-22:00","wardNo":"057","wardName":"DEVI AHILYABAI"},{"latitude":22.72240851,"longitude":75.85248197,"precision":9.648001,"amenity":"pharmacy","name":"Shama Dawakhana","name_hindi":"शमा दवखाना","adress":"Netaji Subhas Chandra Marg Indore","mobile":"9826278647","opening_hours":"09:00-20:00","wardNo":"058","wardName":"IMLI BAZAR"},{"latitude":22.72240391,"longitude":75.85184877,"precision":3.216,"amenity":"pharmacy","name":"Aman Medical And Chemist","name_hindi":"\nअमन मेडिकल एंड केमिस्ट","adress":"143 Netaji Subhash Marg","mobile":"9826496768","opening_hours":"11:00-22:00","wardNo":"058","wardName":"IMLI BAZAR"},{"latitude":22.71917164,"longitude":75.85083408,"precision":9.648001,"amenity":"pharmacy","name":"Shyam Medicos","name_hindi":"श्याम मेडिकोस","adress":"Mg Road Shri Balaji Tower Indore","mobile":"9826015450","opening_hours":"10:00-22:00","wardNo":"069","wardName":"JAWAHAR MARG"},{"latitude":22.70389533,"longitude":75.86111428,"precision":5,"amenity":"pharmacy","name":"New Dilip Medical Store","name_hindi":"न्यू दिलीप मेडिकल स्टोर","adress":"172 Bapu Nagar ,Near Anand Hospital , Tower Square","phone":"07314983604","mobile":"9039516988","email":"Shubhlabhpharma@rediffmail.com","opening_hours":"Mo- Su 9:00-22:00","wardNo":"065","wardName":"SANT KANWARRAM"},{"latitude":22.70441432,"longitude":75.86080712,"precision":5,"amenity":"pharmacy","name":"Suyog Medicose","name_hindi":"सुयोग मेडिकोज","adress":"195,Bhawarkua Main Road,Indore","phone":"07314000173","opening_hours":"24/7","wardNo":"065","wardName":"SANT KANWARRAM"},{"latitude":22.70448902,"longitude":75.86118008,"precision":5,"amenity":"pharmacy","name":"Shyam Medical Store","name_hindi":"श्याम मेडिकल स्टोर","adress":"39-40 Joshi Colony,Bhawarkua Main Road,Indore","wardNo":"065","wardName":"SANT KANWARRAM"},{"latitude":22.69439381,"longitude":75.86618616,"precision":5,"amenity":"pharmacy","name":"Agrawal Medical Store","name_hindi":"अग्रवाल मेडिकल स्टोर","adress":"19/18 ,Radhika Krishna Complex,Bhawarkua Main Road,Near Apple Hospital,Indore","mobile":"7415207718","opening_hours":"Mo-Su 8:30-22:00","wardNo":"065","wardName":"SANT KANWARRAM"},{"latitude":22.72306843,"longitude":75.85763957,"precision":9.648001,"amenity":"pharmacy","name":"Saadgi Medical And General Stores","name_hindi":"Saadgi मेडिकल और जनरल स्टोर","adress":"174 Rambagh Chouraha Indore","phone":"9039389114","opening_hours":"11:00-22:00","wardNo":"057","wardName":"DEVI AHILYABAI"},{"latitude":22.69440666,"longitude":75.86618582,"precision":5,"amenity":"pharmacy","name":"Mangal Murti Medicose","name_hindi":"मंगलमूर्ति मेडिकोज","adress":"Ug 8,Radha Krishna Complex,Near Apple Hospital,Indore","mobile":"9340614027","opening_hours":"Mo-Su 8:00-23:00","wardNo":"065","wardName":"SANT KANWARRAM"},{"latitude":22.72309134,"longitude":75.85760321,"precision":9.648001,"amenity":"pharmacy","name":"Maa Karoona Ayurvedic Sadan","name_hindi":"माँ करौना आयुर्वेदिक सदन","adress":"Rambagh Indore","mobile":"9826071274","opening_hours":"11:0-22:00","wardNo":"057","wardName":"DEVI AHILYABAI"},{"latitude":22.72392107,"longitude":75.86000192,"precision":3.216,"amenity":"pharmacy","name":"Hari Medical Stores","name_hindi":"हरि मेडिकल स्टोर","adress":"Netaji Subhash Marg Indore","opening_hours":"11:00-22:00","wardNo":"057","wardName":"DEVI AHILYABAI"},{"latitude":22.72395793,"longitude":75.86022126,"precision":4.288,"amenity":"pharmacy","name":"Annapurna Medical And General Stores","name_hindi":"अन्नपूर्णा मेडिकल और जनरल स्टोर","adress":"Subhash Marg Main Road Indore","wardNo":"057","wardName":"DEVI AHILYABAI"},{"latitude":22.72486521,"longitude":75.86251504,"precision":3.216,"amenity":"pharmacy","name":"Aarogya Medical Stores","name_hindi":"Aarogya मेडिकल स्टोर","adress":"130 Jail Road Chiman Bagh","phone":"07312548348","opening_hours":"10:00-22:00","wardNo":"056","wardName":"SNEHALATA GANJ"},{"latitude":22.72036986,"longitude":75.86146462,"precision":9.648001,"amenity":"pharmacy","name":"K N Khanna Medical Stores","name_hindi":"K N Khanna मेडिकल स्टोर","adress":"Khanna Chamber Jail Road","opening_hours":"11:00-22:00","wardNo":"057","wardName":"DEVI AHILYABAI"},{"latitude":22.71561314,"longitude":75.84807923,"precision":5,"amenity":"pharmacy","name":"Cent Percent Chemist","name_hindi":"सेंट परसेंट केमिस्ट","adress":"Jawahar Marg,Mukeripura","mobile":"9826292930","opening_hours":"Mo-Sa 9:00-22:00","wardNo":"068","wardName":"BAMBAI BAZAR"},{"latitude":22.7248114,"longitude":75.85295723,"precision":3.216,"amenity":"pharmacy","name":"Ambika Medical Stores","name_hindi":"अम्बिका मेडिकल स्टोर","adress":"1 Sadar Bazar Main Road","wardNo":"058","wardName":"IMLI BAZAR"},{"latitude":22.71545118,"longitude":75.84792312,"precision":5,"amenity":"pharmacy","name":"Amar Medicose","name_hindi":"अमर मेडिकोज","adress":"183,Jawahar Marg,Mukeripura","mobile":"9826646275","opening_hours":"Mo-Sa 10:30-22:30","wardNo":"069","wardName":"JAWAHAR MARG"},{"latitude":22.71962241,"longitude":75.8466851,"precision":5,"amenity":"pharmacy","name":"Sanjay Medical Stores","name_hindi":"संजय मेडिकल स्टोर्स","adress":"509,Mg Road,Malharganj Tori Corner","phone":"07312450747","wardNo":"069","wardName":"JAWAHAR MARG"},{"latitude":22.71946669,"longitude":75.8480779,"precision":3,"amenity":"pharmacy","name":"Durga Medical Stores","name_hindi":"दुर्गा मेडिकल स्टोर्स","adress":"291,Mg Road,Malharganj","phone":"07312454154","opening_hours":"Mo-Sa 10:30-21:00","wardNo":"069","wardName":"JAWAHAR MARG"},{"latitude":22.69016269,"longitude":75.83732521,"precision":4.5509996,"amenity":"pharmacy","name":"Shri Ram Medical Store","name_hindi":"श्री राम मेडिकल स्टोर","adress":"Shop No. G2 Jeevan Basera Apartment,Annapurna Road Indore","mobile":"9826616555","opening_hours":"Mo-Su 10:00-12:00","wardNo":"082","wardName":"SUDAMA NAGAR"},{"latitude":22.69081107,"longitude":75.83754424,"precision":4.5509996,"amenity":"pharmacy","name":"Jaya Medical Store","name_hindi":"जाया मेडिकल स्टोर","adress":"Shop No 5,Sudama Nagar,Indore","phone":"07314237641","opening_hours":"Mo-Su 8:00-23:00","wardNo":"082","wardName":"SUDAMA NAGAR"},{"latitude":22.69174473,"longitude":75.83785014,"precision":4.5509996,"amenity":"pharmacy","name":"Maa Chemist","name_hindi":"माँ केमिस्ट","adress":"Shop No 8,Nancy Apartment,B Sudama Nagar,Indore","mobile":"9303273736","opening_hours":"Mo-Su 10:00-23:30","wardNo":"082","wardName":"SUDAMA NAGAR"},{"latitude":22.70327985,"longitude":75.84243892,"precision":4.5509996,"amenity":"pharmacy","name":"Agarwal Chemist","name_hindi":"अग्रवाल केमिस्ट","adress":"Shop No 10,Usha Nagar Main,Annapurna Road,Indore","mobile":"9907384180","opening_hours":"Mo-Sa 10:00-22:00","wardNo":"071","wardName":"DRAVID NAGAR"},{"latitude":22.69124476,"longitude":75.8379441,"precision":4.5509996,"amenity":"pharmacy","name":"Shalimar Medical Store","name_hindi":"शालीमार मेडिकल स्टोर","adress":"1/C Kranti Kripalani Nagar,Indore","mobile":"9826908882","opening_hours":"Mo-Su 8:00-20:00","wardNo":"081","wardName":"ANNAPURNA"},{"latitude":22.69188382,"longitude":75.83843486,"precision":4.5509996,"amenity":"pharmacy","name":"Laxmi Medical Store","name_hindi":"लष्मी मेडिकल स्टोर","adress":"7/8 Silver Palace Shop,Kranti Kripalani Nagar,Indore","mobile":"9826399815","opening_hours":"Mo-Sa 10:00-23:00","wardNo":"072","wardName":"LOKMANYA NAGAR"},{"latitude":22.69748744,"longitude":75.84448296,"precision":4.5509996,"amenity":"pharmacy","name":"Shri Navkaar Medical Store","name_hindi":"श्री नवकार मेडिकल स्टोर","adress":"Shop No 3 Ghanshyam Das Nagar,Kesar Bagh Road,Indore","mobile":"9826023476","opening_hours":"Mo-Su 11:00-22:30","wardNo":"072","wardName":"LOKMANYA NAGAR"},{"latitude":22.69055865,"longitude":75.84369299,"precision":4.5509996,"amenity":"pharmacy","name":"Goud Pharmacy","name_hindi":"गौड़ फार्मेसी","adress":"19 Vinay Nagar,Near Vimal Garden,Indore","mobile":"8878829000","opening_hours":"Mo-Sa 10:00-21:30","wardNo":"072","wardName":"LOKMANYA NAGAR"},{"latitude":22.69642776,"longitude":75.83218256,"precision":4.5509996,"amenity":"pharmacy","name":"Yash Medicos & Cometics","name_hindi":"यश मेडिकोज & कास्मेटिक","adress":"499 Sudama Nagar,Near Sethi Gate,Indore","mobile":"9425055336","opening_hours":"Mo-Su 9:30-22:30","wardNo":"083","wardName":"GUSHMATA NAGAR"},{"latitude":22.69434618,"longitude":75.866113,"precision":7.585,"amenity":"pharmacy","name":"Agrawal Medicose","name_hindi":"अग्रवाल मेडिकोज","adress":"Ug-10, Radhakrishna Complex, Near Apple Hospital, Indore","mobile":"9826486044","opening_hours":"Mo-Su 09:00-22:00","wardNo":"065","wardName":"SANT KANWARRAM"},{"latitude":22.72427479270846,"longitude":75.82693096250296,"precision":7,"amenity":"pharmacy","name":"Shifa Medicose","name_hindi":" शिफा मेडिकोज","opening_hours":"mo-su 09:30-13:30; 15:30-21:30","wardNo":"004","wardName":"SUKHDEV NAGAR"},{"latitude":22.72444138303399,"longitude":75.82708510570228,"precision":5,"amenity":"pharmacy","name":" Sri Parth Medical","name_hindi":"श्री पार्थ मेडिकल","adress":"Sadhana Nagar, Airport Road, Indore","mobile":"8103972538","opening_hours":"mo-su 09:30-14:00;17:00-23:00","wardNo":"004","wardName":"SUKHDEV NAGAR"},{"latitude":22.72823658306152,"longitude":75.83127496764064,"precision":11,"amenity":"pharmacy","name":"Bharat Pharmacy","name_hindi":"भारत फार्मेसी","adress":"329/1 Palhar Nagar, Airport Road, Indore","mobile":"7909596211","opening_hours":"mo-sa 09:00-23:00 ; su 10:00-14:00; 17:30-23:00","wardNo":"014","wardName":"ASHOK NAGAR"},{"latitude":22.71998895797879,"longitude":75.84473026916385,"precision":4,"amenity":"pharmacy","name":"प्रधानमंत्री भारतीय जन औषधि केंद्र","name_hindi":" Pradhan Mantri Bhartiya Jan aushadhi Kendra","adress":"309/1, Malhar Ganj, M.G Road Indore","mobile":"9575588640","opening_hours":"mo-su 9:00-21:00","wardNo":"006","wardName":"MALHARGANJ"},{"latitude":22.71569322,"longitude":75.84950123,"precision":4.288,"amenity":"pharmacy","name":"Atul Medical Stores","name_hindi":"अतुल मेडिकल स्टोर","adress":"334,Jawahar Marg","mobile":"9926835000","opening_hours":"Mo-Sa 10:00-21:30","wardNo":"068","wardName":"BAMBAI BAZAR"},{"latitude":22.71568326,"longitude":75.84947197,"precision":3.216,"amenity":"pharmacy","name":"Chirag Medicose","name_hindi":"चिराग मेडिकोज","adress":"333 Jawahar Marg","phone":"07312455123","opening_hours":"Mo-Sa 09:30-23:30","wardNo":"068","wardName":"BAMBAI BAZAR"},{"latitude":22.7155742,"longitude":75.84938207,"precision":3.216,"amenity":"pharmacy","name":"Harish Chemist","name_hindi":"हरीश केमिस्ट","adress":"332 Jawahar Marg","mobile":"9826093355","opening_hours":"Mo-Sa 10:00-24:00","wardNo":"069","wardName":"JAWAHAR MARG"},{"latitude":22.71558941,"longitude":75.84927426,"precision":4.288,"amenity":"pharmacy","name":"Charak Veda Pharmacy","name_hindi":"चरक वैद फॉर्मेसी","adress":"2 Nursing Bazar,Jawahar Marg","mobile":"9926841166","opening_hours":"Mo-Sa 08:30-23:30","wardNo":"069","wardName":"JAWAHAR MARG"},{"latitude":22.71548734,"longitude":75.84860291,"precision":4.288,"amenity":"pharmacy","name":"Al-Noor ","name_hindi":"अल नूर","adress":"320 Jawahar Marg","mobile":"9424890889","opening_hours":"24/7","wardNo":"069","wardName":"JAWAHAR MARG"},{"latitude":22.71639949,"longitude":75.84746949,"precision":4.288,"amenity":"pharmacy","name":"Anil Medical Stores","name_hindi":"अनिल मेडिकल स्टार्स","adress":"81,Sirhukum Marg","phone":"07312459574","opening_hours":"Mo-Sa 10:30-22:30","wardNo":"069","wardName":"JAWAHAR MARG"},{"latitude":22.71935886,"longitude":75.84651754,"precision":4.288,"amenity":"pharmacy","name":"Shree Mahaveer Medical","name_hindi":"श्री महावीर मेडिकल","adress":"29 Tori Corner Malhar Ganj","mobile":"9713918298","opening_hours":"Mo-Sa 11:00-22:00","wardNo":"069","wardName":"JAWAHAR MARG"},{"latitude":22.71955714,"longitude":75.84812242,"precision":3.216,"amenity":"pharmacy","name":"Nagar Medicose","name_hindi":"नागर मेडिकोज","adress":"531,Mgm","opening_hours":"Mo-Sa 10:00-17:00","wardNo":"008","wardName":"JUNA RISALA"},{"latitude":22.71940104,"longitude":75.84951883,"precision":4.288,"amenity":"pharmacy","name":"Kulwaal Medicose ","name_hindi":"कुलवाल मेडिकोज","adress":"554 Mgm","mobile":"9926310069","opening_hours":"Mo-Sa 10:00-22:30","wardNo":"008","wardName":"JUNA RISALA"},{"latitude":22.71906058,"longitude":75.85185721,"precision":4.288,"amenity":"pharmacy","name":"Mahajan Medicals","name_hindi":"महाजन मेडिकल","adress":"Khajuri Bazar","mobile":"9826454633","opening_hours":"Mo-Sa 10:00-21:30","wardNo":"058","wardName":"IMLI BAZAR"},{"latitude":22.71894469,"longitude":75.85330171,"precision":3.216,"amenity":"pharmacy","name":"Narmada Medical Store","name_hindi":"नर्मदा मेडिकल स्टोर","adress":"Khajuri Bazar Mgm","opening_hours":"Mo-Sa 14:30-16:00","wardNo":"058","wardName":"IMLI BAZAR"},{"latitude":22.7189518,"longitude":75.85409916,"precision":4.288,"amenity":"pharmacy","name":"M P Medical Store","name_hindi":"म पी मेडिकल स्टोर","adress":"435 Mgm","opening_hours":"Mo-Sa 10:00-22:00","wardNo":"058","wardName":"IMLI BAZAR"},{"latitude":22.71914968,"longitude":75.85493246,"precision":4.288,"amenity":"pharmacy","name":"Narendra Medical","name_hindi":"नरेंद्र मेडिका","adress":"A/1 Shiv Kailash Palace Rajwada","phone":"07312546359","opening_hours":"Mo-Sa 10:00-24:30","wardNo":"058","wardName":"IMLI BAZAR"},{"latitude":22.71558544,"longitude":75.84903594,"precision":3.216,"amenity":"pharmacy","name":"R K Chemist","name_hindi":"आर के केमिस्ट","adress":"330 Jawahar Marg","mobile":"9926050030","opening_hours":"Mo-Sa 08:30-22:30","wardNo":"069","wardName":"JAWAHAR MARG"},{"latitude":22.71914964,"longitude":75.85075341,"precision":3.216,"amenity":"pharmacy","name":"Shyam Medicose","name_hindi":"श्याम मेडिकोज","adress":"191 Mgm ","mobile":"9926015450","opening_hours":"Mo-Sa 10:00-22:30","wardNo":"069","wardName":"JAWAHAR MARG"},{"latitude":22.72196333333333,"longitude":75.83481166666667,"precision":1.1,"amenity":"pharmacy","name":"Shree Nath Medical","name_hindi":"श्री नाथ मेङिकल","adress":"4 Ramchandra Square, Airport Road","mobile":"8225858639","opening_hours":"24/7","wardNo":"006","wardName":"MALHARGANJ"},{"latitude":22.7195,"longitude":75.83310666666667,"precision":1.2,"amenity":"pharmacy","name":"Shree Swami Parmanand Medical Store","name_hindi":"श्री स्वामी परमानंद मेङिकल स्टोर","adress":"137 Panchkuiya Road","mobile":"9827799963","email":"amitkandhari@gmail.com","opening_hours":"Mo-Sa09:00-13:30;16:00-18:30","wardNo":"006","wardName":"MALHARGANJ"},{"latitude":22.724325,"longitude":75.82689166666667,"precision":1,"amenity":"pharmacy","name":"Sanskar Medical","name_hindi":"संस्कार मेङिकल","adress":"1/ E Sadhana Nagar ,Sanskar Tower, Airport Road","mobile":"9165904113","opening_hours":"Mo-Sa09:30-21:30","wardNo":"004","wardName":"SUKHDEV NAGAR"},{"latitude":22.72803833333333,"longitude":75.832075,"precision":0.9,"amenity":"pharmacy","name":"Laxin Medicose","name_hindi":"लक्षीन मेङिकोज़","adress":"57 Sahu Nagar, 60 Feet Airport Road","mobile":"9993420005","opening_hours":"Mo-Sa09:00-22:00","wardNo":"004","wardName":"SUKHDEV NAGAR"},{"latitude":22.721555,"longitude":75.83712166666666,"precision":0.8,"amenity":"pharmacy","name":"Agrasen Medicose","name_hindi":"अग्रसेन मेङिकोज़","adress":"19/3 Mahavir Bhag","mobile":"9589412365","opening_hours":"Mo-Sa10:00-20:00","wardNo":"007","wardName":"JANTA COLONY"},{"latitude":22.71994666666667,"longitude":75.84468333333332,"precision":2,"amenity":"pharmacy","name":"Shivam Medical","name_hindi":"शिवम मेङिकल","adress":"Gopal Niwas Square","mobile":"9907222202","opening_hours":"Mo-Sa09:00-23:00","wardNo":"006","wardName":"MALHARGANJ"},{"latitude":22.71987333333333,"longitude":75.84473166666666,"precision":1,"amenity":"pharmacy","name":"Vinayak Medicose","name_hindi":"विनायक मेङिकोज़","adress":"305 M.G. Road","mobile":"8109463975","opening_hours":"Mo-Su09:00-23:00","wardNo":"006","wardName":"MALHARGANJ"},{"latitude":22.71951333333333,"longitude":75.84678000000001,"precision":1,"amenity":"pharmacy","name":"Sanjay Medical Store","name_hindi":"संजय मेङिकल स्टोर","adress":"309 Mg Road, Near Malharganj Police Station","phone":"07312450747","opening_hours":"Mo-Sa09:00-20:00","wardNo":"069","wardName":"JAWAHAR MARG"},{"latitude":22.72004333333333,"longitude":75.847485,"precision":1.3,"amenity":"pharmacy","name":"Sai Kripa Medicose","name_hindi":"साई क्रपा मेङिकोज़","adress":"Sai Krupa Apartment, Near Malharganj Police Station","mobile":"8719928868","opening_hours":"Mo-Sa09:00-13:00;17:00-21:00","wardNo":"008","wardName":"JUNA RISALA"},{"latitude":22.72116166666666,"longitude":75.84915,"precision":1,"amenity":"pharmacy","name":"Ekta Chemist","name_hindi":"एकता केमिस्ट","adress":"48/3, Chhipa Bakhal","phone":"07312450019","opening_hours":"Mo-Sa09:00-20:00","wardNo":"008","wardName":"JUNA RISALA"},{"latitude":22.70369266,"longitude":75.854937,"precision":4.5509996,"amenity":"pharmacy","name":"Jassi Medical","name_hindi":"जस्सी मेडिकल","adress":"3B, Prem Nagar,Indore","opening_hours":"Tu-Sa 10:00-22:00","wardNo":"066","wardName":"SHAHID HEMU COLONY"},{"latitude":22.70050814,"longitude":75.8701515,"precision":4.5509996,"amenity":"pharmacy","name":"Pradhanmantri Jan Aushdhi Kendra","name_hindi":"प्रधानमंत्री जन औषधि केंद्र","adress":"Agrawal Nagar","mobile":"9098794746","opening_hours":"Mo-Sa 10:30-21:30 ; Su 10:30-15:30","wardNo":"063","wardName":"NAVLAKHA"},{"latitude":22.69438383,"longitude":75.86618903,"precision":7.585,"amenity":"pharmacy","name":"Mangalmurti Medicose","name_hindi":"मंगलमूर्ति मेडिकोज","adress":"Radhakrishna Complex, Near Apple Hospital, Indore","mobile":"9575562771","opening_hours":"Mo-Su 09:00-22:00","wardNo":"065","wardName":"SANT KANWARRAM"},{"latitude":22.69934321,"longitude":75.8522372,"precision":7.585,"amenity":"pharmacy","name":"Sachdev Medicose","name_hindi":"सचदेव मेडिकोज","adress":"Triveni Complex","mobile":"9981644117","opening_hours":"Mo-Sa 09:00-13:00 ; 17:00-22:00","wardNo":"066","wardName":"SHAHID HEMU COLONY"},{"latitude":22.69436605,"longitude":75.86632908,"precision":6.068,"amenity":"pharmacy","name":"New Sonal Medical","name_hindi":"न्यू सोनल मेडिकल","adress":"Ug-6, Radhakrishna Complex, Near Apple Hospital, Indore","mobile":"9893493517","opening_hours":"Mo-Su 08:00-22:00","wardNo":"065","wardName":"SANT KANWARRAM"},{"latitude":22.70359339,"longitude":75.85454991,"precision":6.068,"amenity":"pharmacy","name":"Satguru Medical","name_hindi":"सतगुरु मेडिकल","adress":"8A ,Prem Nagar, Indore","opening_hours":"Mo-Sa 10:00-15:00 ; 17:00-22:00","wardNo":"066","wardName":"SHAHID HEMU COLONY"},{"latitude":22.71541404,"longitude":75.8450032,"precision":3.216,"amenity":"pharmacy","name":"Charul Medical","name_hindi":"चारुल मेडिकल","adress":"278, Jawahar Marg","mobile":"9329312864","wardNo":"069","wardName":"JAWAHAR MARG"},{"latitude":22.71530224,"longitude":75.84508944,"precision":3.216,"amenity":"pharmacy","name":"Parth Chemist","name_hindi":"पार्थ केमिस्ट","adress":"208,Jawahar Marg","mobile":"9425443679","opening_hours":"Mo-Sa 11:00-23:00","wardNo":"069","wardName":"JAWAHAR MARG"},{"latitude":22.71574622,"longitude":75.84634683,"precision":3.216,"amenity":"pharmacy","name":"Patanjali Store","name_hindi":"पतंजलि स्टोर","adress":"Bhagat Singh  Marg","mobile":"9300010155","opening_hours":"Mo-Sa 10:00-22:00","wardNo":"069","wardName":"JAWAHAR MARG"},{"latitude":22.7193728,"longitude":75.8463534,"precision":3.216,"amenity":"pharmacy","name":"Shri Mahavir Medical","name_hindi":"श्री महावीर मेडिकल","adress":"29,Tori Corner ,Malhargang","opening_hours":"Mo-Sa 13:00-15:00","wardNo":"008","wardName":"JUNA RISALA"},{"latitude":22.71576506,"longitude":75.84391718,"precision":3.216,"amenity":"pharmacy","name":"Sajal Chemist","name_hindi":"सजल केमिस्ट","adress":"6/1, Narth ,Raj Mohalla","phone":"0731416354","opening_hours":"Mo-Sa 10:00-22:00","wardNo":"069","wardName":"JAWAHAR MARG"},{"latitude":22.7160036,"longitude":75.84345995,"precision":3.216,"amenity":"pharmacy","name":"Shivani Medicose","name_hindi":"शिवानी मेडिकोज","adress":"37/1,Narth Rajmohalla","wardNo":"069","wardName":"JAWAHAR MARG"},{"latitude":22.7159154,"longitude":75.84186607,"precision":3.216,"amenity":"pharmacy","name":"Ten Percent Medicose","name_hindi":"टेन परसेंट मेडिकोज","adress":"27/1 , North Rajmohalla","wardNo":"069","wardName":"JAWAHAR MARG"},{"latitude":22.71261174,"longitude":75.84021788,"precision":3.216,"amenity":"pharmacy","name":"Jai Mata Di Medical","name_hindi":"जी माता दी मेडिकल","adress":"Mog Line","mobile":"9926729026","wardNo":"070","wardName":"LOKNAYAK NAGAR"},{"latitude":22.71245914,"longitude":75.84625108,"precision":3.216,"amenity":"pharmacy","name":"Pooja Shri Medicose","name_hindi":"पूजा श्री मेडिकोज","adress":"83/2, Biyabani ","mobile":"9826041251","wardNo":"069","wardName":"JAWAHAR MARG"},{"latitude":22.70417713,"longitude":75.86142317,"precision":4.288,"amenity":"pharmacy","name":"Shree Radha Medicose","name_hindi":"श्री राधा मेडिकोस","adress":"48, B.K. Sindhi Colony, 452010, Bhawarkua Main Rd, Navlakha, Sindhi Colony, Indore\n\n","phone":"07312449268","mobile":"9926084461","opening_hours":"Mo-Fr 10:30-8:30","wardNo":"065","wardName":"SANT KANWARRAM"},{"latitude":22.69910045,"longitude":75.86438161,"precision":4.288,"amenity":"pharmacy","name":"Prem Seva  Homoeostore","name_hindi":"प्रेम सेवा होमोटोस्टोरे\n\n","adress":"G-7 Samriddi Complex 322. Bhanwar Kuan Main Road Opp Pishori Dhaba, Indore\n\n","phone":"07312473845","opening_hours":"Mo-Fr 11:30-21: 30","wardNo":"065","wardName":"SANT KANWARRAM"},{"latitude":22.69784071,"longitude":75.86509453,"precision":4.288,"amenity":"pharmacy","name":"Manvir Medical Store","name_hindi":"महावीर मेडिकल स्टोर","adress":"M4H Road, Agrawal Dharmshala , Opp.M.Y.Hospital , Near Dawa Bazar, Murai Mohalla, Jaora Compound, Indore","mobile":"9806123100","opening_hours":"Mo-Fr 10:00-21:00","wardNo":"065","wardName":"SANT KANWARRAM"},{"latitude":22.69966822,"longitude":75.86789303,"precision":4.288,"amenity":"pharmacy","name":"Satguru Medical Store","name_hindi":"सतगुरु मेडिकल स्टोर इंदौ र","adress":"\nBholaram Ustad Marg, Ring Road, Sector A, Sarvanand Nagar, Pipliya Rao, Indore\n\n","mobile":"9826019491","opening_hours":"Mo-Fr 10: 00-21: 00","wardNo":"063","wardName":"NAVLAKHA"},{"latitude":22.69978292,"longitude":75.86813437,"precision":4.288,"amenity":"pharmacy","name":"Shree Ji Medical Store","name_hindi":"श्री जी मेडिकल स्टोर ","adress":"Gulmarg Complex, 1, Sapna Sangeeta Rd, Navlakha, Indore","mobile":"9893633196","opening_hours":"Mo-Fr 12: 00-21: 00","wardNo":"063","wardName":"NAVLAKHA"},{"latitude":22.69887371,"longitude":75.86668135,"precision":4.288,"amenity":"pharmacy","name":"Radhaswami Medical Store","name_hindi":"राधा स्वामी मेडिकल स्टोर ","adress":"Prince Plaza, 207, Sapna Sangeeta Rd, Navlakha, Indore","mobile":"9977778957","opening_hours":"Mo-Fr 10: 00-21: 30","wardNo":"063","wardName":"NAVLAKHA"},{"latitude":22.71532724,"longitude":75.84515665,"precision":5,"amenity":"pharmacy","name":"Aarogya Medical","name_hindi":"आरोग्य मेडिकल","adress":"Flat No 5 Malganj Jawahar Marg","opening_hours":"Mo-Sa 09:00-23:00","wardNo":"069","wardName":"JAWAHAR MARG"},{"latitude":22.71534125,"longitude":75.845131,"precision":5,"amenity":"pharmacy","name":"Rx Aushadhi","name_hindi":"आरएक्स औषधि","adress":"39/R 278 Jawahar Marg","mobile":"9109141023","opening_hours":"Mo-Sa 09:30-23:00","wardNo":"069","wardName":"JAWAHAR MARG"},{"latitude":22.71533946,"longitude":75.8449661,"precision":5,"amenity":"pharmacy","name":"New Goodluck Chemist","name_hindi":"न्यू गुडलक केमिस्ट","adress":"278 Jawahar Marg","opening_hours":"Mo-Sa 21:30-22:00","wardNo":"069","wardName":"JAWAHAR MARG"},{"latitude":22.71542755,"longitude":75.84500273,"precision":5,"amenity":"pharmacy","name":"Deep Pharmacy","name_hindi":"दीप फार्मेसी","adress":"208 Jawahar Marg, Malganj","opening_hours":"Mo-Sa 10:30-21:00","wardNo":"069","wardName":"JAWAHAR MARG"},{"latitude":22.71546597,"longitude":75.84645642,"precision":5,"amenity":"pharmacy","name":"New Popular Medicose","name_hindi":"न्यू पॉपुलर मेडिकोज","adress":"200, Jawahar Marg","opening_hours":"Mo-Sa 10:00-21:00","wardNo":"069","wardName":"JAWAHAR MARG"},{"latitude":22.71529937,"longitude":75.84429593,"precision":5,"amenity":"pharmacy","name":"Khandelwal Chemist","name_hindi":"खण्डेलवाल केमिस्ट","adress":"Jawahar Marg","opening_hours":"Mo-Sa 09:00-20:30","wardNo":"069","wardName":"JAWAHAR MARG"},{"latitude":22.71526077,"longitude":75.84371849,"precision":5,"amenity":"pharmacy","name":"Mayank Medicose","name_hindi":"मयंक मेडिकोज","adress":"218 Jawahar Marg Rajmollah","mobile":"9425057711","opening_hours":"Mo-Sa 09:00-20:30","wardNo":"069","wardName":"JAWAHAR MARG"},{"latitude":22.71537882,"longitude":75.84338326,"precision":5,"amenity":"pharmacy","name":"New Agrawal Medicose","name_hindi":"न्यू अग्रवाल मेडिकोज","adress":"263,Jawahar Marg","opening_hours":"Mo-Sa 09:30-20:00","wardNo":"069","wardName":"JAWAHAR MARG"},{"latitude":22.71263963,"longitude":75.84024308,"precision":10,"amenity":"pharmacy","name":"Jai Mata Di Medical","name_hindi":"जय माता दी मेडिकल","adress":"Nagar Nigam Market","mobile":"9926719026","opening_hours":"Mo-Sa 09:00-20:30","wardNo":"070","wardName":"LOKNAYAK NAGAR"},{"latitude":22.70598826,"longitude":75.84283405,"precision":5,"amenity":"pharmacy","name":"Osho Medical Store","name_hindi":"ओशो मेडिकल स्टोर","adress":"Mog Lines","mobile":"9479952095","opening_hours":"Mo-Sa 9:30-21:00","wardNo":"067","wardName":"MAHARAJA HOLKAR"},{"latitude":22.70914637,"longitude":75.8461373,"precision":5,"amenity":"pharmacy","name":"Ajanta Medicose","name_hindi":"अजंता मेडिकोज","adress":"13, Mahunaka Annapurna Road","opening_hours":"Mo-Sa 10:30-20:00","wardNo":"069","wardName":"JAWAHAR MARG"},{"latitude":22.69453768,"longitude":75.83836714,"precision":9,"amenity":"pharmacy","name":"Ashirwad Medicos","name_hindi":"आशिर्वाद चिकित्सा","adress":" Anpurna Road","mobile":"9977690890","opening_hours":"Mo-Sa 10:30-20:30","wardNo":"071","wardName":"DRAVID NAGAR"},{"latitude":22.69496404,"longitude":75.83869528,"precision":9,"amenity":"pharmacy","name":"Nirogyam Medical Stores","name_hindi":"Nirogyam मेडिकल स्टोर","adress":"Asha Tower Anpurna Road","opening_hours":"Mo-fr 11:00-20:00","wardNo":"071","wardName":"DRAVID NAGAR"},{"latitude":22.69568686,"longitude":75.83892783,"precision":9,"amenity":"pharmacy","name":"Jp Medicos ","name_hindi":"जेपी मेडिकोज","adress":"Anpurna Road","opening_hours":"Mo-Sa 10:00-20:00","wardNo":"071","wardName":"DRAVID NAGAR"},{"latitude":22.69875741,"longitude":75.84022719,"precision":5,"amenity":"pharmacy","name":"Tirupati Medical","name_hindi":"तिरुपति चिकित्सा","adress":"Annpurna Main Road","opening_hours":"Mo-Sa 10:30-20:30","wardNo":"072","wardName":"LOKMANYA NAGAR"},{"latitude":22.70000792,"longitude":75.84104345,"precision":5,"amenity":"pharmacy","name":"Hari Om Medicals","name_hindi":"हरिओम मेडिकल","adress":"Usha Nagar Main Road","mobile":"9754782299","opening_hours":"Mo-Sa 10:00-20:30","wardNo":"072","wardName":"LOKMANYA NAGAR"},{"latitude":22.69584147,"longitude":75.84420308,"precision":9,"amenity":"pharmacy","name":"Rahul Medical And General Store","name_hindi":"राहुल मेडिकल और जनरल स्टोर","adress":"Kesar Bagh Road","opening_hours":"Mo-Sa 10:00-20:30","wardNo":"072","wardName":"LOKMANYA NAGAR"},{"latitude":22.68984587,"longitude":75.84376038,"precision":5,"amenity":"pharmacy","name":"Smit Medical","name_hindi":"चिकित्सा स्मित","adress":"8 Siddharthnagar Kesar Bagh Road","opening_hours":"Mo-Sa 10:00-21:00","wardNo":"072","wardName":"LOKMANYA NAGAR"},{"latitude":22.69392042,"longitude":75.84410363,"precision":5,"amenity":"pharmacy","name":"Amrit Medical Store","name_hindi":"अमृत ​​मेडिकल स्टोर","adress":"Kesar Bagh Road","mobile":"9826383746","opening_hours":"Mo-Fr 10:00-20:00","wardNo":"072","wardName":"LOKMANYA NAGAR"},{"latitude":22.69403993,"longitude":75.84383582,"precision":4,"amenity":"pharmacy","name":"Prem Medicos","name_hindi":"प्रेम मेडिकोज","adress":"Inderlok Colony Kesar Bagh Road","mobile":"9425318128","opening_hours":"Mo-Fr 11:00-20:00","wardNo":"072","wardName":"LOKMANYA NAGAR"},{"latitude":22.69478628,"longitude":75.84413256,"precision":5,"amenity":"pharmacy","name":"Perfect Chemist And Druggist","name_hindi":"परफेक्ट केमिस्ट और ड्रगिस्ट","adress":"Kesar Bagh Road","opening_hours":"Mo-Sa 10:00-22:00","wardNo":"072","wardName":"LOKMANYA NAGAR"},{"latitude":22.69712901,"longitude":75.8387936,"precision":9,"amenity":"pharmacy","name":"Mahalaxmi Medical Stores","name_hindi":"महालक्ष्मी मेडिकल स्टोर","adress":"Usha Nagar","opening_hours":"Mo-fr 9:00-20:00","wardNo":"071","wardName":"DRAVID NAGAR"},{"latitude":22.69560266,"longitude":75.83582853,"precision":5,"amenity":"pharmacy","name":"Mantra Medicos","name_hindi":"मंत्र चिकित्सा","adress":"617 Usha Nagar","mobile":"9826831095","opening_hours":"Mo-Sa 10:00-20:00","wardNo":"071","wardName":"DRAVID NAGAR"},{"latitude":22.69673368,"longitude":75.83434365,"precision":10,"amenity":"pharmacy","name":"New Lakshmi Medical Shop","name_hindi":"न्यू लक्ष्मी मेडिकल शॉप","adress":"93/2 Narendra Tiwari Marg Sudama Nagar","mobile":"9826156664","opening_hours":"Mo-Sa 10:00-20:00","wardNo":"071","wardName":"DRAVID NAGAR"},{"latitude":22.6972634,"longitude":75.83365095,"precision":5,"amenity":"pharmacy","name":"Charu Medicos","name_hindi":"चारू मेडिकोज","adress":"Ranjeet Hanuman Road","opening_hours":"Mo-Su 10:00-21:00","wardNo":"083","wardName":"GUSHMATA NAGAR"},{"latitude":22.6977724,"longitude":75.83370725,"precision":5,"amenity":"pharmacy","name":"Pulse Pharmacy","name_hindi":"पल्स फार्मेसी","adress":"316 Shreeji Apartment Usha Nagar Extension Indore","mobile":"9926328318","opening_hours":"Mo-Sa 10:00-21:00","wardNo":"071","wardName":"DRAVID NAGAR"},{"latitude":22.723895,"longitude":75.84618333333333,"precision":2.4,"amenity":"pharmacy","name":"Shree Ratan Medicose","name_hindi":" श्री रतन मेङिकोज़","adress":"1 Shankar Ganj Main Road Jinshi","mobile":"9826211410","opening_hours":"Mo-Sa09:00-22:30","wardNo":"007","wardName":"JANTA COLONY"},{"latitude":22.72293166666667,"longitude":75.84608333333334,"precision":1,"amenity":"pharmacy","name":"Ravi Shankar Chemist","name_hindi":"रवि शंकर केमिस्ट","adress":"106, Subhash Marg, Main Road, Jinsi Square","mobile":"9826096777","opening_hours":"Mo-Sa11:00-23:30","wardNo":"008","wardName":"JUNA RISALA"},{"latitude":22.720925,"longitude":75.84602666666666,"precision":1.9,"amenity":"pharmacy","name":"Faiz Chemist","name_hindi":"फैज़ केमिस्ट","adress":"4, Malharganj Main Road","mobile":"7869043100","opening_hours":"Mo-Sa09:00-13:00;15:30-23:00","wardNo":"008","wardName":"JUNA RISALA"},{"latitude":22.72011166666667,"longitude":75.84328666666667,"precision":2.3,"amenity":"pharmacy","name":"Vishwas Enterprises Chemist And Drugist","name_hindi":"विश्वास इन्टरप्राईजेस केमिस्ट एंव ङ्रगिस्ट","adress":"369, Mg Road, Bada Ganpati Indoret","mobile":"9977131778","opening_hours":"Mo-Sa10:00-23:00","wardNo":"006","wardName":"MALHARGANJ"},{"latitude":22.72044166666667,"longitude":75.84194666666667,"precision":1,"amenity":"pharmacy","name":"Ambika Medical Store","name_hindi":"अंबीका मेङिकल स्टोर","adress":"404 M G Road","mobile":"9301777751","opening_hours":"Mo-Sa10:00-22:00","wardNo":"007","wardName":"JANTA COLONY"},{"latitude":22.72331833333334,"longitude":75.83735666666666,"precision":0.9,"amenity":"pharmacy","name":"Shree Pharmacy Medical","name_hindi":"श्री फार्मेसी मेङिकल","adress":"3/10 Mahavir Bagh","mobile":"9753948442","opening_hours":"Mo-Sa09:00-22:00","wardNo":"007","wardName":"JANTA COLONY"},{"latitude":22.70013417,"longitude":75.83653282,"precision":4.5509996,"amenity":"pharmacy","name":"Easy Medico","name_hindi":"इजी मेडिको","adress":"Vardhaman Enterprise,Usha Nagar Extension,Indore","phone":"07314043200","email":"customerservice@easymedico.com","opening_hours":"Mo-Sa 9:00-22:00","wardNo":"071","wardName":"DRAVID NAGAR"},{"latitude":22.70148666,"longitude":75.8549569,"precision":4.5509996,"amenity":"pharmacy","name":"Prakash Medical","name_hindi":"प्रकाश मेडिकल","adress":"18-19 Manik Bagh Road, Indore","mobile":"9009004026","opening_hours":"Mo-Su 10:00-22:00","wardNo":"066","wardName":"SHAHID HEMU COLONY"},{"latitude":22.69844266,"longitude":75.83440255,"precision":4.5509996,"amenity":"pharmacy","name":"Arihant Homeo Pharmacy","name_hindi":"अरिहंत होइमो फार्मेसी","adress":"307 Usha Nagar Extension,Indore","phone":"07314222607","opening_hours":"Mo-Sa 10:00-22:00","wardNo":"071","wardName":"DRAVID NAGAR"},{"latitude":22.7213133,"longitude":75.86083591,"precision":4.288,"amenity":"pharmacy","name":"Davaiyan","name_hindi":"दवाईयां","adress":"Novelty Market","opening_hours":"Mo-Sa 10:00-17:00","wardNo":"057","wardName":"DEVI AHILYABAI"},{"latitude":22.71003291,"longitude":75.83166793,"precision":5,"amenity":"pharmacy","name":"Shree Medicose","name_hindi":"श्री मेडिकोज","adress":"200/2, Dhar Road","opening_hours":"Mo-Sa 09:30-21:00","wardNo":"070","wardName":"LOKNAYAK NAGAR"},{"latitude":22.71723685,"longitude":75.8639016,"precision":3.216,"amenity":"pharmacy","name":"Malwa Traders","name_hindi":"मालवा ट्रेडर्स","adress":"Maharani Road ","phone":"07312543255","opening_hours":"Mo-Sa 10:00-18:00","wardNo":"060","wardName":"RANIPURA"},{"latitude":22.71813948,"longitude":75.86666499,"precision":4.288,"amenity":"pharmacy","name":"Deepesh Medical Stores","name_hindi":"दीपेश मेडिकल स्टोर्स","adress":"160 Ptc Maharani Road","mobile":"9826081455","opening_hours":"Mo-Sa 09:00-17:30","wardNo":"060","wardName":"RANIPURA"},{"latitude":22.71125858,"longitude":75.86393621,"precision":4.288,"amenity":"pharmacy","name":"Asha Medical","name_hindi":"आशा मेडिकल ","adress":"Kumawatpura","mobile":"9907306677","opening_hours":"Mo-Sa 11:30-21:30","wardNo":"062","wardName":"RAVJI BAZAR"},{"latitude":22.71229833,"longitude":75.86428663,"precision":4.288,"amenity":"pharmacy","name":"Keshav Chemist","name_hindi":"केशव केमिस्ट","adress":"42 Malipura Juni Indore","mobile":"9039505717","opening_hours":"Mo-Sa 11:00-22:00","wardNo":"062","wardName":"RAVJI BAZAR"},{"latitude":22.71291654,"longitude":75.86262404,"precision":4.288,"amenity":"pharmacy","name":"Meet Medical","name_hindi":"मीत मेडिकल","adress":"22 Raoji Bazar Juni Indore","mobile":"9981914141","opening_hours":"Mo-Su 10:00-22:00","wardNo":"062","wardName":"RAVJI BAZAR"},{"latitude":22.7142531,"longitude":75.8301939,"precision":10,"amenity":"pharmacy","name":"Baba Chemist","name_hindi":"बाबा केमिस्ट","adress":"213, Panchmurti Nagar","mobile":"9826093237","opening_hours":"Mo-Sa 10:00-22:00","wardNo":"070","wardName":"LOKNAYAK NAGAR"},{"latitude":22.70513196,"longitude":75.84288398,"precision":5,"amenity":"pharmacy","name":"New Surendra Chemist","name_hindi":"न्यू सुरेन्द्र केमिस्ट","adress":"4, Mhow Naka Nagar Nigam Market","opening_hours":"Mo-Sa 09:30-20:00","wardNo":"071","wardName":"DRAVID NAGAR"},{"latitude":22.71581747,"longitude":75.85787024,"precision":4.288,"amenity":"pharmacy","name":"Ruchi Chemist","name_hindi":"रूचि केमिस्ट","adress":"22 Nandlalpura","phone":"07312341661","opening_hours":"Mo-Sa 10:00-22:00","wardNo":"059","wardName":"HARSIDDHI"},{"latitude":22.70521555,"longitude":75.84290707,"precision":3.216,"amenity":"pharmacy","name":"Manokamna Medical","name_hindi":"मनोकामना मेडिकल","adress":"Laxmansingh Gaur Road","opening_hours":"Mo-Sa 09:30-22:00","wardNo":"071","wardName":"DRAVID NAGAR"},{"latitude":22.71662613,"longitude":75.85781591,"precision":4.288,"amenity":"pharmacy","name":"Laxmi Medical","name_hindi":"लक्ष्मी मेडिकल","adress":"87 Jawahar Marg","phone":"07312341561","opening_hours":"Mo-Sa 10:00-22:00","wardNo":"059","wardName":"HARSIDDHI"},{"latitude":22.71203832,"longitude":75.84182837,"precision":4.288,"amenity":"pharmacy","name":"Jain Medical","name_hindi":"जैन मेडिकल","adress":"Shri Nath Tower ,Mog Lines","opening_hours":"Mo-Sa 10:00-21:00","wardNo":"071","wardName":"DRAVID NAGAR"},{"latitude":22.71207975,"longitude":75.8418261,"precision":3.216,"amenity":"pharmacy","name":"Agrawal Medicose","name_hindi":"अग्रवाल मेडिक","adress":"Mog Lines","mobile":"9827314346","opening_hours":"Mo-Sa 10:00-22:00","wardNo":"071","wardName":"DRAVID NAGAR"},{"latitude":22.71639157,"longitude":75.85783117,"precision":4.288,"amenity":"pharmacy","name":"Saraswati Medico ","name_hindi":"सरस्वती मेडिको","adress":"90 Jawahar Marg","mobile":"9826333800","opening_hours":"Mo-Sa 10:30-22:30","wardNo":"059","wardName":"HARSIDDHI"},{"latitude":22.71645882,"longitude":75.85775931,"precision":3.216,"amenity":"pharmacy","name":"Bhagyashree Medicose","name_hindi":"भाग्यश्री मेडिकोज","adress":"91 Jawahar Marg","mobile":"9826020160","opening_hours":"Mo-Sa 10:00-22:00","wardNo":"059","wardName":"HARSIDDHI"},{"latitude":22.71666509,"longitude":75.85686817,"precision":4.288,"amenity":"pharmacy","name":"Adi Sales ","name_hindi":"आदि सल्स","adress":"95 Jawahar Marg","phone":"07312340206","email":"aadish_indore@hotmail.com","opening_hours":"Mo-Sa 11:00-20:00","wardNo":"059","wardName":"HARSIDDHI"},{"latitude":22.71616081,"longitude":75.85409588,"precision":4.288,"amenity":"pharmacy","name":"Daimond Medicals","name_hindi":"डायमंड मेडिकल","adress":"373 Jawahar Marg","phone":"07312435690","opening_hours":"Mo-Sa 09:00-22:00","wardNo":"059","wardName":"HARSIDDHI"},{"latitude":22.71618332,"longitude":75.85406455,"precision":4.288,"amenity":"pharmacy","name":"Ajay Medicals","name_hindi":"अजय मेडिकल","adress":"117 Jawahar Marg","phone":"07312340855","opening_hours":"Mo-Sa 10:00-22:00","wardNo":"059","wardName":"HARSIDDHI"},{"latitude":22.71875285,"longitude":75.86913964,"precision":5,"amenity":"pharmacy","name":"Apple Medical And Surgical","name_hindi":"एप्पल मेडिकल एंड सर्जिकल","adress":"G-39,Yashwant Plaza,Near Railway Station ,Indore","mobile":"7828415166","opening_hours":"Mo-Sa 12:00-20:00","wardNo":"055","wardName":"SAUTH TUKOGANJ"},{"latitude":22.71702241,"longitude":75.86357597,"precision":5,"amenity":"pharmacy","name":"Lucky Chemist","name_hindi":"लकी केमिस्ट","adress":"45,Ranipura ,Indore","phone":"07312541910","opening_hours":"Mo-Sa 10:30-22:30","wardNo":"060","wardName":"RANIPURA"},{"latitude":22.71743724,"longitude":75.86421991,"precision":5,"amenity":"pharmacy","name":"Service Medical Stores","name_hindi":"सर्विस मेडिकल स्टोर्स","adress":"72,Maharani Road,Indore","phone":"07312544554","opening_hours":"Mo-Sa 9:15-21:30","wardNo":"057","wardName":"DEVI AHILYABAI"},{"latitude":22.71743895,"longitude":75.86433463,"precision":5,"amenity":"pharmacy","name":"Cash Chemist","name_hindi":"केश केमिस्ट","adress":"7,Maharani Road,Indore","phone":"07312543179","opening_hours":"Mo-Sa 11:30-21:30","wardNo":"057","wardName":"DEVI AHILYABAI"},{"latitude":22.71364176,"longitude":75.8692695,"precision":4,"amenity":"pharmacy","name":"Medico Corner","name_hindi":"मेडिको कार्नर","adress":"34, Nasia Road, Sarwate Bus Stand, Indore","mobile":"7746014355","opening_hours":"Mo-Sa 9:00-22:00","wardNo":"055","wardName":"SAUTH TUKOGANJ"},{"latitude":22.71625439,"longitude":75.85812288,"precision":5,"amenity":"pharmacy","name":"Annapoorna Homeo Stores","name_hindi":"अन्नपूर्णा होमियो स्टोर्स","adress":"17,Nandlalpura Choraha,Indore","mobile":"9755585552","opening_hours":"Mo-Sa 10:30-23:00\nSu 11:00-14:00","wardNo":"059","wardName":"HARSIDDHI"},{"latitude":22.71626224,"longitude":75.8580992,"precision":5,"amenity":"pharmacy","name":"Rai Medical Stores","name_hindi":"राय मेडिकल स्टोर्स","adress":"17,Nandlalpura,Indore","mobile":"9993650001","opening_hours":"Mo-Sa 10:30-23:00\nSu 11:00-14:00","wardNo":"059","wardName":"HARSIDDHI"},{"latitude":22.70510377,"longitude":75.84313075,"precision":9,"amenity":"pharmacy","name":"Manokamna Medical Stores","name_hindi":"मनोकामना मेडिकल स्टोर","adress":"2 Mahu Naka","opening_hours":"Mo-Sa 10:30-21:00","wardNo":"071","wardName":"DRAVID NAGAR"},{"latitude":22.7032881,"longitude":75.84094849,"precision":9,"amenity":"pharmacy","name":"Bhartiya Jan Aushadhi Kendra","name_hindi":"भारतीय जन सेवा केंद्र","adress":"203, Agar Main Ranjeet Hanuman Road","mobile":"9179737999","opening_hours":"Mo-fr 10:30-20:00","wardNo":"071","wardName":"DRAVID NAGAR"},{"latitude":22.70182415,"longitude":75.83888477,"precision":5,"amenity":"pharmacy","name":"New Prachi Medicals","name_hindi":"नई प्राची चिकित्सा","adress":"17/1Usha Nagar Main Road","mobile":"9893671080","opening_hours":"Mo-Sa 10:30-21:00","wardNo":"071","wardName":"DRAVID NAGAR"},{"latitude":22.69990666,"longitude":75.8363631,"precision":5,"amenity":"pharmacy","name":"Aarogya Medical Stores","name_hindi":"Aarogya मेडिकल स्टोर","adress":"G-3 Usha Nagar Main Road","opening_hours":"Mo-Sa 10:00-21:00","wardNo":"071","wardName":"DRAVID NAGAR"},{"latitude":22.69681777,"longitude":75.83223662,"precision":5,"amenity":"pharmacy","name":"Aggarwal Medical Store","name_hindi":"अग्रवाल मेडिकल स्टोर","adress":"27-A Sukhnivas Road Bank Colony","opening_hours":"Mo-Su 11:00-21:00","wardNo":"083","wardName":"GUSHMATA NAGAR"},{"latitude":22.70183228,"longitude":75.83751005,"precision":5,"amenity":"pharmacy","name":"Dreams Pharmacy","name_hindi":"Dreams फार्मेसी","adress":"33 Dravid Nagar","opening_hours":"Mo-Sa 10:00-13:00;16:00-21:00","wardNo":"071","wardName":"DRAVID NAGAR"},{"latitude":22.70000531,"longitude":75.85359975,"precision":4.5509996,"amenity":"pharmacy","name":"Popular Medical","name_hindi":"पॉपुलर मेडिकल","adress":"118 Rupram Nagar","phone":"07312449196","opening_hours":"Mo-Sa 10:15-22:45 ; Su 10:15-15:15","wardNo":"066","wardName":"SHAHID HEMU COLONY"},{"latitude":22.6962017,"longitude":75.8309928,"precision":5,"amenity":"pharmacy","name":"Hope Medicos","name_hindi":"होप मेडिकोज","adress":"Shop G5 Radha Krishna Complex Ranjeet Hanuman Road","mobile":"8463022401","opening_hours":"Mo-Sa 12:00-23:50","wardNo":"083","wardName":"GUSHMATA NAGAR"},{"latitude":22.69150339,"longitude":75.8332737,"precision":5,"amenity":"pharmacy","name":"Apna Chemist","name_hindi":"अपना रसायन","adress":"299D Sudama Nagar","mobile":"9302127567","opening_hours":"Mo-Sa 10:00-20:00","wardNo":"082","wardName":"SUDAMA NAGAR"},{"latitude":22.69798186,"longitude":75.85693705,"precision":4.5509996,"amenity":"pharmacy","name":"Ezzy Medical","name_hindi":"एजी मेडिकल","adress":"233,Khatiwala Tank,Indore","opening_hours":"Mo-Su 09:00-21:00","wardNo":"065","wardName":"SANT KANWARRAM"},{"latitude":22.69797889,"longitude":75.85980081,"precision":4.5509996,"amenity":"pharmacy","name":"Guru Medical","name_hindi":"गुरु मेडिकल","adress":"782,Khatiwala Tank,Indore","mobile":"9981511618","opening_hours":"Mo-Su 09:00-21:00","wardNo":"065","wardName":"SANT KANWARRAM"},{"latitude":22.6995819,"longitude":75.85860176,"precision":4.5509996,"amenity":"pharmacy","name":"Raj Medical Store","name_hindi":"राज मेंडिकल स्टोर","adress":"302-M,Khatiwala Tank,Indore","phone":"07314245352","opening_hours":"Mo-Su 10:00-22:00","wardNo":"065","wardName":"SANT KANWARRAM"},{"latitude":22.70526161,"longitude":75.86013609,"precision":4.5509996,"amenity":"pharmacy","name":"Narmada Medical","name_hindi":"नर्मदा मेडिकल","adress":"107/3,Palsikar Colony,Indore","opening_hours":"Mo-Sa 10:00-22:00","wardNo":"066","wardName":"SHAHID HEMU COLONY"},{"latitude":22.69529396,"longitude":75.85321689,"precision":4.5509996,"amenity":"pharmacy","name":"Hakimi Medical","name_hindi":"हकीमी मेडिकल","adress":"16/2,Shyam Nagar,Manikbagh Road,Indore","mobile":"9300949952","opening_hours":"Mo-Su 10:00-13:00;17:00-22:00","wardNo":"073","wardName":"LAXMANSINGH CHAUHAN"},{"latitude":22.69749201,"longitude":75.85464433,"precision":3.216,"amenity":"pharmacy","name":"Life Plus Medical","name_hindi":"लाइफ प्लस मेडिकल","adress":"3, Manik Bagh Rd, Gulzar Colony, Saify Nagar, Transport Nagar, Indore","mobile":"8435085722","opening_hours":"Mo-Fr 10: 00-21: 00","wardNo":"073","wardName":"LAXMANSINGH CHAUHAN"},{"latitude":22.69787249,"longitude":75.85555097,"precision":4.288,"amenity":"pharmacy","name":"Arif Medical","name_hindi":"आरिफ  मेडिकल","adress":"207, Raj Royal Complex, Saifee Nagar Main Rd, Opp. Malva Cambridge School, Transport Nagar, Indore","mobile":"8109181141","opening_hours":"Mo-Fr 10:00-21: 00","wardNo":"073","wardName":"LAXMANSINGH CHAUHAN"},{"latitude":22.69795165,"longitude":75.85650778,"precision":4.288,"amenity":"pharmacy","name":"Seva Medicose","name_hindi":"सेवा मेडिकल","adress":"231, Khatiwala Tank Main Rd, Khatiwala Tank, Indore","phone":"07314092723","opening_hours":"Mo-Fr 9: 00-20: 00","wardNo":"065","wardName":"SANT KANWARRAM"},{"latitude":22.69778446,"longitude":75.85678534,"precision":4.288,"amenity":"pharmacy","name":"Indore Chemist ","name_hindi":"इंदौर रसायनज्ञ ","adress":"Sagardeep Apartment, 179, Saifee Nagar Main Rd, Khatiwala Tank, Transport Nagar, Indore","phone":"07314090227","opening_hours":"Mo-Fr 10: 00-21: 00","wardNo":"073","wardName":"LAXMANSINGH CHAUHAN"},{"latitude":22.69942568,"longitude":75.85880116,"precision":4.288,"amenity":"pharmacy","name":"Siddharth Medicose","name_hindi":"सिद्धार्थ मेडिकल","adress":"1046 ,Khatiwalatank B.G Place Flate No.303, Indore","mobile":"9407425162","opening_hours":"Mo-Fr 9: 00-21: 00","wardNo":"065","wardName":"SANT KANWARRAM"},{"latitude":22.69951864,"longitude":75.85835059,"precision":4.288,"amenity":"pharmacy","name":"Paras Medical Center","name_hindi":"परस मेडिकल सेंटर","adress":"329M, Khatiwala Tank, Indore","phone":"07312449255","opening_hours":"Mo-Fr 11: 00-21: 00","wardNo":"065","wardName":"SANT KANWARRAM"},{"latitude":22.70167957,"longitude":75.85478313,"precision":4.288,"amenity":"pharmacy","name":"Prakash Medical Store","name_hindi":"प्रकाश मेडिकल स्टोर","adress":"Shop.No.5,18-19,Manikbang Road, Indore","mobile":"9009004026","opening_hours":"Mo-Fr 11:00-19:00","wardNo":"066","wardName":"SHAHID HEMU COLONY"},{"latitude":22.69544512,"longitude":75.85237092,"precision":3.216,"amenity":"pharmacy","name":"National Medical Store","name_hindi":"नेशनल मेडिकल स्टोर ","adress":"Shyam Nagar,  Manik Bagh, Indore","mobile":"9826081340","opening_hours":"Mo-Su 10: 00-20: 00","wardNo":"073","wardName":"LAXMANSINGH CHAUHAN"},{"latitude":22.69535957,"longitude":75.85232377,"precision":4.288,"amenity":"pharmacy","name":"Anmol Medical","name_hindi":"अनमोल मेडिकल","adress":"21, Nandanvan Colony, Indore","mobile":"8889183285","opening_hours":"Mo-Fr 12: 00-21: 00","wardNo":"073","wardName":"LAXMANSINGH CHAUHAN"},{"latitude":22.7172658033669,"longitude":75.85561115294695,"precision":5,"amenity":"pharmacy","name":"Varsha Chemist ","name_hindi":" वर्षा केमिस्ट","adress":"7, Prince Y.N Road, Indore","opening_hours":"mo-sa 09:30-23:00","wardNo":"059","wardName":"HARSIDDHI"},{"latitude":22.71632318,"longitude":75.85539361,"precision":9,"amenity":"pharmacy","name":"Lakshmi Medical Hall","name_hindi":"लक्ष्मी मेडिकल हॉल","adress":"106,Jawahar Marg,Prince Yashwant Road Choraha","mobile":"9575472841","opening_hours":"Mo-Sa 10:00-21:00\nSu 10:00-12:00","wardNo":"059","wardName":"HARSIDDHI"},{"latitude":22.7084829,"longitude":75.85157897,"precision":5,"amenity":"pharmacy","name":"Shankar Medical","name_hindi":"शंकर मेडिकल","adress":"Jairampur Colony","mobile":"9300902932","opening_hours":"Mo-Su 9:00-22:00","wardNo":"067","wardName":"MAHARAJA HOLKAR"},{"latitude":22.70833501,"longitude":75.85171279,"precision":4,"amenity":"pharmacy","name":"Bhagya Shree Medical ","name_hindi":"भाग्य श्री मेडिकल","opening_hours":"Mo-Sa 9:30-23:30","wardNo":"067","wardName":"MAHARAJA HOLKAR"},{"latitude":22.71371522,"longitude":75.84921329,"precision":3,"amenity":"pharmacy","name":"Ekta Chemist","name_hindi":"एकता केमिस्ट","adress":"4,Kagdipura","opening_hours":"Mo-Sa 9:00-22:00","wardNo":"068","wardName":"BAMBAI BAZAR"},{"latitude":22.71571744,"longitude":75.85125713,"precision":3.216,"amenity":"pharmacy","name":"Ali Medical","name_hindi":"अली मेडिकल","adress":"145 Jawahar Marg ","phone":"07312349349","opening_hours":"Mo-Sa 10:00-22:00","wardNo":"068","wardName":"BAMBAI BAZAR"},{"latitude":22.71645144,"longitude":75.85463424,"precision":4.288,"amenity":"pharmacy","name":"Relief Chemist","name_hindi":"रिलीफ केमिस्ट","adress":"110 Jawahar Marg","phone":"07312343521","opening_hours":"Mo-Sa 10:00-22:00","wardNo":"059","wardName":"HARSIDDHI"},{"latitude":22.71579437,"longitude":75.85094139,"precision":3.216,"amenity":"pharmacy","name":"Nafees  Chemist","name_hindi":"नफीस केमिस्ट","adress":"Jawahar Marg","opening_hours":"Mo-Sa 10:00-22:00","wardNo":"068","wardName":"BAMBAI BAZAR"},{"latitude":22.71542716,"longitude":75.8495354,"precision":4.288,"amenity":"pharmacy","name":"Gandi Medicose","name_hindi":"गांधी म मेडिकोज","adress":"9/1 Narsingh Bazar","mobile":"9826016200","opening_hours":"Mo-Sa 10:00-22:00","wardNo":"068","wardName":"BAMBAI BAZAR"},{"latitude":22.71573983,"longitude":75.85018447,"precision":4.288,"amenity":"pharmacy","name":"Sankalp Drug House","name_hindi":"संकल्प ड्रग हाउस","adress":"335 Jawahar Marg","phone":"07312533953","opening_hours":"24/7","wardNo":"068","wardName":"BAMBAI BAZAR"},{"latitude":22.71597748,"longitude":75.85142003,"precision":4.288,"amenity":"pharmacy","name":"Saifi Medical","name_hindi":"सैफई मेडिकल","adress":"53 Bombay Bazar","mobile":"9754828235","opening_hours":"Mo-Sa 10:00-22:00","wardNo":"069","wardName":"JAWAHAR MARG"},{"latitude":22.71580061,"longitude":75.85224044,"precision":4.288,"amenity":"pharmacy","name":"Newyork Medicose","name_hindi":"न्यूयॉर्क मेडिकोज","adress":"282 Jawahar Marg","phone":"07312541925","opening_hours":"Mo-Sa 10:30-21:00","wardNo":"068","wardName":"BAMBAI BAZAR"},{"latitude":22.71606883,"longitude":75.852833,"precision":4.288,"amenity":"pharmacy","name":"Gaurav Chemist","name_hindi":"गौरव केमिस्ट","adress":"286 Jawahar Marg","mobile":"9826666138","opening_hours":"Mo-Sa 10:00-21:30","wardNo":"069","wardName":"JAWAHAR MARG"},{"latitude":22.71605729,"longitude":75.85284752,"precision":4.288,"amenity":"pharmacy","name":"Laxmi Medical","name_hindi":"लक्ष्मी मेडिकल","adress":"Jawahar Marg","mobile":"9806636446","opening_hours":"Mo-Sa 10:00-21:00","wardNo":"069","wardName":"JAWAHAR MARG"},{"latitude":22.71623681,"longitude":75.85539719,"precision":3.216,"amenity":"pharmacy","name":"Sonia Medical Hall","name_hindi":"सोनिया मेडिकल हॉल","adress":"13, Prince Yashvant Road Square","mobile":"9827217356","opening_hours":"Mo-Sa 11:00-22:00","wardNo":"059","wardName":"HARSIDDHI"},{"latitude":22.71345398,"longitude":75.85664977,"precision":3.216,"amenity":"pharmacy","name":"Gandhi Chemist","name_hindi":"गांधी केमिस्ट","adress":"90,Padhrinath Road","opening_hours":"Mo-Sa 11:00-21:00","wardNo":"059","wardName":"HARSIDDHI"},{"latitude":22.7077407,"longitude":75.85606275,"precision":3.216,"amenity":"pharmacy","name":"Sukhmani Medical","name_hindi":"सुखमनी मेडिकल","adress":"Moti Tabela","opening_hours":"Mo-Sa 11:00-22:00","wardNo":"061","wardName":"TATYA SARVATE"},{"latitude":22.70767092,"longitude":75.85612919,"precision":3.216,"amenity":"pharmacy","name":"Aarogya Medical","name_hindi":"आरोग्य मेडिकल","adress":"1 ,Bargal Colony,Palsikar Square","mobile":"9522288134","opening_hours":"24/7","wardNo":"061","wardName":"TATYA SARVATE"},{"latitude":22.70956391,"longitude":75.8507527,"precision":3.216,"amenity":"pharmacy","name":"Sai Ram Medical","name_hindi":"साई राम मेडिकल","adress":"1,Rajasvagram,Chatribagh","mobile":"9893545007","wardNo":"067","wardName":"MAHARAJA HOLKAR"},{"latitude":22.7088823,"longitude":75.84653053,"precision":3.216,"amenity":"pharmacy","name":"Pavan Medicose","name_hindi":"पवन मेडिकोज","adress":"20, Joshi Mohalla","mobile":"9303226308","opening_hours":"Mo-Sa 10:00-21:00","wardNo":"067","wardName":"MAHARAJA HOLKAR"},{"latitude":22.68328069,"longitude":75.83588149,"precision":5,"amenity":"pharmacy","name":"Satnam Medical And Cosmetic Centre","name_hindi":"सतनाम मेडिकल एंड कॉस्मेटिक सेंटर","adress":"2/5, Narmada Palace, Chanakyapuri Square, Annapurna Road","mobile":"9977244510","opening_hours":"Mo-Sa 09:30-21:30","wardNo":"081","wardName":"ANNAPURNA"},{"latitude":22.68105576,"longitude":75.83512866,"precision":3,"amenity":"pharmacy","name":"Jai Laxmi Medical Store","name_hindi":"जय लक्ष्मी मेडिकल स्टोर","adress":"Silver Oak Colony, Annapurna Road","opening_hours":"Mo-Sa 09:30-20:80","wardNo":"081","wardName":"ANNAPURNA"},{"latitude":22.68158091,"longitude":75.83457229,"precision":5,"amenity":"pharmacy","name":"Aman Medicose","name_hindi":"अमन मेडिकोज","adress":"1/2, Vaishali Nagar","opening_hours":"Mo-Sa 09:30-21:00","wardNo":"080","wardName":"DR. RAJENDRA PRASAD"},{"latitude":22.68162952,"longitude":75.83450061,"precision":5,"amenity":"pharmacy","name":"Amit Medical","name_hindi":"अमित मेडिकल","adress":"16/A, Vaishali Nagar","opening_hours":"Mo-Sa 08:30-21:00","wardNo":"080","wardName":"DR. RAJENDRA PRASAD"},{"latitude":22.68574761,"longitude":75.83610319,"precision":4,"amenity":"pharmacy","name":"Shree Krishna Medical Store","name_hindi":"श्री कृष्णा मेडिकल स्टोर","adress":"86, Mishra Nagar","mobile":"9893207221","opening_hours":"Mo-Sa 08:00-21:00","wardNo":"081","wardName":"ANNAPURNA"},{"latitude":22.68725815,"longitude":75.83651779,"precision":11,"amenity":"pharmacy","name":"Maheshwari Medical Store","name_hindi":"माहेश्वरी मेडिकल स्टोर","adress":"1/A, Annapurna Nagar","opening_hours":"Mo-Sa 09:00-21:00","wardNo":"081","wardName":"ANNAPURNA"},{"latitude":22.67782027,"longitude":75.83424834,"precision":4.288,"amenity":"pharmacy","name":"Healthcare Pharmacy","name_hindi":"हेल्थकेयर फार्मेसी","adress":"Prabhu Nagar","mobile":"9399528975","opening_hours":"Mo-Sa 10:00-21:00","wardNo":"081","wardName":"ANNAPURNA"},{"latitude":22.68809243,"longitude":75.83701027,"precision":4.288,"amenity":"pharmacy","name":"Kuber Medical","name_hindi":"कुबेर मेडिकल स्टोर","adress":"48 Annapurna Road","mobile":"9826644446","opening_hours":"Mo-Sa 10:00-21:00","wardNo":"081","wardName":"ANNAPURNA"},{"latitude":22.67696779,"longitude":75.83405701,"precision":3.216,"amenity":"pharmacy","name":"Shri Radha Medicose","name_hindi":"श्री राधा मेडिकोज","adress":"25,Prabhu Nagar,Annapurna Road","opening_hours":"Mo-Sa 10:00-22:00","wardNo":"081","wardName":"ANNAPURNA"},{"latitude":22.68313637,"longitude":75.83612769,"precision":4.288,"amenity":"pharmacy","name":"Wahe Guru Medical","name_hindi":"वाहे गुरू मेडिकल","adress":"31 Narmada Nagar","mobile":"9630490990","opening_hours":"Mo-Sa 09:00-14:00; 18:00-22:00","wardNo":"081","wardName":"ANNAPURNA"},{"latitude":22.68315732,"longitude":75.83703238,"precision":4.288,"amenity":"pharmacy","name":"Narmada Medicose","name_hindi":"नर्मदा मेडिकोज","adress":"Mahalaxmi Apartments, 59 Narmada Nagar","mobile":"9575109159","opening_hours":"Mo-Sa 10:00-18:00","wardNo":"081","wardName":"ANNAPURNA"},{"latitude":22.67659856,"longitude":75.8324671,"precision":3.216,"amenity":"pharmacy","name":"Lokesh Homeo Pharmacy","name_hindi":"लोकेश होमियो फार्मेसी","adress":"Vigyan Nagar ,Main Road","mobile":"6261455764","opening_hours":"Mo-Sa 10:00-21:00","wardNo":"080","wardName":"DR. RAJENDRA PRASAD"},{"latitude":22.67658344,"longitude":75.83211798,"precision":3.216,"amenity":"pharmacy","name":"Arihant Medicose","name_hindi":"अरिहंत मेडिकोज","adress":"Vigyan Nagar","opening_hours":"Mo-Sa 10:00-22:00","wardNo":"080","wardName":"DR. RAJENDRA PRASAD"},{"latitude":22.67695771,"longitude":75.83006624,"precision":4.5509996,"amenity":"pharmacy","name":"Shubham Medicos","name_hindi":"शुभम मेडिकोज","adress":"228, Vigyaan Nagar,Indore","mobile":"7415942896","opening_hours":"Mo-Su 09:00-22:00","wardNo":"080","wardName":"DR. RAJENDRA PRASAD"},{"latitude":22.68091547,"longitude":75.83486899,"precision":4.288,"amenity":"pharmacy","name":"Ojas Medicose ","name_hindi":"ओजस मेडिकोज","adress":"Sundar Sadan, Vaishali Nagar","mobile":"7415073831","opening_hours":"Mo-Sa 09:00-22:30","wardNo":"080","wardName":"DR. RAJENDRA PRASAD"},{"latitude":22.6805464,"longitude":75.82442378,"precision":4.5509996,"amenity":"pharmacy","name":"Kanishka Medicos","name_hindi":"कनिष्का मेडिकोज","adress":"335-B,Surya Dev Nagar,Indore","mobile":"9977816462","opening_hours":"Mo-Su 09:00-22:00","wardNo":"081","wardName":"ANNAPURNA"},{"latitude":22.68703953,"longitude":75.82946905,"precision":3.216,"amenity":"pharmacy","name":"Medicine Point","name_hindi":"मेडिसिन ","adress":"2106 Sector D Sudama Nagar","mobile":"9893548969","opening_hours":"11:00-22:00","wardNo":"082","wardName":"SUDAMA NAGAR"},{"latitude":22.68193306,"longitude":75.82726039,"precision":3.216,"amenity":"pharmacy","name":"Mandloi Medicose","name_hindi":"मंडलोई मेडिकोज","adress":"Grate Vashali Nagar","opening_hours":"Mo-Sa 10:00-22:00","wardNo":"081","wardName":"ANNAPURNA"},{"latitude":22.68177431,"longitude":75.82860431,"precision":3.216,"amenity":"pharmacy","name":"Shri Umiya Medical Store","name_hindi":"श्री उमिया मेडिकल स्टोर","adress":"16-A, Gopal Market,Suryadev Nagar","mobile":"9644332262","opening_hours":"Mo-Sa 10:00-21:00","wardNo":"081","wardName":"ANNAPURNA"},{"latitude":22.68185952,"longitude":75.83507436,"precision":3.216,"amenity":"pharmacy","name":"Shree Sai Medical Store","name_hindi":"श्री साईं मेडिकल स्टोर","adress":"8-A Medical Store","opening_hours":"Mo-Sa 10:00-21:00","wardNo":"080","wardName":"DR. RAJENDRA PRASAD"},{"latitude":22.68530671,"longitude":75.83593871,"precision":4.288,"amenity":"pharmacy","name":"Madhurima Medical","name_hindi":"मधुरिमा मेडिकल","adress":"88 Mishra Nagar","mobile":"9826078709","opening_hours":"Mo-Su 08:30-13:00; 15:30-21:00","wardNo":"081","wardName":"ANNAPURNA"},{"latitude":22.68535763,"longitude":75.83610189,"precision":4.288,"amenity":"pharmacy","name":"Krishna Medical","name_hindi":"कृष्ण मेडिकोज","adress":"88 Mishra Nagar","mobile":"9826291198","opening_hours":"Mo-Sa 10:00-18:00","wardNo":"081","wardName":"ANNAPURNA"},{"latitude":22.675185,"longitude":75.84758333333333,"precision":2.7,"amenity":"pharmacy","name":"Shri Krishna Pharmacy","name_hindi":"श्री क्रष्णा फार्मेसी","adress":"10 Shiv Square, Tejpur Gadbadi","mobile":"7470563993","opening_hours":"Mo-Sa09:30-21:00","wardNo":"078","wardName":"CHOITHRAM"},{"latitude":22.68115166666666,"longitude":75.85261833333334,"precision":2.8,"amenity":"pharmacy","name":"Alshifa Medical","name_hindi":"अलशिफा मेङिकल","adress":"Sch No. 59 Plot No. 58 Amitesh Nagar","mobile":"9926093344","opening_hours":"Mo-Su10:15-22:30","wardNo":"078","wardName":"CHOITHRAM"},{"latitude":22.67191073,"longitude":75.83013709,"precision":4,"amenity":"pharmacy","name":"Shrinath Medical Store","name_hindi":"श्रीनाथ मेडिकल स्टोर","adress":"5-B Classic Point Rajendra Nagar","mobile":"9425351979","opening_hours":"Mo-Sa 10:30-20:30","wardNo":"080","wardName":"DR. RAJENDRA PRASAD"},{"latitude":22.68839833333333,"longitude":75.85481,"precision":1.3,"amenity":"pharmacy","name":"Shanti Medicose","name_hindi":"शांती मेङिकोज़","adress":"Choithram Hospital","mobile":"9981641181","opening_hours":"24/7","wardNo":"074","wardName":"VISHNAPURI"},{"latitude":22.67203989,"longitude":75.83009861,"precision":5,"amenity":"pharmacy","name":"Shri Malhar Ayurvedic Store","name_hindi":"श्री मल्हार आयुर्वेदिक स्टोर","adress":"5-B Classic Point Rajendra Nagar","opening_hours":"Mo-Sa 10:30-20:30","wardNo":"080","wardName":"DR. RAJENDRA PRASAD"},{"latitude":22.68350832,"longitude":75.83017669,"precision":3.216,"amenity":"pharmacy","name":"Thane Ayurvedic Aushadhi Aur Jadi Butiya","name_hindi":"तनय आयुर्वेदिक आयुषी और जदी बटिया","adress":"Ahilya Nagar Extension Indore","mobile":"9993989102","opening_hours":"18:00-20:00","wardNo":"080","wardName":"DR. RAJENDRA PRASAD"},{"latitude":22.68804156,"longitude":75.83675582,"precision":4.288,"amenity":"pharmacy","name":"Suraj Medical Hall","name_hindi":"सुराजे मेडिकल हॉल","adress":"Bhavanipuri Colony","phone":"07314274856","opening_hours":"Mo-Sa 10:00-21:00","wardNo":"081","wardName":"ANNAPURNA"},{"latitude":22.68863914,"longitude":75.83689844,"precision":4.288,"amenity":"pharmacy","name":"New Pooja Medicose","name_hindi":"न्यू पूजा मेडिकोज","adress":"Bhavanipura","phone":"07312792330","opening_hours":"24/7","wardNo":"081","wardName":"ANNAPURNA"},{"latitude":22.68169998,"longitude":75.83454957,"precision":3.216,"amenity":"pharmacy","name":"Aman Medical Stores","name_hindi":"अमन मेडिकल स्टोर","adress":"Vaishali Nagar Indore","opening_hours":"11:00-22:00","wardNo":"080","wardName":"DR. RAJENDRA PRASAD"},{"latitude":22.68113347,"longitude":75.85257912,"precision":3.216,"amenity":"pharmacy","name":"Davaiyan","name_hindi":"दवाईयां","adress":"Amitesh Nagat","wardNo":"078","wardName":"CHOITHRAM"},{"latitude":22.66710725,"longitude":75.82597157,"precision":9,"amenity":"pharmacy","name":"Vyankatesh Medical Store","name_hindi":"व्यंकटेश मेडिकल स्टोर","adress":"119-C Dutta Nagar","mobile":"9174000172","opening_hours":"Mo-Sa 10:00-20:00","wardNo":"080","wardName":"DR. RAJENDRA PRASAD"},{"latitude":22.68342091,"longitude":75.82964876,"precision":9.648001,"amenity":"pharmacy","name":"Saksham Medicos","name_hindi":"सकशम मेडिकोज","adress":"Gopur Square Indore","mobile":"9425442293","opening_hours":"11:00-22:00","wardNo":"080","wardName":"DR. RAJENDRA PRASAD"},{"latitude":22.6809215,"longitude":75.84324562,"precision":3.216,"amenity":"pharmacy","name":"Medical Square ","name_hindi":"मेडिकल स्क्वेयर","adress":"Bindu Apartments","mobile":"9575666606","opening_hours":"Mo-Sa 10:00-21:00","wardNo":"078","wardName":"CHOITHRAM"},{"latitude":22.68291164,"longitude":75.84146885,"precision":4.288,"amenity":"pharmacy","name":"Sai Krupa Medical","name_hindi":"साईं कृपा मेडिकल","adress":"Kesarbagh","mobile":"7770816909","opening_hours":"Mo-Sa 10:30-14:30","wardNo":"078","wardName":"CHOITHRAM"},{"latitude":22.66968452,"longitude":75.82824434,"precision":5,"amenity":"pharmacy","name":"Manish Medicos","name_hindi":"मनीष मेडिकोज","adress":"Rajendra Nagar ","opening_hours":"Mo-Sa 10:30-20:30","wardNo":"080","wardName":"DR. RAJENDRA PRASAD"},{"latitude":22.68659361,"longitude":75.82486499,"precision":3.216,"amenity":"pharmacy","name":"Shri Keshav Medical Stores","name_hindi":"श्री केशव मेडिकल स्टोर","adress":"Hawa Bangla Indore","opening_hours":"11:00-22:00","wardNo":"082","wardName":"SUDAMA NAGAR"},{"latitude":22.66990758,"longitude":75.82815347,"precision":5,"amenity":"pharmacy","name":"Balaji Medical Stores","name_hindi":"बालाजी मेडिकल स्टोर्स","adress":"Rajendra Nagar","opening_hours":"Mo-Sa 10:30-20:00","wardNo":"080","wardName":"DR. RAJENDRA PRASAD"},{"latitude":22.67041386,"longitude":75.82857462,"precision":5,"amenity":"pharmacy","name":"Medicine","name_hindi":"दवा","adress":"Shantiniketan Apartment Rajan Nagar","opening_hours":"Mo-Sa 10:00-20:00","wardNo":"080","wardName":"DR. RAJENDRA PRASAD"},{"latitude":22.67088986,"longitude":75.829422,"precision":5,"amenity":"pharmacy","name":"Bharat Medical Stores","name_hindi":"भारत मेडिकल स्टोर","adress":"42-A Rajemdra Nagar Main Road ","opening_hours":"Mo-Su 8:00-13:00;16:00-22:00","wardNo":"080","wardName":"DR. RAJENDRA PRASAD"},{"latitude":22.68533332,"longitude":75.82372047,"precision":3.216,"amenity":"pharmacy","name":"Tulsi Medical Stores","name_hindi":"तुलसी मेडिकल स्टोर","adress":"Hawa Bangla Main Road Indore","opening_hours":"11:00-22:00","wardNo":"082","wardName":"SUDAMA NAGAR"},{"latitude":22.68636791,"longitude":75.82449701,"precision":3.216,"amenity":"pharmacy","name":"Patidar Medical Store","name_hindi":"पाटीदार मेडिकल स्टोर","adress":"Dwarika Puri Hawa Bangla Main Road","opening_hours":"10:00-22:00","wardNo":"084","wardName":"DWARKAPURI"},{"latitude":22.66681565,"longitude":75.8284379,"precision":9,"amenity":"pharmacy","name":"Bhavsar Medical","name_hindi":"भावसार चिकित्सा","adress":"Agra-Bombay Highway Main Road","mobile":"9827042007","opening_hours":"Mo-Su 10:00-13:00;16:00-22:00","wardNo":"080","wardName":"DR. RAJENDRA PRASAD"},{"latitude":22.68686064,"longitude":75.82484266,"precision":3.216,"amenity":"pharmacy","name":"Sairam Medical Store","name_hindi":"साईराम मेडिकल स्टोर","adress":"Hawa Bangla Main Road","mobile":"9713277842","opening_hours":"10:00-22:00","wardNo":"084","wardName":"DWARKAPURI"},{"latitude":22.66668788,"longitude":75.82591965,"precision":4.5509996,"amenity":"pharmacy","name":"Piganshu Pharmacy","name_hindi":"पीगंशु फार्मेसी","adress":"888 Datt Nagar,Rajendra Nagar,Indore","mobile":"9754909206","opening_hours":"Mo-Sa 9:00-22:30","wardNo":"080","wardName":"DR. RAJENDRA PRASAD"},{"latitude":22.69384865183383,"longitude":75.8294882811606,"precision":8,"amenity":"pharmacy","name":"Agrawal Medicose","name_hindi":"a","adress":"1056, Sector A Sudama Nagar, Indore ","mobile":"9926083466","opening_hours":"mo-su 08:00-22:00","wardNo":"083","wardName":"GUSHMATA NAGAR"},{"latitude":22.6694204,"longitude":75.82804689,"precision":4.5509996,"amenity":"pharmacy","name":"Sidhi Vinayak Medical Store","name_hindi":"सीधी विनायक मेडिकल स्टोर","adress":"51-B, Rajendra Nagar Main Road, Indore","mobile":"9584477777","opening_hours":"Mo-Sa 9:00-22:00","wardNo":"080","wardName":"DR. RAJENDRA PRASAD"},{"latitude":22.67043858,"longitude":75.82896033,"precision":4.5509996,"amenity":"pharmacy","name":"Akansha Pharmacy","name_hindi":"आकांशा फार्मेसी","adress":"22A Rajendra Nagar,Indore","mobile":"9977738777","opening_hours":"Mo-Sa 12:00-23:59","wardNo":"080","wardName":"DR. RAJENDRA PRASAD"},{"latitude":22.67091135,"longitude":75.82940023,"precision":4.5509996,"amenity":"pharmacy","name":"Yashasvi Medical Store","name_hindi":"यशस्वी मेडिकल स्टोर","adress":"41A Rajendra Nagar,Indore","mobile":"9589336393","opening_hours":"Mo-Sa 7:30-13:00;15:00-21:30","wardNo":"080","wardName":"DR. RAJENDRA PRASAD"},{"latitude":22.68094682,"longitude":75.84324034,"precision":4.5509996,"amenity":"pharmacy","name":"Medicine Square","name_hindi":"मैडिसन स्क्वेयर","adress":"C-123, Bindu Apartment, Scheme No. 103, Indore","mobile":"9575666606","opening_hours":"Mo-Su 10:00-23:00","wardNo":"078","wardName":"CHOITHRAM"},{"latitude":22.67849466,"longitude":75.8391498,"precision":4.5509996,"amenity":"pharmacy","name":"Royal Chemist","name_hindi":"रॉयल केमिस्ट","adress":"50- A, Sainath Palace, Scheme No.103, Kesharbagh Main Road, Indore ","mobile":"9826028100","opening_hours":"Mo-Su 09:00-14:00 ; 17:00-23:30","wardNo":"078","wardName":"CHOITHRAM"},{"latitude":22.67731179,"longitude":75.83834515,"precision":6.068,"amenity":"pharmacy","name":"Shriji Chemist","name_hindi":"श्रीजी केमिस्ट","adress":"37, Bindu Regency, Scheme No. 103, Indore","mobile":"9425953342","opening_hours":"Mo-Su 09:00-14:00 ; 17:00-21:00","wardNo":"078","wardName":"CHOITHRAM"},{"latitude":22.68619806971401,"longitude":75.8285878971219,"precision":5,"amenity":"pharmacy","name":"Venkatesh Medical","name_hindi":"व्यंकटेश मेडिकल","adress":"3116, Sector E, Sudama Nagar, Indore","mobile":"8962525088","opening_hours":"mo-su 09:00-12:30;17:00-22:00","wardNo":"082","wardName":"SUDAMA NAGAR"},{"latitude":22.67749005,"longitude":75.83806509,"precision":4.5509996,"amenity":"pharmacy","name":"Sumit Medical","name_hindi":"सुमित मेडिकल","adress":"B-22 , Chanakya Complex ,Indore","mobile":"9009506127","opening_hours":"Mo-Su 09:30-10:30","wardNo":"078","wardName":"CHOITHRAM"},{"latitude":22.68615347798914,"longitude":75.82434757612646,"precision":5,"amenity":"pharmacy","name":" Suraksha Medical Stores","name_hindi":" सुरक्षा मेडिकल स्टोर्स","adress":" Hawa Bangla Main Road, Indore","wardNo":"084","wardName":"DWARKAPURI"},{"latitude":22.68103979,"longitude":75.83501874,"precision":4.5509996,"amenity":"pharmacy","name":"Jay Laxmi Medical","name_hindi":"जय लक्ष्मी मेडिकल","adress":"Silver Oaks Colony, Indore","mobile":"9425683883","opening_hours":"Mo-Sa 10:00-14:00 ; 17:00-21:30","wardNo":"081","wardName":"ANNAPURNA"},{"latitude":22.67884551,"longitude":75.83461757,"precision":6.068,"amenity":"pharmacy","name":"Easy Medico","name_hindi":"ईजी मेडिको","adress":"1 Prabhu Nagar ,Indore","mobile":"8001030888","email":"Customerservice@easymedico.com","opening_hours":"Mo-Sa 10:00-21:00","wardNo":"081","wardName":"ANNAPURNA"},{"latitude":22.67786329,"longitude":75.83425532,"precision":4.5509996,"amenity":"pharmacy","name":"Healthcare Pharmacy","name_hindi":"हैल्थ केयर फार्मेसी","adress":"Prabhu Nagar, Indore","phone":"07314995975","opening_hours":"Mo-Sa 10:00-22:00","wardNo":"081","wardName":"ANNAPURNA"},{"latitude":22.68099367,"longitude":75.8346935,"precision":4.5509996,"amenity":"pharmacy","name":"Ojas Medicose","name_hindi":"ओजस मेडिकोज","adress":"3, Vaishali Nagar, Indore","opening_hours":"Mo-Su 10:00-21:30","wardNo":"080","wardName":"DR. RAJENDRA PRASAD"},{"latitude":22.77081584,"longitude":75.90411713,"precision":4.288,"amenity":"pharmacy","name":"Jai Basant Medical Store","name_hindi":"जय बसंत मेडिकल स्टोर","adress":"Gulab Bagh Colony","mobile":"9977012233","opening_hours":"Mo-Sa 09:00-10:30","wardNo":"031","wardName":"MAHARAJA CHATRASAL"},{"latitude":22.76470097,"longitude":75.90380666,"precision":4.288,"amenity":"pharmacy","name":"Papa Chemist","name_hindi":"पापा केमिस्ट","adress":"Sch No.114 ","mobile":"8982089820","opening_hours":"Mo-Sa 10:00-21:00","wardNo":"031","wardName":"MAHARAJA CHATRASAL"},{"latitude":22.76301418,"longitude":75.92348886,"precision":4.288,"amenity":"pharmacy","name":"Sai Medicos","name_hindi":"साई मेडिकोज","adress":"Shop No. 5 Buisness Island Opp Samar Park","mobile":"9893273389","opening_hours":"Mo-So 9:00-21:00","wardNo":"036","wardName":"NIPANIYA"},{"latitude":22.75677983,"longitude":75.90952008,"precision":3.216,"amenity":"pharmacy","name":"Pratap Medical Stores","name_hindi":"प्रताप मेडिकल स्टोर","adress":"577 Mahalaxmi Nagar","mobile":"9926072279","opening_hours":"Mo-Sa 10:00-21:00","wardNo":"037","wardName":"SAI KRUPA"},{"latitude":22.75689862,"longitude":75.90917242,"precision":4.288,"amenity":"pharmacy","name":"Garg Medicose","name_hindi":"गर्ग मेडिकोज","adress":"121 Mahalaxmi Nagar","mobile":"9111007676","opening_hours":"Mo-Sa 10:00-21:00","wardNo":"037","wardName":"SAI KRUPA"},{"latitude":22.79161761,"longitude":75.90733028,"precision":3.216,"amenity":"pharmacy","name":"Rishab Medical","name_hindi":"Rishab medical","adress":"Prakash Pump Kelod Hala","mobile":"7746071887","opening_hours":"Mo-Sa 10:00-21:00","wardNo":"035","wardName":"LASUDIYA MORI"},{"latitude":22.78520104,"longitude":75.90594676,"precision":4.288,"amenity":"pharmacy","name":"Shivam Medical","name_hindi":"शिवम मेडिकल","adress":"Lasudia Thana A B Road","mobile":"8109575813","opening_hours":"Mo-Sa 10:00-21:00","wardNo":"035","wardName":"LASUDIYA MORI"},{"latitude":22.76827324,"longitude":75.91380705,"precision":4,"amenity":"pharmacy","name":"E-Pharnsee Drug House","name_hindi":"इ-फार्मेसी ड्रग हाउस","adress":"Near Bhavans Prominent,Nipaniya Road","mobile":"9893453156","wardNo":"036","wardName":"NIPANIYA"},{"latitude":22.76463283,"longitude":75.92036996,"precision":3,"amenity":"pharmacy","name":"Maa Vaishnav Medical Stores","name_hindi":"माँ वैष्णव मेडिकल स्टोर्स","adress":"93,Deep Palace Colony,Nipania","mobile":"9098888805","opening_hours":"Mo-Su 10:30-22:30","wardNo":"036","wardName":"NIPANIYA"},{"latitude":22.76288808,"longitude":75.92171348,"precision":4,"amenity":"pharmacy","name":"Shri Hari Medical Stores","name_hindi":"श्री हरि मेडिकल स्टोर्स","adress":"Nipania Road","mobile":"9907473905","opening_hours":"Mo-Su 10:00-14:00;17:00-23:00","wardNo":"036","wardName":"NIPANIYA"},{"latitude":22.7623098,"longitude":75.9255071,"precision":3,"amenity":"pharmacy","name":"Kalpanil Medical And General Stores","name_hindi":"कल्पनिल मेडिकल एंड जनरल स्टोर्स","adress":"49/50 Maan Diamond Apartment,Samar Park,Gate No.3,Nipania","mobile":"9827634464","opening_hours":"Mo-Sa 9:00-22:09","wardNo":"036","wardName":"NIPANIYA"},{"latitude":22.769948,"longitude":75.88917836,"precision":4.5509996,"amenity":"pharmacy","name":"Kunal Chemist","name_hindi":"कुणाल केमिस्ट","adress":"G-13,Rajivawaas,Scheme N0.114,Indore","mobile":"9977110443","opening_hours":"Mo-Su 09:00-13:30;17:00-22:00","wardNo":"034","wardName":"SHAHID BHAGATSINGH"},{"latitude":22.761825,"longitude":75.92733691,"precision":5,"amenity":"pharmacy","name":"Mahalakshmi Medicose","name_hindi":"महालक्ष्मी मेडिकोज","adress":"214,Sector B,Amrit Palace,Nipania","mobile":"9977707773","opening_hours":"Mo-Sa 9:00-22:00\nSu 10:00-12:30;17:00-22:00","wardNo":"036","wardName":"NIPANIYA"},{"latitude":22.76899827,"longitude":75.89093798,"precision":4.5509996,"amenity":"pharmacy","name":"Jai Shree Dadaji Medicos","name_hindi":"जय श्री दादाजी मेडिकोज","adress":"115-B,Scheme No.114,Vijaynagar,Indore","mobile":"9977357846","opening_hours":"Mo-Su 10:00-22:00","wardNo":"034","wardName":"SHAHID BHAGATSINGH"},{"latitude":22.76947405,"longitude":75.88877041,"precision":3.216,"amenity":"pharmacy","name":"Mittal Medical","name_hindi":"मित्तल मेडिकल","mobile":"9827351228","opening_hours":"Mo-Sa 10:00-21:00","wardNo":"034","wardName":"SHAHID BHAGATSINGH"},{"latitude":22.76913395,"longitude":75.89011797,"precision":3.216,"amenity":"pharmacy","name":"Atulya Medical","name_hindi":"अतुल्य मेडिकल","adress":"Rajiv Awas Vihar","mobile":"9179194888","opening_hours":"Mo-Sa 10:00-22:00","wardNo":"034","wardName":"SHAHID BHAGATSINGH"},{"latitude":22.76215833333333,"longitude":75.92193999999999,"precision":1.2,"amenity":"pharmacy","name":"Ambika Medicose","name_hindi":"अंबिका मेङिकोज़","adress":"14 Samar Park, Nipaniya","mobile":"8982404008","email":"shivrajput99@yahoo.com","opening_hours":"Mo-Sa10:00-14:00;17:00-22:00","wardNo":"036","wardName":"NIPANIYA"},{"latitude":22.76868316,"longitude":75.89140794,"precision":3.216,"amenity":"pharmacy","name":"Maa Devi Medical","name_hindi":"माँ देवी मेडिकल","adress":"Near Arihant School","mobile":"9926042716","opening_hours":"Mo-Sa 10:00-22:00","wardNo":"034","wardName":"SHAHID BHAGATSINGH"},{"latitude":22.7725014,"longitude":75.889011,"precision":3.216,"amenity":"pharmacy","name":"Ayush Medical Store","name_hindi":"आयुष मेडिकल","adress":"1968, Sch No 114, Rajiv Awas","opening_hours":"Mo-Sa 10:00-14:00;17:00-21:00","wardNo":"034","wardName":"SHAHID BHAGATSINGH"},{"latitude":22.77636676,"longitude":75.89108623,"precision":3.216,"amenity":"pharmacy","name":"New Jai Basant Medical","name_hindi":"न्यू जय बसंत मेडिकल","adress":"484, Khalsa Chok, Niranjanpur","opening_hours":"Mo-Sa 10:00-22:00","wardNo":"034","wardName":"SHAHID BHAGATSINGH"},{"latitude":22.76934975,"longitude":75.87988126,"precision":3.216,"amenity":"pharmacy","name":"Aarogya Medical","name_hindi":"आरोग्य मेडिकल","adress":"527,Sch No 136 ,Sector C","mobile":"8821018826","opening_hours":"Mo-Sa 10:00-22:00","wardNo":"032","wardName":"ATAL BIHARI VAJPEYI"},{"latitude":22.76829567,"longitude":75.91384298,"precision":4,"amenity":"pharmacy","name":"E Pharmacy Drug House","name_hindi":"ई फार्मेसी ड्रग हाउस","adress":"Near Bhawana Prominent School, Nipaniya Road","mobile":"9893453156","opening_hours":"Mo-Sa 09:30-17:00","wardNo":"036","wardName":"NIPANIYA"},{"latitude":22.76557447,"longitude":75.90402225,"precision":8,"amenity":"pharmacy","name":"Dawakhana","name_hindi":"दवाखाना","opening_hours":"Mo-Sa 09:30-14:00","wardNo":"031","wardName":"MAHARAJA CHATRASAL"},{"latitude":22.77593119,"longitude":75.90331657,"precision":5,"amenity":"pharmacy","name":"Vinod Medical E","name_hindi":"विनोद मेडिकल","adress":"Mgc Compound, Dewas Naka","mobile":"9826216012","opening_hours":"Mo-Sa 09:00-18:00","wardNo":"035","wardName":"LASUDIYA MORI"},{"latitude":22.73845714051276,"longitude":75.91426846571267,"precision":6,"amenity":"pharmacy","name":"Shifa Medical Store","name_hindi":" शिफा मेडिकल स्टोर","adress":"8, Haji Colony, Khajrana, Indore","mobile":"9893785493","opening_hours":"mo-su 09:30-23:30","wardNo":"038","wardName":"HAJI COLONY"},{"latitude":22.74001676123589,"longitude":75.91613234952092,"precision":4,"amenity":"pharmacy","name":"Priya Medical Centre","name_hindi":" प्रिया मेडिकल सेंटर","adress":"Star Square, Nipania Road,Indore","wardNo":"038","wardName":"HAJI COLONY"},{"latitude":22.73561408277601,"longitude":75.91832094825804,"precision":6,"amenity":"pharmacy","name":"The Faith Medical Stores","name_hindi":"द फेथ मेडिकल स्टोर","adress":"Shalimar Colony, Indore","mobile":"8989898511","opening_hours":"mo-su 10:00-14:00; 16:00-23:00","wardNo":"039","wardName":"NAHAR SHAHVALI"},{"latitude":22.73562657181174,"longitude":75.91894037090242,"precision":4,"amenity":"pharmacy","name":" Dawakhana","name_hindi":" दवाखाना","adress":"Silver Colony Main Road, Indore","mobile":"9174141820","opening_hours":"mo-su 09:00-14:00;17:00-22:00","wardNo":"039","wardName":"NAHAR SHAHVALI"},{"latitude":22.73169638123363,"longitude":75.9208148997277,"precision":5,"amenity":"pharmacy","name":"Medicare Chemist And General Store","name_hindi":"मेडिकल केमिस्ट एंड जनरल स्टोर","adress":"5, Aman Nagar, Main Road, Khajrana, Indore","mobile":"9425322034","opening_hours":"mo-su 10:00-14:00;17:00-22:30","wardNo":"039","wardName":"NAHAR SHAHVALI"},{"latitude":22.73161935154349,"longitude":75.92003538273275,"precision":6,"amenity":"pharmacy","name":"Dawakhana","name_hindi":"दवाखाना","adress":"Multani Colony, Daudi Nagar, Indore","mobile":"8871376558","opening_hours":"10:00-12:00;20:00-21:30","wardNo":"039","wardName":"NAHAR SHAHVALI"},{"latitude":22.73156713228673,"longitude":75.91865320689976,"precision":5,"amenity":"pharmacy","name":"Mohomadi Dawakhana","name_hindi":" मोहम्मदी दवाखाना","adress":" Gandhi Gram, Khajrana Indore","opening_hours":"mo-su 10:00-14:00;18:00-22:00","wardNo":"039","wardName":"NAHAR SHAHVALI"},{"latitude":22.73153285030276,"longitude":75.91558199375868,"precision":4,"amenity":"pharmacy","name":"Bilal Medical ","name_hindi":" बिलाल मेडिकल","adress":"10 C Dileep Nagar, Khajrana, Indore","mobile":"8878653103","opening_hours":"09:00-23:00","wardNo":"039","wardName":"NAHAR SHAHVALI"},{"latitude":22.73167785722762,"longitude":75.91517806984484,"precision":5,"amenity":"pharmacy","name":" Zeba Pharmacy","name_hindi":" जेबा फार्मेसी","adress":"6, Dileep Nagar, Khajrana Indore","mobile":"9993123916","opening_hours":"10:00-23:00","wardNo":"039","wardName":"NAHAR SHAHVALI"},{"latitude":22.7318035857752,"longitude":75.91418791562319,"precision":6,"amenity":"pharmacy","name":"Ruhani Medical ","name_hindi":" रूहानी मेडिकल","adress":"Jam Jam Square, Hina Palace,Khajrana Indore","opening_hours":"09:00-22:00","wardNo":"039","wardName":"NAHAR SHAHVALI"},{"latitude":22.79158099,"longitude":75.90736246,"precision":4.5509996,"amenity":"pharmacy","name":"Rishabh Medical","name_hindi":"ऋषभ मेडिकल","adress":"819 ,Kelod Hala, Indore","mobile":"7746071887","opening_hours":"Mo-Sa 10:00-21:00","wardNo":"035","wardName":"LASUDIYA MORI"},{"latitude":22.78889842,"longitude":75.8944503,"precision":4.5509996,"amenity":"pharmacy","name":"Gurukripa Pharmacy","name_hindi":"गुरुकृपा फार्मेसी","adress":"Phoenix Town","mobile":"9304611099","opening_hours":"Mo-Su 10:00-20:00"},{"latitude":22.78983576,"longitude":75.89393353,"precision":7.585,"amenity":"pharmacy","name":"Singaji Medical Store","name_hindi":"सिंगाजी मेडिकल स्टोर","adress":"400, Phoenix Town ,Indore","mobile":"9826268222","opening_hours":"Mo-Sa 10:00-21:00"},{"latitude":22.79685085,"longitude":75.8981041,"precision":4.5509996,"amenity":"pharmacy","name":"Divyanka Medical Store","name_hindi":"दिव्यांका मेडिकल स्टोर","adress":"Singapore Township, Talawali Chanda , Indore","phone":"9713183711","opening_hours":"Mo-Sa 10:00-21:00"},{"latitude":22.79724454,"longitude":75.89809418,"precision":4.5509996,"amenity":"pharmacy","name":"Gupta Medical","name_hindi":"गुप्ता मेडिकल","adress":"Singapore Township, Talawali Chanda , Indore","mobile":"7746071887","opening_hours":"Mo-Sa 10:00-22:00"},{"latitude":22.79167436,"longitude":75.90791266,"precision":4.5509996,"amenity":"pharmacy","name":"Vikas Medical ","name_hindi":"विकास मेडिकल","adress":"Panchwati Colony, Dewas Naka , Indore","mobile":"9329459606","opening_hours":"Mo-Su 09:00-23:00","wardNo":"035","wardName":"LASUDIYA MORI"},{"latitude":22.78529823,"longitude":75.90596139,"precision":4.5509996,"amenity":"pharmacy","name":"Shivam Medical Store","name_hindi":"शिवम् मेडिकल स्टोर","adress":"17, Shivratan Complex, Lasudia Thane Ke Samne , Indore","mobile":"8109575813","opening_hours":"Mo-Sa 10:00-21:00","wardNo":"035","wardName":"LASUDIYA MORI"},{"latitude":22.78507682,"longitude":75.90587768,"precision":4.5509996,"amenity":"pharmacy","name":"Patel Medical","name_hindi":"पटेल मेडिकल","adress":"Lasudia Mori, Indore","mobile":"9009433775","opening_hours":"Mo-Sa 09:00-22:00","wardNo":"035","wardName":"LASUDIYA MORI"},{"latitude":22.74084216,"longitude":75.91725121,"precision":3.216,"amenity":"pharmacy","name":"Aarij Medical And General Stores","name_hindi":"आरिज मेडिकल और जनरल स्टोर","adress":"22 Taj Nagar Nipania Road Indore","mobile":"9977974887","opening_hours":"10:00-22:00","wardNo":"038","wardName":"HAJI COLONY"},{"latitude":22.74001261,"longitude":75.91778926,"precision":3.216,"amenity":"pharmacy","name":"Sonu Medical Stores","name_hindi":"सोनू मेडिकल स्टोर","adress":"Haji Colony Indore","opening_hours":"11:00-22:00","wardNo":"039","wardName":"NAHAR SHAHVALI"},{"latitude":22.73709873,"longitude":75.91637674,"precision":3.216,"amenity":"pharmacy","name":"Al Shifa Medical And General Stores","name_hindi":"\nअल शिफा मेडिकल और जनरल स्टोर","adress":"2, 3 Habib Colony Noori Madarsa Khajrana Indore","mobile":"9893303347","opening_hours":"11:00-22:00","wardNo":"039","wardName":"NAHAR SHAHVALI"},{"latitude":22.73550703,"longitude":75.91663419,"precision":3.216,"amenity":"pharmacy","name":"New Life Care Medical Stores","name_hindi":"mera","adress":"34 Habib Colony","mobile":"9753239104","opening_hours":"09:00-14:00;17:00-23:00","wardNo":"039","wardName":"NAHAR SHAHVALI"},{"latitude":22.73160542,"longitude":75.91888253,"precision":3.216,"amenity":"pharmacy","name":"Al Noor Medical Store","name_hindi":"अल नूरbमेडिकल स्टोर","adress":"Majestic Nagar Khajrana Indore","opening_hours":"10:00-22:00","wardNo":"039","wardName":"NAHAR SHAHVALI"},{"latitude":22.73165239,"longitude":75.91560007,"precision":3.216,"amenity":"pharmacy","name":"Pakeezah Medical And General Stores","name_hindi":"Pakizah चिकित्सा एवं सामान्य भंडार","adress":"9 Dilip Nagar Khajrana Indore","mobile":"9329855506","opening_hours":"10:00-22:00","wardNo":"039","wardName":"NAHAR SHAHVALI"},{"latitude":22.68818994518369,"longitude":75.86729066446424,"precision":6,"amenity":"pharmacy","name":"Sairam Medical","name_hindi":"साईं राम मेडिकल","adress":"295 Indrapuri Colony Indore","wardNo":"074","wardName":"VISHNAPURI"},{"latitude":22.67940763,"longitude":75.86309097,"precision":3.216,"amenity":"pharmacy","name":"Ganesh Medical","name_hindi":"गणेश मेडिकल","adress":"Pipliyarav Ring Road","mobile":"8305899997","opening_hours":"Mo-Sa 10:00-21:00","wardNo":"074","wardName":"VISHNAPURI"},{"latitude":22.69245191,"longitude":75.90115553,"precision":4.5509996,"amenity":"pharmacy","name":"Nitya Medical Stores","name_hindi":"नित्या मेडिकल स्टोर्स","adress":"12,Ram Nagar,Musakhedi,Indore","mobile":"9826720143","opening_hours":"Mo-Su 11:00-22:00","wardNo":"051","wardName":"BHAGVATI NAGAR"},{"latitude":22.67878643,"longitude":75.86307239,"precision":3.216,"amenity":"pharmacy","name":"Shree Vinayak","name_hindi":"श्री विनायक","adress":"Pipliyarav Ring Road","mobile":"9926083740","opening_hours":"Mo-Sa 10:00-21:00","wardNo":"074","wardName":"VISHNAPURI"},{"latitude":22.68037366,"longitude":75.86535453,"precision":4.288,"amenity":"pharmacy","name":"Apeksha Ayurveda","name_hindi":"अपेक्षा आयुर्वेद","adress":"346 Pipliyarav ","mobile":"7000054774","opening_hours":"Mo-Sa 10:00-21:00","wardNo":"074","wardName":"VISHNAPURI"},{"latitude":22.67383599,"longitude":75.87874082,"precision":4.288,"amenity":"pharmacy","name":"Shree Durga Medical","name_hindi":"श्री दुर्गा मेडिकल","adress":"Kanishka Nagar","opening_hours":"Mo-Sa 10:00-21:00","wardNo":"074","wardName":"VISHNAPURI"},{"latitude":22.67421387,"longitude":75.87994644,"precision":4.288,"amenity":"pharmacy","name":"Shree Hari Medical","name_hindi":"श्री हरि मेडिकल","adress":"Khandwa Naka ","mobile":"7987730779","opening_hours":"Mo-Sa 10:00-21:00","wardNo":"075","wardName":"PALDA"},{"latitude":22.6864353613928,"longitude":75.86348544806242,"precision":9,"amenity":"pharmacy","name":"Prashant Medical","name_hindi":"प्रशांत मेडिकल","adress":"Aman Residency, Bholaram Ustad Marg,Indore","phone":"9926599072","opening_hours":"mo-su 10:00-22:30","wardNo":"074","wardName":"VISHNAPURI"},{"latitude":22.67405382,"longitude":75.88000882,"precision":3.216,"amenity":"pharmacy","name":"Suresh Medicals","name_hindi":"सुरेश मेडिकल ","adress":"5 Khandwa Naka","mobile":"9981964600","opening_hours":"Mo-Sa 10:00-21:00","wardNo":"075","wardName":"PALDA"},{"latitude":22.68422362860292,"longitude":75.86418131366372,"precision":7,"amenity":"pharmacy","name":" Nirbhaya Medical Stores","name_hindi":"निर्भय मेडिकल स्टोर्स","adress":"Bholam Ustad Marg,Shivampuri Colony,Indore","phone":"07314902665","opening_hours":"mo-su 09:00-23:00","wardNo":"074","wardName":"VISHNAPURI"},{"latitude":22.69196322,"longitude":75.90574784,"precision":4.5509996,"amenity":"pharmacy","name":"Omkar Medical","name_hindi":"ॐकार मेडिकल","adress":"Chaudhary Park,Mayur Nagar,Musakhedi,Indore","opening_hours":"Mo-Su 10:00-22:00","wardNo":"051","wardName":"BHAGVATI NAGAR"},{"latitude":22.6837129611522,"longitude":75.86399213410914,"precision":5,"amenity":"pharmacy","name":" Jagrati Chemist","name_hindi":"जगराते केमिस्ट","adress":"48, Pipaliyarao Bholaram Ustad Marg, Indore","opening_hours":"mo-su 10:00-22:00","wardNo":"074","wardName":"VISHNAPURI"},{"latitude":22.6916651,"longitude":75.9089808,"precision":4.5509996,"amenity":"pharmacy","name":"Shri Vinayak Medical Stores","name_hindi":"श्री विनायक मेडिकल सोटर्स","adress":"Chaudhary Park Colony,Musakhedi,Indore","mobile":"8878335227","opening_hours":"Mo-Su 10:00-21:00","wardNo":"054","wardName":"RESIDENCY"},{"latitude":22.66777093,"longitude":75.88747827,"precision":4.288,"amenity":"pharmacy","name":"Shree Hari Medicose ","name_hindi":"श्री हरि मेडिकोज","adress":"Brajnayni Colony","mobile":"7747092444","opening_hours":"Mo-Sa 10:00-21:00","wardNo":"077","wardName":"BILAWALI"},{"latitude":22.68588737,"longitude":75.90864656,"precision":4.5509996,"amenity":"pharmacy","name":"Raj Medicals","name_hindi":"राज मेडिकल्स","adress":"5,Vaishnavi Market,Nemawar Road, Indore","mobile":"9589999944","opening_hours":"Mo-Su 10:00-23:00","wardNo":"051","wardName":"BHAGVATI NAGAR"},{"latitude":22.66882828,"longitude":75.88791789,"precision":4.288,"amenity":"pharmacy","name":"Milan Chemist","name_hindi":"मिलन केमिस्ट","adress":"Brajnayni Colony","phone":"07312877419","opening_hours":"Mo-Sa 10:00-21:00","wardNo":"077","wardName":"BILAWALI"},{"latitude":22.66791628,"longitude":75.88922301,"precision":3.216,"amenity":"pharmacy","name":"Treat Medical","name_hindi":"ट्रीट मेडिकल","adress":"Ganga Vihar","mobile":"9165635999","opening_hours":"Mo-Sa 10:00-21:00","wardNo":"077","wardName":"BILAWALI"},{"latitude":22.66800969,"longitude":75.8896325,"precision":4.288,"amenity":"pharmacy","name":"Gurunanak Medicals","name_hindi":"गुरुनानक मेडिकल","adress":"Shivdham Colony Khandwa Road","opening_hours":"Mo-Sa 10:00-21:00","wardNo":"077","wardName":"BILAWALI"},{"latitude":22.68201537430286,"longitude":75.86381200700998,"precision":7,"amenity":"pharmacy","name":"Kshitij Chemist","name_hindi":" क्षितिज केमिस्ट","adress":"54, Nanak College, Bholaram Ustad Marg, Indore","opening_hours":"mo-su 09:00-22:00","wardNo":"074","wardName":"VISHNAPURI"},{"latitude":22.68564586993307,"longitude":75.88986405171454,"precision":6,"amenity":"pharmacy","name":" माही मेडिकल","name_hindi":" Mahi medical","adress":"Nemawar Road, Palda,Indore","opening_hours":"mo-su 09:00-22:00","wardNo":"064","wardName":"CHITAVAD"},{"latitude":22.68566426821053,"longitude":75.89034575968981,"precision":6,"amenity":"pharmacy","name":"Shri Krishna Medical","name_hindi":" श्री कृष्ण मेडिकल","adress":"11, Shree Ram Nagar, Palda Naka, Indore","opening_hours":"mo-su 09:00-22:00","wardNo":"075","wardName":"PALDA"},{"latitude":22.68619685433805,"longitude":75.89115561917424,"precision":6,"amenity":"pharmacy","name":"Solanki Chemist","name_hindi":" सोलंकी केमिस्ट","adress":"1 135, Sri Ram Nagar, Palda Indore","mobile":"8602616010","opening_hours":"08:00-13:00;14:30-21:00","wardNo":"075","wardName":"PALDA"},{"latitude":22.68727598246187,"longitude":75.89253494516015,"precision":4,"amenity":"pharmacy","name":"Vinayak Medical Agency","name_hindi":"विनायक मेडिकल एजेंसी","adress":"266, Sri Ram Nagar Palda, Indore","mobile":"9981838521","opening_hours":"09:00-22:00","wardNo":"051","wardName":"BHAGVATI NAGAR"},{"latitude":22.69249809,"longitude":75.90120554,"precision":3.216,"amenity":"pharmacy","name":"Riddhi Chemist","name_hindi":"रिद्धि केमिस्ट","adress":"Ram Nagar, Musakhedi Square","mobile":"9630225653","opening_hours":"Mo-Sa 10:00-21:00","wardNo":"051","wardName":"BHAGVATI NAGAR"},{"latitude":22.69276441,"longitude":75.90255177,"precision":3.216,"amenity":"pharmacy","name":"Granth Medical","name_hindi":"ग्रंथ मेडिकल","adress":"4 No Gali ,Mayur Nagar,Musakhedi","mobile":"9009809228","opening_hours":"Mo-Sa 10:00-22:00","wardNo":"054","wardName":"RESIDENCY"},{"latitude":22.69274767,"longitude":75.90313845,"precision":3.216,"amenity":"pharmacy","name":"Sreshta Medical","name_hindi":"श्रेष्ठ मेडिकल","adress":"Mayur Nagar,Musakhedi","mobile":"9425032601","opening_hours":"Mo-Sa 11:00-22:00","wardNo":"054","wardName":"RESIDENCY"},{"latitude":22.69267209,"longitude":75.90385332,"precision":3.216,"amenity":"pharmacy","name":"Meena Medical","name_hindi":"मीणा मेडिकल","adress":"Mayur Nagar, Musakhedi","opening_hours":"Mo-Sa 10:00-22:00","wardNo":"054","wardName":"RESIDENCY"},{"latitude":22.69207417,"longitude":75.90706319,"precision":3.216,"amenity":"pharmacy","name":"Health Life Medicose","name_hindi":"हेल्थ लाइफ मेडिकोज","adress":"91-92,Shri Krishna Nagar,Musakhedi","mobile":"8305485368","opening_hours":"Mo-Sa 10:00-22:00","wardNo":"051","wardName":"BHAGVATI NAGAR"},{"latitude":22.69085581,"longitude":75.91128491,"precision":3.216,"amenity":"pharmacy","name":"Maa Harsiddhi Chemist","name_hindi":"माँ हरसिद्धि केमिस्ट","adress":"Musakhedi","mobile":"8815203102","opening_hours":"Mo-Sa 10:00-22:00","wardNo":"054","wardName":"RESIDENCY"},{"latitude":22.67502119,"longitude":75.87227398,"precision":5,"amenity":"pharmacy","name":"Shri Ram Medicals","name_hindi":"श्री राम मेडिकल","adress":"Suraj Nagar, Hingada","mobile":"9503613626","opening_hours":"Mo-Fr 09:30-17:00","wardNo":"077","wardName":"BILAWALI"},{"latitude":22.67280257,"longitude":75.88031176,"precision":8,"amenity":"pharmacy","name":"Rv Pharmacy","name_hindi":"आर.वी. फार्मेसी","adress":"Sector A Khandwa Road","mobile":"9630111372","opening_hours":"24/7","wardNo":"077","wardName":"BILAWALI"},{"latitude":22.6678231,"longitude":75.88893206,"precision":8,"amenity":"pharmacy","name":"Mahankaal Medical","name_hindi":"महाकाल मेडिकल","adress":"Shop No 14, Ganga Paradise, Limbodi","mobile":"9685039978","opening_hours":"Mo-Sa 09:00-19:00","wardNo":"077","wardName":"BILAWALI"},{"latitude":22.6926201,"longitude":75.9008298,"precision":24.9,"amenity":"pharmacy","name":"Sheetal Medical Store ","name_hindi":"शीतल मेडिकल स्टोर ","adress":"Shop No. 10, Chitawad Rd, Nemavar Road, Khisnpuri Colony, Babul Nagar, Musakhedi, Indore","mobile":"7024470544","opening_hours":"Mo-Fr 10: 00-21: 00","wardNo":"051","wardName":"BHAGVATI NAGAR"},{"latitude":22.6926556,"longitude":75.9020741,"precision":50.325,"amenity":"pharmacy","name":"J N Medical Store","name_hindi":"जन मेडिकल स्टोर","adress":"105/A, Gali Number 2, Mayur Nagar, Musakhedi, Indore","mobile":"9926955929","opening_hours":"Mo-Fr 10: 00-21: 00","wardNo":"054","wardName":"RESIDENCY"},{"latitude":22.6919361,"longitude":75.9038614,"precision":20,"amenity":"pharmacy","name":"Aadarsh Medical Store","name_hindi":"आदर्श मेडिकल स्टोर","adress":"9,Virat Nagar Musakhdi, Indore","mobile":"9009556367","opening_hours":"Mo-Fr 10: 00-21: 00","wardNo":"051","wardName":"BHAGVATI NAGAR"},{"latitude":22.6919361,"longitude":75.9038614,"precision":20,"amenity":"pharmacy","name":"Swastik Medical Store","name_hindi":"स्वस्तिक मेडिकल स्टोर","adress":"35 Virat Nagar Musakhedi, Indore","mobile":"9893047365","opening_hours":"Mo-Fr 10: 00-21: 00","wardNo":"051","wardName":"BHAGVATI NAGAR"},{"latitude":22.6921658,"longitude":75.904927,"precision":28.1,"amenity":"pharmacy","name":"Shree Ganesh Medical ","name_hindi":"श्री गणेश मेडिकल ","adress":"Near Lal Mandir, 1-2, Shahin Nagar, Musakhedi, Indore","mobile":"7566022220","opening_hours":"Mo-Fr 10: 00-22: 00","wardNo":"051","wardName":"BHAGVATI NAGAR"},{"latitude":22.6921254,"longitude":75.9067674,"precision":20.1,"amenity":"pharmacy","name":"Shri Gajendra Medical Store ","name_hindi":"श्री गजेन्द्र मेडिकल स्टोर ","adress":"Mayur Nagar, Musakhedi, Indore\n\n","mobile":"8823828871","opening_hours":"Mo-Fr 10: 00-21: 00","wardNo":"051","wardName":"BHAGVATI NAGAR"},{"latitude":22.6921254,"longitude":75.9067674,"precision":34.4,"amenity":"pharmacy","name":"Shree Guru Medical Store","name_hindi":"श्री गुरु मेडिकल स्टोर","adress":" Shahin Nagar, Musakhedi, Indore\n\n","mobile":"9770027727","opening_hours":"Mo-Fr 10: 00-21: 00","wardNo":"051","wardName":"BHAGVATI NAGAR"},{"latitude":22.66530887,"longitude":75.91535337,"precision":3,"amenity":"pharmacy","name":"Alshifa Medical","name_hindi":"अल्शिफा मेडिकल","adress":"Pathar Mundla,By Pass Road,Indore","mobile":"9981168640","opening_hours":"Mo-Su 11:00-23:00","wardNo":"075","wardName":"PALDA"},{"latitude":22.66491328,"longitude":75.91549798,"precision":4,"amenity":"pharmacy","name":"Ip Medical Store","name_hindi":"आई पी मेडिकल स्टोर","adress":"Shop No.4 ,Nayta Mundla,By Pass","mobile":"9179686802","opening_hours":"Mo-Sa 10:00-22:00","wardNo":"075","wardName":"PALDA"},{"latitude":22.69010123,"longitude":75.86678215,"precision":3.216,"amenity":"pharmacy","name":"Jay Pharma","name_hindi":"जय फार्मा","adress":"C 57 Indrapuri Colony Indore","phone":"07314979326","opening_hours":"Mo-Sa 10:00-14:00;18:00-22:00","wardNo":"074","wardName":"VISHNAPURI"},{"latitude":22.69014264,"longitude":75.86666007,"precision":3.216,"amenity":"pharmacy","name":"Kshipra Medicals","name_hindi":"क्षिप्रा मेडिकल स्टोर","adress":"72 Indrapuri Colony Indore","phone":"07312474116","opening_hours":"Mo-Sa 10:00-14:00;17:00-22:00","wardNo":"074","wardName":"VISHNAPURI"},{"latitude":22.69047081,"longitude":75.86647333,"precision":3.216,"amenity":"pharmacy","name":"Deepna Medical And General Store","name_hindi":"दीपना मेडिकल और जनरल स्टोर","adress":"75 Indrapuri Colony Indore","opening_hours":"Mo-Sa 10:00-14:00;18:00-22:00","wardNo":"074","wardName":"VISHNAPURI"},{"latitude":22.68955782,"longitude":75.86677517,"precision":9.648001,"amenity":"pharmacy","name":"Medical Store And Chemist","name_hindi":"\nमेडिकल स्टोर और केमिस्ट","adress":"Indrapuri Colony Indore","mobile":"9424482286","opening_hours":"Mo-Sa 10:00-22:00","wardNo":"074","wardName":"VISHNAPURI"},{"latitude":22.68427535,"longitude":75.86417268,"precision":3.216,"amenity":"pharmacy","name":"Sarika Medical Store","name_hindi":"सारिका मेडिकल स्टोर","adress":"1 Shivam Puri Colony Indore","opening_hours":"24/7","wardNo":"074","wardName":"VISHNAPURI"},{"latitude":22.68345306,"longitude":75.86411473,"precision":3.216,"amenity":"pharmacy","name":"Gayatri Medical And General Stores","name_hindi":"गायत्री मेडिकल और जनरल स्टोर","adress":"6A Shivapuri Colony Bholaram Ustad Marg Indore","mobile":"7898280735","opening_hours":"10:00-14:00;17:00-22:00","wardNo":"074","wardName":"VISHNAPURI"},{"latitude":22.68201499,"longitude":75.86384639,"precision":3.216,"amenity":"pharmacy","name":"Sri Sai Medical Stores","name_hindi":"श्री साई मेडिकल स्टोर्स","adress":"66,Bholaram Ustad Marg Indore","opening_hours":"10:00-22:00","wardNo":"074","wardName":"VISHNAPURI"},{"latitude":22.6865878,"longitude":75.88801405,"precision":3.216,"amenity":"pharmacy","name":"Shree Ganesh Medical And General Stores","name_hindi":"\nश्री गणेश मेडिकल स्टोर","adress":"35 Palda Naka Nemawar Road Indore","mobile":"9977353753","opening_hours":"10:00-22:00","wardNo":"064","wardName":"CHITAVAD"},{"latitude":22.68543611,"longitude":75.8898881,"precision":3.216,"amenity":"pharmacy","name":"Sai Ram Medical Store","name_hindi":"\nसाई राम मेडिकल स्टोर","adress":"Palda Naka Hanuman Mandir Ke Paas Indore","mobile":"9630087403","opening_hours":"11:00-22:00","wardNo":"075","wardName":"PALDA"},{"latitude":22.68810242,"longitude":75.89685937,"precision":3.216,"amenity":"pharmacy","name":"Sheetal Medical","name_hindi":"शीतल चिकित्सा","adress":"Krishnapuri Colony Nemawar Main Road Indore","mobile":"7024470544","opening_hours":"11:00-22:00","wardNo":"051","wardName":"BHAGVATI NAGAR"},{"latitude":22.75876823,"longitude":75.847761,"precision":4.5509996,"amenity":"pharmacy","name":"New Life Medical","name_hindi":"न्यू लाइफ मेडिकल","adress":"Sanwer Road,Indore","phone":"07312722803","opening_hours":"Mo-Su 10:00-22:00","wardNo":"018","wardName":"SANT KABIR"},{"latitude":22.75988537,"longitude":75.84791222,"precision":4.5509996,"amenity":"pharmacy","name":"Arogya Medical Store","name_hindi":"आरोग्य मेडिकल स्टोर","adress":"117-A,Sanwer Road,Indore","mobile":"7415321273","opening_hours":"Mo-Su 11:00-21:00","wardNo":"018","wardName":"SANT KABIR"},{"latitude":22.77068562,"longitude":75.84768139,"precision":4.5509996,"amenity":"pharmacy","name":"Shree Shree Hari Medical","name_hindi":"श्री श्री हरि मेडिकल","adress":"404,Narval Square,Sanwer Road,Indore","opening_hours":"Mo-Su 10:00-22:00","wardNo":"018","wardName":"SANT KABIR"},{"latitude":22.79927674,"longitude":75.84718848,"precision":4.5509996,"amenity":"pharmacy","name":"Patel Medicos","name_hindi":"पटेल मेडिकोज","adress":"Ujjain Road,Indore","mobile":"9926999905","opening_hours":"Mo-Su 10:00-22:00","wardNo":"018","wardName":"SANT KABIR"},{"latitude":22.7920029,"longitude":75.84752163,"precision":6.068,"amenity":"pharmacy","name":"Pal Shree Medicals","name_hindi":"पाल श्री मेडिकल्स","adress":"Sanwer Road,Indore","opening_hours":"Mo-Su 10:00-22:00","wardNo":"018","wardName":"SANT KABIR"},{"latitude":22.77683826,"longitude":75.84206233,"precision":4.5509996,"amenity":"pharmacy","name":"Shree Krishna Medical","name_hindi":"श्री कृष्णा मेडिकल","adress":"Bhavani Nagar,Sanwer Road,Indore","mobile":"9826907075","opening_hours":"Mo-Sa 10:00-22:00","wardNo":"018","wardName":"SANT KABIR"},{"latitude":22.81781536,"longitude":75.92651684,"precision":3,"amenity":"pharmacy","name":"The Ayurveda Shop","name_hindi":"आयुर्वेद की दुकान","adress":"Mangliya Main Road","mobile":"9009030009","opening_hours":"Mo-Sa 10:00-12:00;16:00-20:00"},{"latitude":22.75978283,"longitude":75.84794104,"precision":3.216,"amenity":"pharmacy","name":"Raghuvansh Medicose","name_hindi":"रघुवंश मेडिकोज","adress":"414/1, Sanwer Road","opening_hours":"Mo-Sa 10:00-21:00","wardNo":"018","wardName":"SANT KABIR"},{"latitude":22.76636409,"longitude":75.84741837,"precision":3.216,"amenity":"pharmacy","name":"Devendra Medical","name_hindi":"देवेंद्र मेडिकल","adress":"Sanwer Road","opening_hours":"Mo-Sa 10:00-22:00","wardNo":"018","wardName":"SANT KABIR"},{"latitude":22.77090232,"longitude":75.84767125,"precision":3.216,"amenity":"pharmacy","name":"Radhakrishna Medical","name_hindi":"राधकृष्ण मेडिकल","adress":"Narval Square,Sanwer Road","opening_hours":"Mo-Sa 10:00-22:00","wardNo":"018","wardName":"SANT KABIR"},{"latitude":22.799568,"longitude":75.84722557,"precision":3.216,"amenity":"pharmacy","name":"New Harshita Medical","name_hindi":"न्यू हर्षिता मेडिकल","adress":"Ujjain Road","mobile":"9926999967","opening_hours":"Mo-Sa 10:00-21:00","wardNo":"018","wardName":"SANT KABIR"},{"latitude":22.79585528,"longitude":75.84735355,"precision":3.216,"amenity":"pharmacy","name":"Rajesh Medical","name_hindi":"राजेश मेडिकल","adress":"Ranwer Road","mobile":"9893715692","opening_hours":"Mo-Sa 10:00-22:00","wardNo":"018","wardName":"SANT KABIR"},{"latitude":22.79182771,"longitude":75.8471028,"precision":3.216,"amenity":"pharmacy","name":"Hira Medicose","name_hindi":"हीरा मेडिकोज","adress":"Luvkush Square,Sanwer Road","mobile":"9977001616","opening_hours":"Mo-Sa 10:00-22:00","wardNo":"018","wardName":"SANT KABIR"},{"latitude":22.77689527,"longitude":75.84205322,"precision":3.216,"amenity":"pharmacy","name":"Pinki Medical","name_hindi":"पिंकी मेडिकल","adress":"Bhavani Nagar,Sanwer Road","opening_hours":"Mo-Sa 10:00-22:00","wardNo":"018","wardName":"SANT KABIR"},{"latitude":22.81719519,"longitude":75.92585065,"precision":3.216,"amenity":"pharmacy","name":"Sagar Madical & General Stores","name_hindi":"सागर मेडिकल एंड जनरल स्टोर ","adress":"A. B. Road Maglia, Indore","mobile":"9575750980","opening_hours":"Mo-Fr 10: 00-21: 00"},{"latitude":22.81724897,"longitude":75.92587928,"precision":4.288,"amenity":"pharmacy","name":"Arun Medical Store","name_hindi":"अरुण मेडिकल स्टोर","adress":"Agra Bombay Rd, Mahadev Sahara, Mangliya, Indore","mobile":"9893001298","opening_hours":"Mo-Fr 9: 00-21: 00"},{"latitude":22.81874731,"longitude":75.92708496,"precision":4.288,"amenity":"pharmacy","name":"Sunil Medical Store","name_hindi":"सुनील मेडिकल स्टोर","adress":"Agra Bombay Rd, Mahadev Sahara, Mangliya, Indore","opening_hours":"Mo-Fr 10: 00-21: 00"},{"latitude":22.80703888,"longitude":75.91857811,"precision":4.288,"amenity":"pharmacy","name":"Sathya Sai Medical Store","name_hindi":"सत्या साई मेडिकल स्टोर ","adress":"Gate No.2 Opposite Ruchi Soya Talawali Chanda Ab Road, Indore","mobile":"9753899830","opening_hours":"Mo-Fr 10: 00-21: 00"},{"latitude":22.73827252909541,"longitude":75.84722698666155,"precision":5,"amenity":"pharmacy","name":"Garg Medical Store","name_hindi":" गर्ग मेडिकल स्टोर","adress":"11/4,Kamla Nehru Nagar,Kila Road,Indore","mobile":"9926645595","opening_hours":"mo-su 10:00-22:00","wardNo":"009","wardName":"VRINDAVAN"},{"latitude":22.73969640489668,"longitude":75.84750836715102,"precision":6,"amenity":"pharmacy","name":"Shree Ram Chemist","name_hindi":" श्री राम केमिस्ट","adress":"Kila Maidan, Main Road, Indore","opening_hours":"10:00-14:00;17:00-22:00","wardNo":"009","wardName":"VRINDAVAN"},{"latitude":22.73994949646294,"longitude":75.84805386140943,"precision":5,"amenity":"pharmacy","name":"Shri Vishwanath Pharmacy","name_hindi":" श्री विश्वनाथ फार्मेसी","adress":"43, Khazgi Ka Bageecha,Vrindawan Square,Indore","mobile":"9303592156","opening_hours":"mo-su 10:00-14:00;17:00-22:00","wardNo":"009","wardName":"VRINDAVAN"},{"latitude":22.74053442757577,"longitude":75.84776929579675,"precision":9,"amenity":"pharmacy","name":"Joshi Medical Store","name_hindi":" जोशी मेडिकल स्टोर","adress":"Vrindawan Colony,Sabzi Mandi,Indore","opening_hours":" 11:00-14:00; 17:00-22:00","wardNo":"009","wardName":"VRINDAVAN"},{"latitude":22.74351411033422,"longitude":75.84830657579005,"precision":9,"amenity":"pharmacy","name":"Jaiswal Medical Store ","name_hindi":" जयसवाल मेडिकल स्टोर","adress":"8-A, 2-3, Bandganga, Indore","mobile":"9977608128","opening_hours":"09:00-22:00","wardNo":"010","wardName":"BANGANGA"},{"latitude":22.73728631436825,"longitude":75.84602368064225,"precision":5,"amenity":"pharmacy","name":"Om Medical Stores","name_hindi":" ॐ स्टोर्स ओम","adress":"B1, Kamla Nehru Colony, Scheme Number 51 Road, Indore","opening_hours":"09:00-22:00","wardNo":"009","wardName":"VRINDAVAN"},{"latitude":22.73790033068508,"longitude":75.84165452979505,"precision":6,"amenity":"pharmacy","name":"Baba Chemist","name_hindi":"बाबा केमिस्ट","adress":"194, Laxman Pura, Scheme No. 51 Indore ","opening_hours":"10:00-22:00","wardNo":"013","wardName":"SANGAM NAGAR"},{"latitude":22.73443793412298,"longitude":75.84016682580113,"precision":8,"amenity":"pharmacy","name":"Alok Medical","name_hindi":"आलोक मेडिकल","adress":"6-A Rambali Nagar, Indore","phone":"07312417941","opening_hours":"09:00-22:00","wardNo":"013","wardName":"SANGAM NAGAR"},{"latitude":22.736442591995,"longitude":75.83739442750812,"precision":6,"amenity":"pharmacy","name":"Bhandari Medical","name_hindi":"भंडारी मेडिकल","adress":"Sangam Nagar Main Road, Indore","opening_hours":"10:00-23:00","wardNo":"013","wardName":"SANGAM NAGAR"},{"latitude":22.73703712038696,"longitude":75.83786423318088,"precision":6,"amenity":"pharmacy","name":"Anuradha Medical Store","name_hindi":"अनुराधा मेडिकल स्टोर","adress":"182-B, Sangam Nagar,Indore","mobile":"9993135821","opening_hours":"09:00-14:00;17:00-22:00","wardNo":"013","wardName":"SANGAM NAGAR"},{"latitude":22.74149922654033,"longitude":75.83867761306465,"precision":5,"amenity":"pharmacy","name":"Maa Annapurna Medical","name_hindi":" मां अन्नपूर्णा मेडिकल","adress":"332, Scheme Number 51, Indore","opening_hours":"09:00-14:00;17:00-22:30","wardNo":"013","wardName":"SANGAM NAGAR"},{"latitude":22.7346438774839,"longitude":75.83088118582964,"precision":4,"amenity":"pharmacy","name":"Krishna Medical","name_hindi":" कृष्णा मेडिकल ","adress":"6, Rukmani Nagar,Indore","opening_hours":"10:00-14:00;17:00-22:00","wardNo":"014","wardName":"ASHOK NAGAR"},{"latitude":22.73447661660612,"longitude":75.83072218112648,"precision":7,"amenity":"pharmacy","name":"Hakimi Medical ","name_hindi":" हकीमी मेडिकल","adress":"22 C Rukmani Nagar,Indore","mobile":"8602609169","opening_hours":"10:00-23:00","wardNo":"014","wardName":"ASHOK NAGAR"},{"latitude":22.81824565,"longitude":75.92695344,"precision":4.5509996,"amenity":"pharmacy","name":"Krishna Medical","name_hindi":"कृष्णा मेडिकल","adress":"A.B. Road , Manglia"},{"latitude":22.81946284,"longitude":75.92851116,"precision":4.5509996,"amenity":"pharmacy","name":"Sanjivani Medical Store","name_hindi":"संजीवनी मेडिकल स्टोर","adress":"Haat Maidan, Mangliya","mobile":"7869856076"},{"latitude":22.81911959,"longitude":75.92742579,"precision":4.5509996,"amenity":"pharmacy","name":"Shakti Pharma","name_hindi":"शक्ति फार्मा"},{"latitude":22.79860076,"longitude":75.91216483,"precision":4.5509996,"amenity":"pharmacy","name":"Medical","name_hindi":"दवाइयां ","mobile":"9713216544","wardNo":"035","wardName":"LASUDIYA MORI"},{"latitude":22.81710683,"longitude":75.92572548,"precision":5,"amenity":"pharmacy","name":"Saw Liya Medical Store And General Store","name_hindi":"सांवलिया मेडिकल स्टोर  एंड जनरल स्टोर ","adress":"A.B. Road ,Mangliya","mobile":"9977048077","opening_hours":"Mo-Su 8:30-22:00"},{"latitude":22.81853957,"longitude":75.92673762,"precision":5,"amenity":"pharmacy","name":"D.S.B. Medical Store","name_hindi":"डी.एस. बी मेडिकल स्टोर","adress":"A.B.Road,Mangliya","mobile":"7580969549","opening_hours":"Mo-Su 9:30-22:30"},{"latitude":22.78528102,"longitude":75.90604764,"precision":5,"amenity":"pharmacy","name":"Shivam Medical And General Store","name_hindi":"शिवम् मेडिकल एंड जनरल स्टोर","adress":"17,Shivratan Complex,Near Lasudia Thana","mobile":"8109585813","opening_hours":"Mo-Sa 9:00-22:00","wardNo":"035","wardName":"LASUDIYA MORI"},{"latitude":22.72461693,"longitude":75.82495925,"precision":4.5509996,"amenity":"pharmacy","name":"Aarogya","name_hindi":"आरोग्य","adress":"626 Kalank Nagar Airport Road,Indore","phone":"18003004256","opening_hours":"Mo-Sa 9:00-22:00","wardNo":"003","wardName":"KALANI NAGAR"},{"latitude":22.73264228,"longitude":75.82210095,"precision":4.5509996,"amenity":"pharmacy","name":"Shri Gayatri Medical Store","name_hindi":"श्री गायत्री मेडिकल स्टोर","adress":"51 Ambikapur Extension,Indore","mobile":"9685848707","opening_hours":"Mo-Fr 9:00-20:00","wardNo":"014","wardName":"ASHOK NAGAR"},{"latitude":22.74184117,"longitude":75.79306097,"precision":4.5509996,"amenity":"pharmacy","name":"Om Sai Medical","name_hindi":"ओम साई मेडिकल","adress":"Gandhinagar Main Road,Indore","mobile":"9893745634","opening_hours":"Mo-Su 9:00-22:00","wardNo":"015","wardName":"BIJASAN"},{"latitude":22.73753033,"longitude":75.82706058,"precision":4.5509996,"amenity":"pharmacy","name":"Ridhi Sidhi Medical Store","name_hindi":"रिधि सीधी मेडिकल स्टोर","adress":"8 Vikas Nagar,Chota Bagardha Indore","mobile":"9826907075","opening_hours":"Mo-Sa 8:00-20:00","wardNo":"016","wardName":"NANDBAG"},{"latitude":22.73222653,"longitude":75.82768401,"precision":4.5509996,"amenity":"pharmacy","name":"Chetansh Medical Store","name_hindi":"चेतांश मेडिकल स्टोर","adress":"22A Akhand Nagar,Indore","mobile":"9977220062","opening_hours":"Mo-Sa 10:30-21:00","wardNo":"014","wardName":"ASHOK NAGAR"},{"latitude":22.72456333333334,"longitude":75.82515666666667,"precision":1.1,"amenity":"pharmacy","name":"Bhaiya Medicose","name_hindi":"भैय्या मेङिकोज़","adress":"625 Kalani Nagar Road","mobile":"8989066401","opening_hours":"Mo-Su09:00-23:00","wardNo":"003","wardName":"KALANI NAGAR"},{"latitude":22.72502,"longitude":75.82366166666667,"precision":1.4,"amenity":"pharmacy","name":"Shree Pharmacy","name_hindi":"श्री फॉर्मेसी","adress":"3 Anjani Nagar, Kalani Nagar Square","mobile":"9425322833","opening_hours":"Mo-Sa10:00-22:00","wardNo":"004","wardName":"SUKHDEV NAGAR"},{"latitude":22.72564166666667,"longitude":75.821395,"precision":1.2,"amenity":"pharmacy","name":"Shree Nath Medical","name_hindi":"श्री नाथ मेङिकल","adress":"50 Ambikapuri Main, Airport Road","mobile":"9039990666","opening_hours":"Mo-Su07:00-23:30","wardNo":"004","wardName":"SUKHDEV NAGAR"},{"latitude":22.72564166666667,"longitude":75.82124999999999,"precision":1.1,"amenity":"pharmacy","name":"Shree Sai Medical Store","name_hindi":"श्री साई मेङिकल स्टोर","adress":"58/C Ambika Puri Main, Airport Road","mobile":"9425097589","opening_hours":"Mo-Sa09:00-20:00","wardNo":"004","wardName":"SUKHDEV NAGAR"},{"latitude":22.72930166666667,"longitude":75.81878833333333,"precision":0.9,"amenity":"pharmacy","name":"Chouhan Medical Store","name_hindi":"चौहान मेङिकल स्टोर","adress":"69, Shree Krishna Nagar ,60 Feet Main Road","mobile":"9827437990","opening_hours":"Mo-Sa09:00-20:00","wardNo":"014","wardName":"ASHOK NAGAR"},{"latitude":22.72909666666667,"longitude":75.821095,"precision":1,"amenity":"pharmacy","name":"Avani Medical","name_hindi":"अवनि मेङिकल","adress":"17 Ambikapuri Ext. ,60 Feet Road","mobile":"9009897724","opening_hours":"Mo-Sa09:00-21:00","wardNo":"014","wardName":"ASHOK NAGAR"},{"latitude":22.73893,"longitude":75.79106666666667,"precision":0.9,"amenity":"pharmacy","name":"Bharat Medical Store","name_hindi":"भारत मेङिकल स्टोर","adress":"7 Babubali Nagar, Gandhi Nagar","mobile":"9753121585","opening_hours":"Mo-Sa10:00-21:00"},{"latitude":22.74007833333333,"longitude":75.78872666666666,"precision":0.8,"amenity":"pharmacy","name":" Shree Daksh Medical","name_hindi":"श्री दक्ष मेङिकल","adress":"Ac/113 Special Gandhi Nagar ","opening_hours":"24/7","wardNo":"015","wardName":"BIJASAN"},{"latitude":22.74091333333333,"longitude":75.79209333333333,"precision":1,"amenity":"pharmacy","name":"Mohammadi Medical Store","name_hindi":"मोहम्मदी मेङिकल स्टोर","adress":"6 Parasram Marg, Gandhi Nagar","mobile":"9993399425","opening_hours":"Mo-Sa10:00-20:00","wardNo":"015","wardName":"BIJASAN"},{"latitude":22.73917671,"longitude":75.84742215,"precision":3.216,"amenity":"pharmacy","name":"Om Medical Stores","name_hindi":"ओम मेडिकल स्टोर","adress":"22 Kamla Nehru Colony Main Road Indore","wardNo":"009","wardName":"VRINDAVAN"},{"latitude":22.7401165,"longitude":75.84767808,"precision":10.72,"amenity":"pharmacy","name":"Tulsi Medical Stores","name_hindi":"तुलसी मेडिकल स्टोर","adress":"Brindavan Colony Kila Maidan Main Road Indore","opening_hours":"10:00-14:00;17:00-22:00","wardNo":"009","wardName":"VRINDAVAN"},{"latitude":22.74368294,"longitude":75.84831309,"precision":4.288,"amenity":"pharmacy","name":"Suraj Medical Stores","name_hindi":"सूरज मेडिकल स्टोर","adress":"Sathya Sai Bagh Colony Balganga Main Road Indore","opening_hours":"10:00-22:00","wardNo":"010","wardName":"BANGANGA"},{"latitude":22.73447692,"longitude":75.84053111,"precision":3.216,"amenity":"pharmacy","name":"Janki Chemist","name_hindi":"जानकी चिकित्सा","adress":"48 Rambali Nagar Sangam Nagar Main Road Indore","opening_hours":"11:00-22:00","wardNo":"013","wardName":"SANGAM NAGAR"},{"latitude":22.74079142,"longitude":75.83523853,"precision":3.216,"amenity":"pharmacy","name":" Panchwati Medical Stores","name_hindi":"पंचवटी मेडिकल स्टोर","adress":"290 Scheme Number 51 Indore","mobile":"9826024199","opening_hours":"10:00-23:00","wardNo":"013","wardName":"SANGAM NAGAR"},{"latitude":22.74057319,"longitude":75.8375922,"precision":3.216,"amenity":"pharmacy","name":"Kirti Medical Stores","name_hindi":"कीर्ति मेडिकल स्टोर","adress":"268 Avantika Nagar Scheme Number 51 Indore","mobile":"9770726800","opening_hours":"11:00-14:00;18:00-22:00","wardNo":"013","wardName":"SANGAM NAGAR"},{"latitude":22.73438646,"longitude":75.83065433,"precision":4.288,"amenity":"pharmacy","name":"Shri Ram Medical Stores","name_hindi":"Shri Ram medical stores","adress":"22C Rukmani Nagar Chhota Bangarda Indore","mobile":"8770355125","opening_hours":"11:00-14:00;18:00-22:00","wardNo":"014","wardName":"ASHOK NAGAR"}]}