{"Secondary HCS":[{"latitude":22.74827618,"longitude":75.87845022,"precision":4.5509996,"amenity":"hospital","operator":"public","type":"secondary","name":"E.S.I.C. Hospital","name_hindi":"ईएसआईसी हॉस्पिटल","address":"1378/11,ITI College Main road,Nanda Nagar,Indore","phone":"07312556153","website":"esichospitals.gov.in","opening_hours":"24/7","personnel_count":450,"blood_bank":"no","ot":"yes","ventilator":"yes","radiology_labs":"yes","pathology_labs":"yes","ambulance":"yes","other_facility":"dentist; dermatologist; gynecologist; microbiologist; oncologist; ophthalmologist; ent; pediatrician; psychiatrist","wardNo":"027","wardName":"PASHUPATI NATH"},{"latitude":22.71376661,"longitude":75.87900936,"precision":3.216,"amenity":"hospital","operator":"public","type":"secondary","name":"Accident and emergency Centre m y","name_hindi":"\nदुर्घटना और आपातकालीन केंद्र m y","address":"M y hospital A B Road Indore","opening_hours":"24/7","personnel_count":200,"blood_bank":"yes","ot":"yes","ventilator":"yes","radiology_labs":"yes","pathology_labs":"yes","ambulance":"yes","wardNo":"055","wardName":"SAUTH TUKOGANJ"},{"latitude":22.72306951,"longitude":75.85605324,"precision":4.5509996,"amenity":"hospital","operator":"public","type":"secondary","name":"Rajshree Nursing Home","name_hindi":"राजश्री नर्सिंग होम","personnel_count":35,"blood_bank":"no","ot":"no","ventilator":"yes","radiology_labs":"no","pathology_labs":"yes","ambulance":"no","wardNo":"057","wardName":"DEVI AHILYABAI"},{"latitude":22.71806356,"longitude":75.86534251,"precision":9.648001,"amenity":"hospital","operator":"public","type":"secondary","name":"Mth women's Hospital","name_hindi":"Mth महिला अस्पताल","address":"Mth compound","opening_hours":"09:00-13:30","personnel_count":100,"blood_bank":"no","ot":"no","ventilator":"no","radiology_labs":"no","pathology_labs":"no","ambulance":"no","other_facility":"OPD; sonography; vaccinations; gynecologist","wardNo":"057","wardName":"DEVI AHILYABAI"},{"latitude":22.75348072,"longitude":75.9021253,"precision":10,"amenity":"hospital","operator":"public","type":"secondary","name":"Heart and Diabetes Care Centre","name_hindi":"हार्ट एंड डायबिटीज केअर सेंटर","mobile":"9755722233","opening_hours":"Su-Sat 10:00-12:00; 18:00-20:30","personnel_count":2,"blood_bank":"no","ot":"no","ventilator":"no","radiology_labs":"no","pathology_labs":"no","ambulance":"no","other_facility":"Physician\nHeart and Diabetes Care","wardNo":"031","wardName":"MAHARAJA CHATRASAL"},{"latitude":22.75309975,"longitude":75.90485764,"precision":9,"amenity":"hospital","operator":"public","type":"secondary","name":"Dr.Meghna Laghate Kelkar","name_hindi":"डॉ मेघना लगाते केलकर","address":"Vijay nagar","opening_hours":"Mon-Sat 10:30-13:30\n17:30-20:00","personnel_count":2,"blood_bank":"no","ot":"no","ventilator":"no","radiology_labs":"no","pathology_labs":"no","ambulance":"no","other_facility":"Baby clinic","wardNo":"037","wardName":"SAI KRUPA"},{"latitude":22.75355542,"longitude":75.90477411,"precision":5,"amenity":"hospital","operator":"public","type":"secondary","name":"Dr. Vrinda Vashishth","name_hindi":"डॉ. वृंदा वशिष्ठ","address":"Bombay Hospital square","phone":"07312572225","mobile":"9993700419","opening_hours":"Sun-Sat 11:30-13:30\n18:00-20:00","personnel_count":1,"blood_bank":"no","ot":"no","ventilator":"no","radiology_labs":"no","pathology_labs":"no","ambulance":"no","other_facility":"Female illness specialist\nFor pregnancy.","wardNo":"037","wardName":"SAI KRUPA"},{"latitude":22.7535769,"longitude":75.90480583,"precision":5,"amenity":"hospital","operator":"public","type":"secondary","name":"Dr.Renu Dubey(Sharma)","name_hindi":"डॉ. रेनू दुबे","opening_hours":"Sun-Sat 9:00-12:00\n17:00-21:00","personnel_count":2,"blood_bank":"no","ot":"no","ventilator":"no","radiology_labs":"no","pathology_labs":"no","ambulance":"no","other_facility":"Gynaecologist","wardNo":"037","wardName":"SAI KRUPA"},{"latitude":22.75325379,"longitude":75.90453856,"precision":5,"amenity":"hospital","operator":"public","type":"secondary","name":"Shubham Dental Clinic","name_hindi":"शुभम डेंटल क्लिनिक","address":"102,Amar point,sch no.94,Near Bombay Hospital","mobile":"9826927632","opening_hours":"Su-Sat 10:00-13:00; 18:00-21:00","personnel_count":2,"blood_bank":"no","ot":"no","ventilator":"no","radiology_labs":"no","pathology_labs":"no","ambulance":"no","other_facility":"Dental clinic and facilities","wardNo":"037","wardName":"SAI KRUPA"},{"latitude":22.75346381,"longitude":75.9021177,"precision":6.068,"amenity":"hospital","operator":"public","type":"secondary","name":"Heart and Diabetes Care Center ","name_hindi":"हार्ट एंड डायबिटीज केयर सेंटर","mobile":"9755722233","opening_hours":"Su-Sa 10:00-12:00; 17:00-20:30","personnel_count":2,"blood_bank":"no","ot":"no","ventilator":"no","radiology_labs":"no","pathology_labs":"no","ambulance":"no","other_facility":"Physician \nHeart and Diabetes Care","wardNo":"031","wardName":"MAHARAJA CHATRASAL"},{"latitude":22.75348395,"longitude":75.90482379,"precision":4.5509996,"amenity":"hospital","operator":"public","type":"secondary","name":"Dr. Meghna Laghate Kelkar","name_hindi":"डॉ मेघना लघ्ते केलकर","phone":"07312572225","opening_hours":"Mo-Sa 10:30-13:30; 17:30-20:00","personnel_count":1,"blood_bank":"no","ot":"no","ventilator":"no","radiology_labs":"no","pathology_labs":"no","ambulance":"no","other_facility":"Baby Care","wardNo":"037","wardName":"SAI KRUPA"},{"latitude":22.75358798,"longitude":75.90483981,"precision":4.5509996,"amenity":"hospital","operator":"public","type":"secondary","name":"Dr. Vrinda Vashistha","name_hindi":"डॉ वृंदा वशिष्ठ","phone":"07312572225","mobile":"9993700419","opening_hours":"Su-Sa 11:30-13:30; 18:00-20:00","personnel_count":2,"blood_bank":"no","ot":"no","ventilator":"no","radiology_labs":"no","pathology_labs":"no","ambulance":"no","other_facility":"Child and Would Specialist","wardNo":"037","wardName":"SAI KRUPA"},{"latitude":22.75361151,"longitude":75.90482838,"precision":4.5509996,"amenity":"hospital","operator":"public","type":"secondary","name":"Dr. Renu Dubey","name_hindi":"डॉ रेणु दुबे","opening_hours":"Su-Sa 9:00-12:00; 17:00-21:00","personnel_count":2,"blood_bank":"no","ot":"no","ventilator":"no","radiology_labs":"no","pathology_labs":"no","ambulance":"no","other_facility":"Woman and Child Specialist","wardNo":"037","wardName":"SAI KRUPA"},{"latitude":22.75320864,"longitude":75.90456939,"precision":4.5509996,"amenity":"hospital","operator":"public","type":"secondary","name":"Shubham Dental Clinic ","name_hindi":"शुभम डेंटल क्लीनिक","mobile":"9826927632","opening_hours":"Su-Sa 10:00-13:00; 18:00-21:00","personnel_count":2,"blood_bank":"no","ot":"no","ventilator":"no","radiology_labs":"no","pathology_labs":"no","ambulance":"no","other_facility":"Dental Care","wardNo":"037","wardName":"SAI KRUPA"}]}