{"Veterinary":[{"latitude":22.735567,"longitude":75.88721788,"amenity":"veterinary","type":"private","name":"Dr Bs Chadda","nameHindi":"डॉ। बीएस चड्डा","adress":"Nehru Nagar, Indore","opening_hours":"Mo-fr 9:00-13:00;18:00-21:00","wardNo":"045","wardName":"DR. BHIMRAO AMBEDAR"},{"latitude":22.70390243,"longitude":75.83999917,"amenity":"veterinary","type":"public","name":"Veternery Hospital","nameHindi":"पशु चिकित्सालय","adress":"Mog Lines, Indore","opening_hours":"24/7","wardNo":"071","wardName":"DRAVID NAGAR"},{"latitude":22.70253932,"longitude":75.83962094,"amenity":"veterinary","type":"public","name":"Shaskiya Pashu Sangralay","nameHindi":"शस्किया पशू संग्रलाय","adress":"Ranjeet Hanuman Road, Indore","wardNo":"071","wardName":"DRAVID NAGAR"},{"latitude":22.68154171,"longitude":75.82857805,"amenity":"veterinary","type":"private","name":"Petvet Veterinary Clinic","nameHindi":"पेटवेट वेटरनरी क्लिनिक","adress":"18-A,Surya Dev Nagar,Indore","phone":"9827092475","opening_hours":"Mo-Fr 08:00-09:00;18:00-21:00;Sa-Su 10:00-14:00","wardNo":"081","wardName":"ANNAPURNA"},{"latitude":22.68004503,"longitude":75.82882909,"amenity":"veterinary","type":"private","name":"Paresh Kumar Jain","nameHindi":"परेश कुमार जैन","adress":"104,Siddhipuram Colony,Indore","phone":"9406627998","opening_hours":"Mo-Fr 09:00-20:00","wardNo":"081","wardName":"ANNAPURNA"},{"latitude":22.68759428523481,"longitude":75.82545951940119,"amenity":"veterinary","type":"private","name":"Panacea Veterinary Clinic","nameHindi":" पनासिया वेटरनरी क्लिनिक","adress":"3070 E, Near Dutt Mandir, Hawa Bangla Road, Sudhama Nagar, Indore","phone":"9630809656","opening_hours":"24/7","wardNo":"082","wardName":"SUDAMA NAGAR"},{"latitude":22.75767345,"longitude":75.9058327,"amenity":"veterinary","type":"private","name":"My Pet Clinic","nameHindi":"माय पेट क्लीनिक","adress":"Shilmala Building,Sch No 94, Indore","phone":"8980677159","opening_hours":"Mo-Sa 15:00-21:00","wardNo":"037","wardName":"SAI KRUPA"}]}